{
"type": "FeatureCollection",
"name": "linestring_countries",
"crs": { "type": "name", "properties": { "name": "urn:ogc:def:crs:OGC:1.3:CRS84" } },
"features": [
{ "type": "Feature", "properties": { "z_other": "NEPS_TAJ", "z": "PAK_KAR", "country_ini_lat": 25.096286396932051, "country_ini_lon": 67.227230733596684, "lat_linestring": 30.927940807664445, "lon_linestring": 68.300165157280446, "c": "PAK", "c2": "AFG" }, "geometry": { "type": "LineString", "coordinates": [ [ 67.227230733596684, 25.096286396932051 ], [ 69.373099580964194, 36.759595218396832 ] ] } },
{ "type": "Feature", "properties": { "z_other": "TAJ_N", "z": "PAK_KAR", "country_ini_lat": 25.096286396932051, "country_ini_lon": 67.227230733596684, "lat_linestring": 32.449954783065976, "lon_linestring": 68.225542855051259, "c": "PAK", "c2": "TAJ" }, "geometry": { "type": "LineString", "coordinates": [ [ 67.227230733596684, 25.096286396932051 ], [ 69.223854976505834, 39.803623169199909 ] ] } },
{ "type": "Feature", "properties": { "z_other": "NEPS_UZB", "z": "PAK_KAR", "country_ini_lat": 25.096286396932051, "country_ini_lon": 67.227230733596684, "lat_linestring": 30.62270224520099, "lon_linestring": 67.083966742939097, "c": "PAK", "c2": "AFG" }, "geometry": { "type": "LineString", "coordinates": [ [ 67.227230733596684, 25.096286396932051 ], [ 66.94070275228151, 36.149118093469937 ] ] } },
{ "type": "Feature", "properties": { "z_other": "NEPS_TKM", "z": "PAK_KAR", "country_ini_lat": 25.096286396932051, "country_ini_lon": 67.227230733596684, "lat_linestring": 30.483176322068296, "lon_linestring": 65.930649985209726, "c": "PAK", "c2": "AFG" }, "geometry": { "type": "LineString", "coordinates": [ [ 67.227230733596684, 25.096286396932051 ], [ 64.634069236822782, 35.870066247204541 ] ] } },
{ "type": "Feature", "properties": { "z_other": "NEPS_HERAT", "z": "PAK_KAR", "country_ini_lat": 25.096286396932051, "country_ini_lon": 67.227230733596684, "lat_linestring": 29.645999166480433, "lon_linestring": 64.673970420524597, "c": "PAK", "c2": "AFG" }, "geometry": { "type": "LineString", "coordinates": [ [ 67.227230733596684, 25.096286396932051 ], [ 62.120710107452503, 34.195711936028815 ] ] } },
{ "type": "Feature", "properties": { "z_other": "KGZ_S", "z": "PAK_KAR", "country_ini_lat": 25.096286396932051, "country_ini_lon": 67.227230733596684, "lat_linestring": 32.894856787597682, "lon_linestring": 69.8112804820543, "c": "PAK", "c2": "KGZ" }, "geometry": { "type": "LineString", "coordinates": [ [ 67.227230733596684, 25.096286396932051 ], [ 72.395330230511917, 40.693427178263313 ] ] } },
{ "type": "Feature", "properties": { "z_other": "TAJ_S", "z": "PAK_KAR", "country_ini_lat": 25.096286396932051, "country_ini_lon": 67.227230733596684, "lat_linestring": 31.671049488690322, "lon_linestring": 69.321335282515065, "c": "PAK", "c2": "TAJ" }, "geometry": { "type": "LineString", "coordinates": [ [ 67.227230733596684, 25.096286396932051 ], [ 71.415439831433446, 38.245812580448593 ] ] } },
{ "type": "Feature", "properties": { "z_other": "KGZ_N", "z": "PAK_KAR", "country_ini_lat": 25.096286396932051, "country_ini_lon": 67.227230733596684, "lat_linestring": 33.529276958214687, "lon_linestring": 71.583247722207631, "c": "PAK", "c2": "KGZ" }, "geometry": { "type": "LineString", "coordinates": [ [ 67.227230733596684, 25.096286396932051 ], [ 75.939264710818591, 41.962267519497324 ] ] } },
{ "type": "Feature", "properties": { "z_other": "NEPS_AFG", "z": "PAK_KAR", "country_ini_lat": 25.096286396932051, "country_ini_lon": 67.227230733596684, "lat_linestring": 28.9991635990547, "lon_linestring": 67.123278023309496, "c": "PAK", "c2": "AFG" }, "geometry": { "type": "LineString", "coordinates": [ [ 67.227230733596684, 25.096286396932051 ], [ 67.019325313022293, 32.90204080117735 ] ] } },
{ "type": "Feature", "properties": { "z_other": "PAK_N", "z": "PAK_KAR", "country_ini_lat": 25.096286396932051, "country_ini_lon": 67.227230733596684, "lat_linestring": 28.899087234212939, "lon_linestring": 69.886459190757364, "c": "PAK", "c2": "PAK" }, "geometry": { "type": "LineString", "coordinates": [ [ 67.227230733596684, 25.096286396932051 ], [ 72.545687647918058, 32.701888071493826 ] ] } },
{ "type": "Feature", "properties": { "z_other": "PAK_S", "z": "PAK_KAR", "country_ini_lat": 25.096286396932051, "country_ini_lon": 67.227230733596684, "lat_linestring": 26.395039680891117, "lon_linestring": 66.957983318734037, "c": "PAK", "c2": "PAK" }, "geometry": { "type": "LineString", "coordinates": [ [ 67.227230733596684, 25.096286396932051 ], [ 66.68873590387139, 27.693792964850179 ] ] } },
{ "type": "Feature", "properties": { "z_other": "UZB", "z": "PAK_KAR", "country_ini_lat": 25.096286396932051, "country_ini_lon": 67.227230733596684, "lat_linestring": 33.426120539646504, "lon_linestring": 65.183635957039755, "c": "PAK", "c2": "UZB" }, "geometry": { "type": "LineString", "coordinates": [ [ 67.227230733596684, 25.096286396932051 ], [ 63.140041180482825, 41.755954682360958 ] ] } },
{ "type": "Feature", "properties": { "z_other": "TUR", "z": "PAK_KAR", "country_ini_lat": 25.096286396932051, "country_ini_lon": 67.227230733596684, "lat_linestring": 32.106100352171325, "lon_linestring": 63.301592477769489, "c": "PAK", "c2": "TUR" }, "geometry": { "type": "LineString", "coordinates": [ [ 67.227230733596684, 25.096286396932051 ], [ 59.375954221942287, 39.115914307410591 ] ] } },
{ "type": "Feature", "properties": { "z_other": "KAZ_S", "z": "PAK_KAR", "country_ini_lat": 25.096286396932051, "country_ini_lon": 67.227230733596684, "lat_linestring": 34.862778291093235, "lon_linestring": 68.916186163773119, "c": "PAK", "c2": "KAZ" }, "geometry": { "type": "LineString", "coordinates": [ [ 67.227230733596684, 25.096286396932051 ], [ 70.605141593949568, 44.629270185254427 ] ] } },
{ "type": "Feature", "properties": { "z_other": "KAZ_N", "z": "PAK_KAR", "country_ini_lat": 25.096286396932051, "country_ini_lon": 67.227230733596684, "lat_linestring": 37.481047040102411, "lon_linestring": 68.528602013020304, "c": "PAK", "c2": "KAZ" }, "geometry": { "type": "LineString", "coordinates": [ [ 67.227230733596684, 25.096286396932051 ], [ 69.829973292443924, 49.865807683272763 ] ] } },
{ "type": "Feature", "properties": { "z_other": "PAK_KAR", "z": "NEPS_TAJ", "country_ini_lat": 36.759595218396832, "country_ini_lon": 69.373099580964194, "lat_linestring": 30.927940807664445, "lon_linestring": 68.300165157280446, "c": "AFG", "c2": "PAK" }, "geometry": { "type": "LineString", "coordinates": [ [ 69.373099580964194, 36.759595218396832 ], [ 67.227230733596684, 25.096286396932051 ] ] } },
{ "type": "Feature", "properties": { "z_other": "TAJ_N", "z": "NEPS_TAJ", "country_ini_lat": 36.759595218396832, "country_ini_lon": 69.373099580964194, "lat_linestring": 38.281609193798374, "lon_linestring": 69.298477278735021, "c": "AFG", "c2": "TAJ" }, "geometry": { "type": "LineString", "coordinates": [ [ 69.373099580964194, 36.759595218396832 ], [ 69.223854976505834, 39.803623169199909 ] ] } },
{ "type": "Feature", "properties": { "z_other": "NEPS_UZB", "z": "NEPS_TAJ", "country_ini_lat": 36.759595218396832, "country_ini_lon": 69.373099580964194, "lat_linestring": 36.454356655933381, "lon_linestring": 68.156901166622845, "c": "AFG", "c2": "AFG" }, "geometry": { "type": "LineString", "coordinates": [ [ 69.373099580964194, 36.759595218396832 ], [ 66.94070275228151, 36.149118093469937 ] ] } },
{ "type": "Feature", "properties": { "z_other": "NEPS_TKM", "z": "NEPS_TAJ", "country_ini_lat": 36.759595218396832, "country_ini_lon": 69.373099580964194, "lat_linestring": 36.314830732800687, "lon_linestring": 67.003584408893488, "c": "AFG", "c2": "AFG" }, "geometry": { "type": "LineString", "coordinates": [ [ 69.373099580964194, 36.759595218396832 ], [ 64.634069236822782, 35.870066247204541 ] ] } },
{ "type": "Feature", "properties": { "z_other": "NEPS_HERAT", "z": "NEPS_TAJ", "country_ini_lat": 36.759595218396832, "country_ini_lon": 69.373099580964194, "lat_linestring": 35.47765357721282, "lon_linestring": 65.746904844208345, "c": "AFG", "c2": "AFG" }, "geometry": { "type": "LineString", "coordinates": [ [ 69.373099580964194, 36.759595218396832 ], [ 62.120710107452503, 34.195711936028815 ] ] } },
{ "type": "Feature", "properties": { "z_other": "KGZ_S", "z": "NEPS_TAJ", "country_ini_lat": 36.759595218396832, "country_ini_lon": 69.373099580964194, "lat_linestring": 38.726511198330073, "lon_linestring": 70.884214905738048, "c": "AFG", "c2": "KGZ" }, "geometry": { "type": "LineString", "coordinates": [ [ 69.373099580964194, 36.759595218396832 ], [ 72.395330230511917, 40.693427178263313 ] ] } },
{ "type": "Feature", "properties": { "z_other": "TAJ_S", "z": "NEPS_TAJ", "country_ini_lat": 36.759595218396832, "country_ini_lon": 69.373099580964194, "lat_linestring": 37.502703899422713, "lon_linestring": 70.394269706198827, "c": "AFG", "c2": "TAJ" }, "geometry": { "type": "LineString", "coordinates": [ [ 69.373099580964194, 36.759595218396832 ], [ 71.415439831433446, 38.245812580448593 ] ] } },
{ "type": "Feature", "properties": { "z_other": "KGZ_N", "z": "NEPS_TAJ", "country_ini_lat": 36.759595218396832, "country_ini_lon": 69.373099580964194, "lat_linestring": 39.360931368947078, "lon_linestring": 72.656182145891393, "c": "AFG", "c2": "KGZ" }, "geometry": { "type": "LineString", "coordinates": [ [ 69.373099580964194, 36.759595218396832 ], [ 75.939264710818591, 41.962267519497324 ] ] } },
{ "type": "Feature", "properties": { "z_other": "NEPS_AFG", "z": "NEPS_TAJ", "country_ini_lat": 36.759595218396832, "country_ini_lon": 69.373099580964194, "lat_linestring": 34.830818009787095, "lon_linestring": 68.196212446993243, "c": "AFG", "c2": "AFG" }, "geometry": { "type": "LineString", "coordinates": [ [ 69.373099580964194, 36.759595218396832 ], [ 67.019325313022293, 32.90204080117735 ] ] } },
{ "type": "Feature", "properties": { "z_other": "PAK_N", "z": "NEPS_TAJ", "country_ini_lat": 36.759595218396832, "country_ini_lon": 69.373099580964194, "lat_linestring": 34.730741644945326, "lon_linestring": 70.959393614441126, "c": "AFG", "c2": "PAK" }, "geometry": { "type": "LineString", "coordinates": [ [ 69.373099580964194, 36.759595218396832 ], [ 72.545687647918058, 32.701888071493826 ] ] } },
{ "type": "Feature", "properties": { "z_other": "PAK_S", "z": "NEPS_TAJ", "country_ini_lat": 36.759595218396832, "country_ini_lon": 69.373099580964194, "lat_linestring": 32.226694091623507, "lon_linestring": 68.030917742417785, "c": "AFG", "c2": "PAK" }, "geometry": { "type": "LineString", "coordinates": [ [ 69.373099580964194, 36.759595218396832 ], [ 66.68873590387139, 27.693792964850179 ] ] } },
{ "type": "Feature", "properties": { "z_other": "UZB", "z": "NEPS_TAJ", "country_ini_lat": 36.759595218396832, "country_ini_lon": 69.373099580964194, "lat_linestring": 39.257774950378895, "lon_linestring": 66.256570380723502, "c": "AFG", "c2": "UZB" }, "geometry": { "type": "LineString", "coordinates": [ [ 69.373099580964194, 36.759595218396832 ], [ 63.140041180482825, 41.755954682360958 ] ] } },
{ "type": "Feature", "properties": { "z_other": "TUR", "z": "NEPS_TAJ", "country_ini_lat": 36.759595218396832, "country_ini_lon": 69.373099580964194, "lat_linestring": 37.937754762903708, "lon_linestring": 64.374526901453237, "c": "AFG", "c2": "TUR" }, "geometry": { "type": "LineString", "coordinates": [ [ 69.373099580964194, 36.759595218396832 ], [ 59.375954221942287, 39.115914307410591 ] ] } },
{ "type": "Feature", "properties": { "z_other": "KAZ_S", "z": "NEPS_TAJ", "country_ini_lat": 36.759595218396832, "country_ini_lon": 69.373099580964194, "lat_linestring": 40.694432701825633, "lon_linestring": 69.989120587456881, "c": "AFG", "c2": "KAZ" }, "geometry": { "type": "LineString", "coordinates": [ [ 69.373099580964194, 36.759595218396832 ], [ 70.605141593949568, 44.629270185254427 ] ] } },
{ "type": "Feature", "properties": { "z_other": "KAZ_N", "z": "NEPS_TAJ", "country_ini_lat": 36.759595218396832, "country_ini_lon": 69.373099580964194, "lat_linestring": 43.312701450834794, "lon_linestring": 69.601536436704066, "c": "AFG", "c2": "KAZ" }, "geometry": { "type": "LineString", "coordinates": [ [ 69.373099580964194, 36.759595218396832 ], [ 69.829973292443924, 49.865807683272763 ] ] } },
{ "type": "Feature", "properties": { "z_other": "PAK_KAR", "z": "TAJ_N", "country_ini_lat": 39.803623169199909, "country_ini_lon": 69.223854976505834, "lat_linestring": 32.449954783065976, "lon_linestring": 68.225542855051259, "c": "TAJ", "c2": "PAK" }, "geometry": { "type": "LineString", "coordinates": [ [ 69.223854976505834, 39.803623169199909 ], [ 67.227230733596684, 25.096286396932051 ] ] } },
{ "type": "Feature", "properties": { "z_other": "NEPS_TAJ", "z": "TAJ_N", "country_ini_lat": 39.803623169199909, "country_ini_lon": 69.223854976505834, "lat_linestring": 38.281609193798374, "lon_linestring": 69.298477278735021, "c": "TAJ", "c2": "AFG" }, "geometry": { "type": "LineString", "coordinates": [ [ 69.223854976505834, 39.803623169199909 ], [ 69.373099580964194, 36.759595218396832 ] ] } },
{ "type": "Feature", "properties": { "z_other": "NEPS_UZB", "z": "TAJ_N", "country_ini_lat": 39.803623169199909, "country_ini_lon": 69.223854976505834, "lat_linestring": 37.976370631334923, "lon_linestring": 68.082278864393672, "c": "TAJ", "c2": "AFG" }, "geometry": { "type": "LineString", "coordinates": [ [ 69.223854976505834, 39.803623169199909 ], [ 66.94070275228151, 36.149118093469937 ] ] } },
{ "type": "Feature", "properties": { "z_other": "NEPS_TKM", "z": "TAJ_N", "country_ini_lat": 39.803623169199909, "country_ini_lon": 69.223854976505834, "lat_linestring": 37.836844708202221, "lon_linestring": 66.928962106664301, "c": "TAJ", "c2": "AFG" }, "geometry": { "type": "LineString", "coordinates": [ [ 69.223854976505834, 39.803623169199909 ], [ 64.634069236822782, 35.870066247204541 ] ] } },
{ "type": "Feature", "properties": { "z_other": "NEPS_HERAT", "z": "TAJ_N", "country_ini_lat": 39.803623169199909, "country_ini_lon": 69.223854976505834, "lat_linestring": 36.999667552614362, "lon_linestring": 65.672282541979172, "c": "TAJ", "c2": "AFG" }, "geometry": { "type": "LineString", "coordinates": [ [ 69.223854976505834, 39.803623169199909 ], [ 62.120710107452503, 34.195711936028815 ] ] } },
{ "type": "Feature", "properties": { "z_other": "KGZ_S", "z": "TAJ_N", "country_ini_lat": 39.803623169199909, "country_ini_lon": 69.223854976505834, "lat_linestring": 40.248525173731608, "lon_linestring": 70.809592603508875, "c": "TAJ", "c2": "KGZ" }, "geometry": { "type": "LineString", "coordinates": [ [ 69.223854976505834, 39.803623169199909 ], [ 72.395330230511917, 40.693427178263313 ] ] } },
{ "type": "Feature", "properties": { "z_other": "TAJ_S", "z": "TAJ_N", "country_ini_lat": 39.803623169199909, "country_ini_lon": 69.223854976505834, "lat_linestring": 39.024717874824248, "lon_linestring": 70.31964740396964, "c": "TAJ", "c2": "TAJ" }, "geometry": { "type": "LineString", "coordinates": [ [ 69.223854976505834, 39.803623169199909 ], [ 71.415439831433446, 38.245812580448593 ] ] } },
{ "type": "Feature", "properties": { "z_other": "KGZ_N", "z": "TAJ_N", "country_ini_lat": 39.803623169199909, "country_ini_lon": 69.223854976505834, "lat_linestring": 40.882945344348613, "lon_linestring": 72.581559843662205, "c": "TAJ", "c2": "KGZ" }, "geometry": { "type": "LineString", "coordinates": [ [ 69.223854976505834, 39.803623169199909 ], [ 75.939264710818591, 41.962267519497324 ] ] } },
{ "type": "Feature", "properties": { "z_other": "NEPS_AFG", "z": "TAJ_N", "country_ini_lat": 39.803623169199909, "country_ini_lon": 69.223854976505834, "lat_linestring": 36.352831985188629, "lon_linestring": 68.12159014476407, "c": "TAJ", "c2": "AFG" }, "geometry": { "type": "LineString", "coordinates": [ [ 69.223854976505834, 39.803623169199909 ], [ 67.019325313022293, 32.90204080117735 ] ] } },
{ "type": "Feature", "properties": { "z_other": "PAK_N", "z": "TAJ_N", "country_ini_lat": 39.803623169199909, "country_ini_lon": 69.223854976505834, "lat_linestring": 36.252755620346868, "lon_linestring": 70.884771312211939, "c": "TAJ", "c2": "PAK" }, "geometry": { "type": "LineString", "coordinates": [ [ 69.223854976505834, 39.803623169199909 ], [ 72.545687647918058, 32.701888071493826 ] ] } },
{ "type": "Feature", "properties": { "z_other": "PAK_S", "z": "TAJ_N", "country_ini_lat": 39.803623169199909, "country_ini_lon": 69.223854976505834, "lat_linestring": 33.748708067025042, "lon_linestring": 67.956295440188612, "c": "TAJ", "c2": "PAK" }, "geometry": { "type": "LineString", "coordinates": [ [ 69.223854976505834, 39.803623169199909 ], [ 66.68873590387139, 27.693792964850179 ] ] } },
{ "type": "Feature", "properties": { "z_other": "UZB", "z": "TAJ_N", "country_ini_lat": 39.803623169199909, "country_ini_lon": 69.223854976505834, "lat_linestring": 40.779788925780444, "lon_linestring": 66.181948078494329, "c": "TAJ", "c2": "UZB" }, "geometry": { "type": "LineString", "coordinates": [ [ 69.223854976505834, 39.803623169199909 ], [ 63.140041180482825, 41.755954682360958 ] ] } },
{ "type": "Feature", "properties": { "z_other": "TUR", "z": "TAJ_N", "country_ini_lat": 39.803623169199909, "country_ini_lon": 69.223854976505834, "lat_linestring": 39.45976873830525, "lon_linestring": 64.299904599224064, "c": "TAJ", "c2": "TUR" }, "geometry": { "type": "LineString", "coordinates": [ [ 69.223854976505834, 39.803623169199909 ], [ 59.375954221942287, 39.115914307410591 ] ] } },
{ "type": "Feature", "properties": { "z_other": "KAZ_S", "z": "TAJ_N", "country_ini_lat": 39.803623169199909, "country_ini_lon": 69.223854976505834, "lat_linestring": 42.216446677227168, "lon_linestring": 69.914498285227694, "c": "TAJ", "c2": "KAZ" }, "geometry": { "type": "LineString", "coordinates": [ [ 69.223854976505834, 39.803623169199909 ], [ 70.605141593949568, 44.629270185254427 ] ] } },
{ "type": "Feature", "properties": { "z_other": "KAZ_N", "z": "TAJ_N", "country_ini_lat": 39.803623169199909, "country_ini_lon": 69.223854976505834, "lat_linestring": 44.834715426236336, "lon_linestring": 69.526914134474879, "c": "TAJ", "c2": "KAZ" }, "geometry": { "type": "LineString", "coordinates": [ [ 69.223854976505834, 39.803623169199909 ], [ 69.829973292443924, 49.865807683272763 ] ] } },
{ "type": "Feature", "properties": { "z_other": "PAK_KAR", "z": "NEPS_UZB", "country_ini_lat": 36.149118093469937, "country_ini_lon": 66.94070275228151, "lat_linestring": 30.62270224520099, "lon_linestring": 67.083966742939097, "c": "AFG", "c2": "PAK" }, "geometry": { "type": "LineString", "coordinates": [ [ 66.94070275228151, 36.149118093469937 ], [ 67.227230733596684, 25.096286396932051 ] ] } },
{ "type": "Feature", "properties": { "z_other": "NEPS_TAJ", "z": "NEPS_UZB", "country_ini_lat": 36.149118093469937, "country_ini_lon": 66.94070275228151, "lat_linestring": 36.454356655933381, "lon_linestring": 68.156901166622845, "c": "AFG", "c2": "AFG" }, "geometry": { "type": "LineString", "coordinates": [ [ 66.94070275228151, 36.149118093469937 ], [ 69.373099580964194, 36.759595218396832 ] ] } },
{ "type": "Feature", "properties": { "z_other": "TAJ_N", "z": "NEPS_UZB", "country_ini_lat": 36.149118093469937, "country_ini_lon": 66.94070275228151, "lat_linestring": 37.976370631334923, "lon_linestring": 68.082278864393672, "c": "AFG", "c2": "TAJ" }, "geometry": { "type": "LineString", "coordinates": [ [ 66.94070275228151, 36.149118093469937 ], [ 69.223854976505834, 39.803623169199909 ] ] } },
{ "type": "Feature", "properties": { "z_other": "NEPS_TKM", "z": "NEPS_UZB", "country_ini_lat": 36.149118093469937, "country_ini_lon": 66.94070275228151, "lat_linestring": 36.009592170337243, "lon_linestring": 65.787385994552153, "c": "AFG", "c2": "AFG" }, "geometry": { "type": "LineString", "coordinates": [ [ 66.94070275228151, 36.149118093469937 ], [ 64.634069236822782, 35.870066247204541 ] ] } },
{ "type": "Feature", "properties": { "z_other": "NEPS_HERAT", "z": "NEPS_UZB", "country_ini_lat": 36.149118093469937, "country_ini_lon": 66.94070275228151, "lat_linestring": 35.172415014749376, "lon_linestring": 64.53070642986701, "c": "AFG", "c2": "AFG" }, "geometry": { "type": "LineString", "coordinates": [ [ 66.94070275228151, 36.149118093469937 ], [ 62.120710107452503, 34.195711936028815 ] ] } },
{ "type": "Feature", "properties": { "z_other": "KGZ_S", "z": "NEPS_UZB", "country_ini_lat": 36.149118093469937, "country_ini_lon": 66.94070275228151, "lat_linestring": 38.421272635866629, "lon_linestring": 69.668016491396713, "c": "AFG", "c2": "KGZ" }, "geometry": { "type": "LineString", "coordinates": [ [ 66.94070275228151, 36.149118093469937 ], [ 72.395330230511917, 40.693427178263313 ] ] } },
{ "type": "Feature", "properties": { "z_other": "TAJ_S", "z": "NEPS_UZB", "country_ini_lat": 36.149118093469937, "country_ini_lon": 66.94070275228151, "lat_linestring": 37.197465336959269, "lon_linestring": 69.178071291857478, "c": "AFG", "c2": "TAJ" }, "geometry": { "type": "LineString", "coordinates": [ [ 66.94070275228151, 36.149118093469937 ], [ 71.415439831433446, 38.245812580448593 ] ] } },
{ "type": "Feature", "properties": { "z_other": "KGZ_N", "z": "NEPS_UZB", "country_ini_lat": 36.149118093469937, "country_ini_lon": 66.94070275228151, "lat_linestring": 39.055692806483634, "lon_linestring": 71.439983731550058, "c": "AFG", "c2": "KGZ" }, "geometry": { "type": "LineString", "coordinates": [ [ 66.94070275228151, 36.149118093469937 ], [ 75.939264710818591, 41.962267519497324 ] ] } },
{ "type": "Feature", "properties": { "z_other": "NEPS_AFG", "z": "NEPS_UZB", "country_ini_lat": 36.149118093469937, "country_ini_lon": 66.94070275228151, "lat_linestring": 34.525579447323643, "lon_linestring": 66.980014032651894, "c": "AFG", "c2": "AFG" }, "geometry": { "type": "LineString", "coordinates": [ [ 66.94070275228151, 36.149118093469937 ], [ 67.019325313022293, 32.90204080117735 ] ] } },
{ "type": "Feature", "properties": { "z_other": "PAK_N", "z": "NEPS_UZB", "country_ini_lat": 36.149118093469937, "country_ini_lon": 66.94070275228151, "lat_linestring": 34.425503082481882, "lon_linestring": 69.743195200099791, "c": "AFG", "c2": "PAK" }, "geometry": { "type": "LineString", "coordinates": [ [ 66.94070275228151, 36.149118093469937 ], [ 72.545687647918058, 32.701888071493826 ] ] } },
{ "type": "Feature", "properties": { "z_other": "PAK_S", "z": "NEPS_UZB", "country_ini_lat": 36.149118093469937, "country_ini_lon": 66.94070275228151, "lat_linestring": 31.921455529160056, "lon_linestring": 66.81471932807645, "c": "AFG", "c2": "PAK" }, "geometry": { "type": "LineString", "coordinates": [ [ 66.94070275228151, 36.149118093469937 ], [ 66.68873590387139, 27.693792964850179 ] ] } },
{ "type": "Feature", "properties": { "z_other": "UZB", "z": "NEPS_UZB", "country_ini_lat": 36.149118093469937, "country_ini_lon": 66.94070275228151, "lat_linestring": 38.952536387915444, "lon_linestring": 65.040371966382168, "c": "AFG", "c2": "UZB" }, "geometry": { "type": "LineString", "coordinates": [ [ 66.94070275228151, 36.149118093469937 ], [ 63.140041180482825, 41.755954682360958 ] ] } },
{ "type": "Feature", "properties": { "z_other": "TUR", "z": "NEPS_UZB", "country_ini_lat": 36.149118093469937, "country_ini_lon": 66.94070275228151, "lat_linestring": 37.632516200440264, "lon_linestring": 63.158328487111902, "c": "AFG", "c2": "TUR" }, "geometry": { "type": "LineString", "coordinates": [ [ 66.94070275228151, 36.149118093469937 ], [ 59.375954221942287, 39.115914307410591 ] ] } },
{ "type": "Feature", "properties": { "z_other": "KAZ_S", "z": "NEPS_UZB", "country_ini_lat": 36.149118093469937, "country_ini_lon": 66.94070275228151, "lat_linestring": 40.389194139362182, "lon_linestring": 68.772922173115546, "c": "AFG", "c2": "KAZ" }, "geometry": { "type": "LineString", "coordinates": [ [ 66.94070275228151, 36.149118093469937 ], [ 70.605141593949568, 44.629270185254427 ] ] } },
{ "type": "Feature", "properties": { "z_other": "KAZ_N", "z": "NEPS_UZB", "country_ini_lat": 36.149118093469937, "country_ini_lon": 66.94070275228151, "lat_linestring": 43.00746288837135, "lon_linestring": 68.385338022362717, "c": "AFG", "c2": "KAZ" }, "geometry": { "type": "LineString", "coordinates": [ [ 66.94070275228151, 36.149118093469937 ], [ 69.829973292443924, 49.865807683272763 ] ] } },
{ "type": "Feature", "properties": { "z_other": "PAK_KAR", "z": "NEPS_TKM", "country_ini_lat": 35.870066247204541, "country_ini_lon": 64.634069236822782, "lat_linestring": 30.483176322068296, "lon_linestring": 65.930649985209726, "c": "AFG", "c2": "PAK" }, "geometry": { "type": "LineString", "coordinates": [ [ 64.634069236822782, 35.870066247204541 ], [ 67.227230733596684, 25.096286396932051 ] ] } },
{ "type": "Feature", "properties": { "z_other": "NEPS_TAJ", "z": "NEPS_TKM", "country_ini_lat": 35.870066247204541, "country_ini_lon": 64.634069236822782, "lat_linestring": 36.314830732800687, "lon_linestring": 67.003584408893488, "c": "AFG", "c2": "AFG" }, "geometry": { "type": "LineString", "coordinates": [ [ 64.634069236822782, 35.870066247204541 ], [ 69.373099580964194, 36.759595218396832 ] ] } },
{ "type": "Feature", "properties": { "z_other": "TAJ_N", "z": "NEPS_TKM", "country_ini_lat": 35.870066247204541, "country_ini_lon": 64.634069236822782, "lat_linestring": 37.836844708202221, "lon_linestring": 66.928962106664301, "c": "AFG", "c2": "TAJ" }, "geometry": { "type": "LineString", "coordinates": [ [ 64.634069236822782, 35.870066247204541 ], [ 69.223854976505834, 39.803623169199909 ] ] } },
{ "type": "Feature", "properties": { "z_other": "NEPS_UZB", "z": "NEPS_TKM", "country_ini_lat": 35.870066247204541, "country_ini_lon": 64.634069236822782, "lat_linestring": 36.009592170337243, "lon_linestring": 65.787385994552153, "c": "AFG", "c2": "AFG" }, "geometry": { "type": "LineString", "coordinates": [ [ 64.634069236822782, 35.870066247204541 ], [ 66.94070275228151, 36.149118093469937 ] ] } },
{ "type": "Feature", "properties": { "z_other": "NEPS_HERAT", "z": "NEPS_TKM", "country_ini_lat": 35.870066247204541, "country_ini_lon": 64.634069236822782, "lat_linestring": 35.032889091616681, "lon_linestring": 63.377389672137632, "c": "AFG", "c2": "AFG" }, "geometry": { "type": "LineString", "coordinates": [ [ 64.634069236822782, 35.870066247204541 ], [ 62.120710107452503, 34.195711936028815 ] ] } },
{ "type": "Feature", "properties": { "z_other": "KGZ_S", "z": "NEPS_TKM", "country_ini_lat": 35.870066247204541, "country_ini_lon": 64.634069236822782, "lat_linestring": 38.281746712733927, "lon_linestring": 68.514699733667356, "c": "AFG", "c2": "KGZ" }, "geometry": { "type": "LineString", "coordinates": [ [ 64.634069236822782, 35.870066247204541 ], [ 72.395330230511917, 40.693427178263313 ] ] } },
{ "type": "Feature", "properties": { "z_other": "TAJ_S", "z": "NEPS_TKM", "country_ini_lat": 35.870066247204541, "country_ini_lon": 64.634069236822782, "lat_linestring": 37.057939413826567, "lon_linestring": 68.024754534128107, "c": "AFG", "c2": "TAJ" }, "geometry": { "type": "LineString", "coordinates": [ [ 64.634069236822782, 35.870066247204541 ], [ 71.415439831433446, 38.245812580448593 ] ] } },
{ "type": "Feature", "properties": { "z_other": "KGZ_N", "z": "NEPS_TKM", "country_ini_lat": 35.870066247204541, "country_ini_lon": 64.634069236822782, "lat_linestring": 38.916166883350932, "lon_linestring": 70.286666973820687, "c": "AFG", "c2": "KGZ" }, "geometry": { "type": "LineString", "coordinates": [ [ 64.634069236822782, 35.870066247204541 ], [ 75.939264710818591, 41.962267519497324 ] ] } },
{ "type": "Feature", "properties": { "z_other": "NEPS_AFG", "z": "NEPS_TKM", "country_ini_lat": 35.870066247204541, "country_ini_lon": 64.634069236822782, "lat_linestring": 34.386053524190942, "lon_linestring": 65.826697274922537, "c": "AFG", "c2": "AFG" }, "geometry": { "type": "LineString", "coordinates": [ [ 64.634069236822782, 35.870066247204541 ], [ 67.019325313022293, 32.90204080117735 ] ] } },
{ "type": "Feature", "properties": { "z_other": "PAK_N", "z": "NEPS_TKM", "country_ini_lat": 35.870066247204541, "country_ini_lon": 64.634069236822782, "lat_linestring": 34.285977159349187, "lon_linestring": 68.58987844237042, "c": "AFG", "c2": "PAK" }, "geometry": { "type": "LineString", "coordinates": [ [ 64.634069236822782, 35.870066247204541 ], [ 72.545687647918058, 32.701888071493826 ] ] } },
{ "type": "Feature", "properties": { "z_other": "PAK_S", "z": "NEPS_TKM", "country_ini_lat": 35.870066247204541, "country_ini_lon": 64.634069236822782, "lat_linestring": 31.781929606027358, "lon_linestring": 65.661402570347093, "c": "AFG", "c2": "PAK" }, "geometry": { "type": "LineString", "coordinates": [ [ 64.634069236822782, 35.870066247204541 ], [ 66.68873590387139, 27.693792964850179 ] ] } },
{ "type": "Feature", "properties": { "z_other": "UZB", "z": "NEPS_TKM", "country_ini_lat": 35.870066247204541, "country_ini_lon": 64.634069236822782, "lat_linestring": 38.813010464782749, "lon_linestring": 63.887055208652804, "c": "AFG", "c2": "UZB" }, "geometry": { "type": "LineString", "coordinates": [ [ 64.634069236822782, 35.870066247204541 ], [ 63.140041180482825, 41.755954682360958 ] ] } },
{ "type": "Feature", "properties": { "z_other": "TUR", "z": "NEPS_TKM", "country_ini_lat": 35.870066247204541, "country_ini_lon": 64.634069236822782, "lat_linestring": 37.49299027730757, "lon_linestring": 62.005011729382531, "c": "AFG", "c2": "TUR" }, "geometry": { "type": "LineString", "coordinates": [ [ 64.634069236822782, 35.870066247204541 ], [ 59.375954221942287, 39.115914307410591 ] ] } },
{ "type": "Feature", "properties": { "z_other": "KAZ_S", "z": "NEPS_TKM", "country_ini_lat": 35.870066247204541, "country_ini_lon": 64.634069236822782, "lat_linestring": 40.24966821622948, "lon_linestring": 67.619605415386175, "c": "AFG", "c2": "KAZ" }, "geometry": { "type": "LineString", "coordinates": [ [ 64.634069236822782, 35.870066247204541 ], [ 70.605141593949568, 44.629270185254427 ] ] } },
{ "type": "Feature", "properties": { "z_other": "KAZ_N", "z": "NEPS_TKM", "country_ini_lat": 35.870066247204541, "country_ini_lon": 64.634069236822782, "lat_linestring": 42.867936965238655, "lon_linestring": 67.232021264633346, "c": "AFG", "c2": "KAZ" }, "geometry": { "type": "LineString", "coordinates": [ [ 64.634069236822782, 35.870066247204541 ], [ 69.829973292443924, 49.865807683272763 ] ] } },
{ "type": "Feature", "properties": { "z_other": "PAK_KAR", "z": "NEPS_HERAT", "country_ini_lat": 34.195711936028815, "country_ini_lon": 62.120710107452503, "lat_linestring": 29.645999166480433, "lon_linestring": 64.673970420524597, "c": "AFG", "c2": "PAK" }, "geometry": { "type": "LineString", "coordinates": [ [ 62.120710107452503, 34.195711936028815 ], [ 67.227230733596684, 25.096286396932051 ] ] } },
{ "type": "Feature", "properties": { "z_other": "NEPS_TAJ", "z": "NEPS_HERAT", "country_ini_lat": 34.195711936028815, "country_ini_lon": 62.120710107452503, "lat_linestring": 35.47765357721282, "lon_linestring": 65.746904844208345, "c": "AFG", "c2": "AFG" }, "geometry": { "type": "LineString", "coordinates": [ [ 62.120710107452503, 34.195711936028815 ], [ 69.373099580964194, 36.759595218396832 ] ] } },
{ "type": "Feature", "properties": { "z_other": "TAJ_N", "z": "NEPS_HERAT", "country_ini_lat": 34.195711936028815, "country_ini_lon": 62.120710107452503, "lat_linestring": 36.999667552614362, "lon_linestring": 65.672282541979172, "c": "AFG", "c2": "TAJ" }, "geometry": { "type": "LineString", "coordinates": [ [ 62.120710107452503, 34.195711936028815 ], [ 69.223854976505834, 39.803623169199909 ] ] } },
{ "type": "Feature", "properties": { "z_other": "NEPS_UZB", "z": "NEPS_HERAT", "country_ini_lat": 34.195711936028815, "country_ini_lon": 62.120710107452503, "lat_linestring": 35.172415014749376, "lon_linestring": 64.53070642986701, "c": "AFG", "c2": "AFG" }, "geometry": { "type": "LineString", "coordinates": [ [ 62.120710107452503, 34.195711936028815 ], [ 66.94070275228151, 36.149118093469937 ] ] } },
{ "type": "Feature", "properties": { "z_other": "NEPS_TKM", "z": "NEPS_HERAT", "country_ini_lat": 34.195711936028815, "country_ini_lon": 62.120710107452503, "lat_linestring": 35.032889091616681, "lon_linestring": 63.377389672137632, "c": "AFG", "c2": "AFG" }, "geometry": { "type": "LineString", "coordinates": [ [ 62.120710107452503, 34.195711936028815 ], [ 64.634069236822782, 35.870066247204541 ] ] } },
{ "type": "Feature", "properties": { "z_other": "KGZ_S", "z": "NEPS_HERAT", "country_ini_lat": 34.195711936028815, "country_ini_lon": 62.120710107452503, "lat_linestring": 37.444569557146067, "lon_linestring": 67.258020168982213, "c": "AFG", "c2": "KGZ" }, "geometry": { "type": "LineString", "coordinates": [ [ 62.120710107452503, 34.195711936028815 ], [ 72.395330230511917, 40.693427178263313 ] ] } },
{ "type": "Feature", "properties": { "z_other": "TAJ_S", "z": "NEPS_HERAT", "country_ini_lat": 34.195711936028815, "country_ini_lon": 62.120710107452503, "lat_linestring": 36.220762258238707, "lon_linestring": 66.768074969442978, "c": "AFG", "c2": "TAJ" }, "geometry": { "type": "LineString", "coordinates": [ [ 62.120710107452503, 34.195711936028815 ], [ 71.415439831433446, 38.245812580448593 ] ] } },
{ "type": "Feature", "properties": { "z_other": "KGZ_N", "z": "NEPS_HERAT", "country_ini_lat": 34.195711936028815, "country_ini_lon": 62.120710107452503, "lat_linestring": 38.078989727763073, "lon_linestring": 69.029987409135543, "c": "AFG", "c2": "KGZ" }, "geometry": { "type": "LineString", "coordinates": [ [ 62.120710107452503, 34.195711936028815 ], [ 75.939264710818591, 41.962267519497324 ] ] } },
{ "type": "Feature", "properties": { "z_other": "NEPS_AFG", "z": "NEPS_HERAT", "country_ini_lat": 34.195711936028815, "country_ini_lon": 62.120710107452503, "lat_linestring": 33.548876368603082, "lon_linestring": 64.570017710237394, "c": "AFG", "c2": "AFG" }, "geometry": { "type": "LineString", "coordinates": [ [ 62.120710107452503, 34.195711936028815 ], [ 67.019325313022293, 32.90204080117735 ] ] } },
{ "type": "Feature", "properties": { "z_other": "PAK_N", "z": "NEPS_HERAT", "country_ini_lat": 34.195711936028815, "country_ini_lon": 62.120710107452503, "lat_linestring": 33.44880000376132, "lon_linestring": 67.333198877685277, "c": "AFG", "c2": "PAK" }, "geometry": { "type": "LineString", "coordinates": [ [ 62.120710107452503, 34.195711936028815 ], [ 72.545687647918058, 32.701888071493826 ] ] } },
{ "type": "Feature", "properties": { "z_other": "PAK_S", "z": "NEPS_HERAT", "country_ini_lat": 34.195711936028815, "country_ini_lon": 62.120710107452503, "lat_linestring": 30.944752450439495, "lon_linestring": 64.40472300566195, "c": "AFG", "c2": "PAK" }, "geometry": { "type": "LineString", "coordinates": [ [ 62.120710107452503, 34.195711936028815 ], [ 66.68873590387139, 27.693792964850179 ] ] } },
{ "type": "Feature", "properties": { "z_other": "UZB", "z": "NEPS_HERAT", "country_ini_lat": 34.195711936028815, "country_ini_lon": 62.120710107452503, "lat_linestring": 37.975833309194883, "lon_linestring": 62.630375643967668, "c": "AFG", "c2": "UZB" }, "geometry": { "type": "LineString", "coordinates": [ [ 62.120710107452503, 34.195711936028815 ], [ 63.140041180482825, 41.755954682360958 ] ] } },
{ "type": "Feature", "properties": { "z_other": "TUR", "z": "NEPS_HERAT", "country_ini_lat": 34.195711936028815, "country_ini_lon": 62.120710107452503, "lat_linestring": 36.655813121719703, "lon_linestring": 60.748332164697388, "c": "AFG", "c2": "TUR" }, "geometry": { "type": "LineString", "coordinates": [ [ 62.120710107452503, 34.195711936028815 ], [ 59.375954221942287, 39.115914307410591 ] ] } },
{ "type": "Feature", "properties": { "z_other": "KAZ_S", "z": "NEPS_HERAT", "country_ini_lat": 34.195711936028815, "country_ini_lon": 62.120710107452503, "lat_linestring": 39.412491060641621, "lon_linestring": 66.362925850701032, "c": "AFG", "c2": "KAZ" }, "geometry": { "type": "LineString", "coordinates": [ [ 62.120710107452503, 34.195711936028815 ], [ 70.605141593949568, 44.629270185254427 ] ] } },
{ "type": "Feature", "properties": { "z_other": "KAZ_N", "z": "NEPS_HERAT", "country_ini_lat": 34.195711936028815, "country_ini_lon": 62.120710107452503, "lat_linestring": 42.030759809650789, "lon_linestring": 65.975341699948217, "c": "AFG", "c2": "KAZ" }, "geometry": { "type": "LineString", "coordinates": [ [ 62.120710107452503, 34.195711936028815 ], [ 69.829973292443924, 49.865807683272763 ] ] } },
{ "type": "Feature", "properties": { "z_other": "PAK_KAR", "z": "KGZ_S", "country_ini_lat": 40.693427178263313, "country_ini_lon": 72.395330230511917, "lat_linestring": 32.894856787597682, "lon_linestring": 69.8112804820543, "c": "KGZ", "c2": "PAK" }, "geometry": { "type": "LineString", "coordinates": [ [ 72.395330230511917, 40.693427178263313 ], [ 67.227230733596684, 25.096286396932051 ] ] } },
{ "type": "Feature", "properties": { "z_other": "NEPS_TAJ", "z": "KGZ_S", "country_ini_lat": 40.693427178263313, "country_ini_lon": 72.395330230511917, "lat_linestring": 38.726511198330073, "lon_linestring": 70.884214905738048, "c": "KGZ", "c2": "AFG" }, "geometry": { "type": "LineString", "coordinates": [ [ 72.395330230511917, 40.693427178263313 ], [ 69.373099580964194, 36.759595218396832 ] ] } },
{ "type": "Feature", "properties": { "z_other": "TAJ_N", "z": "KGZ_S", "country_ini_lat": 40.693427178263313, "country_ini_lon": 72.395330230511917, "lat_linestring": 40.248525173731608, "lon_linestring": 70.809592603508875, "c": "KGZ", "c2": "TAJ" }, "geometry": { "type": "LineString", "coordinates": [ [ 72.395330230511917, 40.693427178263313 ], [ 69.223854976505834, 39.803623169199909 ] ] } },
{ "type": "Feature", "properties": { "z_other": "NEPS_UZB", "z": "KGZ_S", "country_ini_lat": 40.693427178263313, "country_ini_lon": 72.395330230511917, "lat_linestring": 38.421272635866629, "lon_linestring": 69.668016491396713, "c": "KGZ", "c2": "AFG" }, "geometry": { "type": "LineString", "coordinates": [ [ 72.395330230511917, 40.693427178263313 ], [ 66.94070275228151, 36.149118093469937 ] ] } },
{ "type": "Feature", "properties": { "z_other": "NEPS_TKM", "z": "KGZ_S", "country_ini_lat": 40.693427178263313, "country_ini_lon": 72.395330230511917, "lat_linestring": 38.281746712733927, "lon_linestring": 68.514699733667356, "c": "KGZ", "c2": "AFG" }, "geometry": { "type": "LineString", "coordinates": [ [ 72.395330230511917, 40.693427178263313 ], [ 64.634069236822782, 35.870066247204541 ] ] } },
{ "type": "Feature", "properties": { "z_other": "NEPS_HERAT", "z": "KGZ_S", "country_ini_lat": 40.693427178263313, "country_ini_lon": 72.395330230511917, "lat_linestring": 37.444569557146067, "lon_linestring": 67.258020168982213, "c": "KGZ", "c2": "AFG" }, "geometry": { "type": "LineString", "coordinates": [ [ 72.395330230511917, 40.693427178263313 ], [ 62.120710107452503, 34.195711936028815 ] ] } },
{ "type": "Feature", "properties": { "z_other": "TAJ_S", "z": "KGZ_S", "country_ini_lat": 40.693427178263313, "country_ini_lon": 72.395330230511917, "lat_linestring": 39.469619879355953, "lon_linestring": 71.905385030972681, "c": "KGZ", "c2": "TAJ" }, "geometry": { "type": "LineString", "coordinates": [ [ 72.395330230511917, 40.693427178263313 ], [ 71.415439831433446, 38.245812580448593 ] ] } },
{ "type": "Feature", "properties": { "z_other": "KGZ_N", "z": "KGZ_S", "country_ini_lat": 40.693427178263313, "country_ini_lon": 72.395330230511917, "lat_linestring": 41.327847348880319, "lon_linestring": 74.167297470665247, "c": "KGZ", "c2": "KGZ" }, "geometry": { "type": "LineString", "coordinates": [ [ 72.395330230511917, 40.693427178263313 ], [ 75.939264710818591, 41.962267519497324 ] ] } },
{ "type": "Feature", "properties": { "z_other": "NEPS_AFG", "z": "KGZ_S", "country_ini_lat": 40.693427178263313, "country_ini_lon": 72.395330230511917, "lat_linestring": 36.797733989720328, "lon_linestring": 69.707327771767098, "c": "KGZ", "c2": "AFG" }, "geometry": { "type": "LineString", "coordinates": [ [ 72.395330230511917, 40.693427178263313 ], [ 67.019325313022293, 32.90204080117735 ] ] } },
{ "type": "Feature", "properties": { "z_other": "PAK_N", "z": "KGZ_S", "country_ini_lat": 40.693427178263313, "country_ini_lon": 72.395330230511917, "lat_linestring": 36.697657624878573, "lon_linestring": 72.470508939214994, "c": "KGZ", "c2": "PAK" }, "geometry": { "type": "LineString", "coordinates": [ [ 72.395330230511917, 40.693427178263313 ], [ 72.545687647918058, 32.701888071493826 ] ] } },
{ "type": "Feature", "properties": { "z_other": "PAK_S", "z": "KGZ_S", "country_ini_lat": 40.693427178263313, "country_ini_lon": 72.395330230511917, "lat_linestring": 34.193610071556748, "lon_linestring": 69.542033067191653, "c": "KGZ", "c2": "PAK" }, "geometry": { "type": "LineString", "coordinates": [ [ 72.395330230511917, 40.693427178263313 ], [ 66.68873590387139, 27.693792964850179 ] ] } },
{ "type": "Feature", "properties": { "z_other": "UZB", "z": "KGZ_S", "country_ini_lat": 40.693427178263313, "country_ini_lon": 72.395330230511917, "lat_linestring": 41.224690930312136, "lon_linestring": 67.767685705497371, "c": "KGZ", "c2": "UZB" }, "geometry": { "type": "LineString", "coordinates": [ [ 72.395330230511917, 40.693427178263313 ], [ 63.140041180482825, 41.755954682360958 ] ] } },
{ "type": "Feature", "properties": { "z_other": "TUR", "z": "KGZ_S", "country_ini_lat": 40.693427178263313, "country_ini_lon": 72.395330230511917, "lat_linestring": 39.904670742836956, "lon_linestring": 65.885642226227105, "c": "KGZ", "c2": "TUR" }, "geometry": { "type": "LineString", "coordinates": [ [ 72.395330230511917, 40.693427178263313 ], [ 59.375954221942287, 39.115914307410591 ] ] } },
{ "type": "Feature", "properties": { "z_other": "KAZ_S", "z": "KGZ_S", "country_ini_lat": 40.693427178263313, "country_ini_lon": 72.395330230511917, "lat_linestring": 42.661348681758867, "lon_linestring": 71.50023591223075, "c": "KGZ", "c2": "KAZ" }, "geometry": { "type": "LineString", "coordinates": [ [ 72.395330230511917, 40.693427178263313 ], [ 70.605141593949568, 44.629270185254427 ] ] } },
{ "type": "Feature", "properties": { "z_other": "KAZ_N", "z": "KGZ_S", "country_ini_lat": 40.693427178263313, "country_ini_lon": 72.395330230511917, "lat_linestring": 45.279617430768042, "lon_linestring": 71.11265176147792, "c": "KGZ", "c2": "KAZ" }, "geometry": { "type": "LineString", "coordinates": [ [ 72.395330230511917, 40.693427178263313 ], [ 69.829973292443924, 49.865807683272763 ] ] } },
{ "type": "Feature", "properties": { "z_other": "PAK_KAR", "z": "TAJ_S", "country_ini_lat": 38.245812580448593, "country_ini_lon": 71.415439831433446, "lat_linestring": 31.671049488690322, "lon_linestring": 69.321335282515065, "c": "TAJ", "c2": "PAK" }, "geometry": { "type": "LineString", "coordinates": [ [ 71.415439831433446, 38.245812580448593 ], [ 67.227230733596684, 25.096286396932051 ] ] } },
{ "type": "Feature", "properties": { "z_other": "NEPS_TAJ", "z": "TAJ_S", "country_ini_lat": 38.245812580448593, "country_ini_lon": 71.415439831433446, "lat_linestring": 37.502703899422713, "lon_linestring": 70.394269706198827, "c": "TAJ", "c2": "AFG" }, "geometry": { "type": "LineString", "coordinates": [ [ 71.415439831433446, 38.245812580448593 ], [ 69.373099580964194, 36.759595218396832 ] ] } },
{ "type": "Feature", "properties": { "z_other": "TAJ_N", "z": "TAJ_S", "country_ini_lat": 38.245812580448593, "country_ini_lon": 71.415439831433446, "lat_linestring": 39.024717874824248, "lon_linestring": 70.31964740396964, "c": "TAJ", "c2": "TAJ" }, "geometry": { "type": "LineString", "coordinates": [ [ 71.415439831433446, 38.245812580448593 ], [ 69.223854976505834, 39.803623169199909 ] ] } },
{ "type": "Feature", "properties": { "z_other": "NEPS_UZB", "z": "TAJ_S", "country_ini_lat": 38.245812580448593, "country_ini_lon": 71.415439831433446, "lat_linestring": 37.197465336959269, "lon_linestring": 69.178071291857478, "c": "TAJ", "c2": "AFG" }, "geometry": { "type": "LineString", "coordinates": [ [ 71.415439831433446, 38.245812580448593 ], [ 66.94070275228151, 36.149118093469937 ] ] } },
{ "type": "Feature", "properties": { "z_other": "NEPS_TKM", "z": "TAJ_S", "country_ini_lat": 38.245812580448593, "country_ini_lon": 71.415439831433446, "lat_linestring": 37.057939413826567, "lon_linestring": 68.024754534128107, "c": "TAJ", "c2": "AFG" }, "geometry": { "type": "LineString", "coordinates": [ [ 71.415439831433446, 38.245812580448593 ], [ 64.634069236822782, 35.870066247204541 ] ] } },
{ "type": "Feature", "properties": { "z_other": "NEPS_HERAT", "z": "TAJ_S", "country_ini_lat": 38.245812580448593, "country_ini_lon": 71.415439831433446, "lat_linestring": 36.220762258238707, "lon_linestring": 66.768074969442978, "c": "TAJ", "c2": "AFG" }, "geometry": { "type": "LineString", "coordinates": [ [ 71.415439831433446, 38.245812580448593 ], [ 62.120710107452503, 34.195711936028815 ] ] } },
{ "type": "Feature", "properties": { "z_other": "KGZ_S", "z": "TAJ_S", "country_ini_lat": 38.245812580448593, "country_ini_lon": 71.415439831433446, "lat_linestring": 39.469619879355953, "lon_linestring": 71.905385030972681, "c": "TAJ", "c2": "KGZ" }, "geometry": { "type": "LineString", "coordinates": [ [ 71.415439831433446, 38.245812580448593 ], [ 72.395330230511917, 40.693427178263313 ] ] } },
{ "type": "Feature", "properties": { "z_other": "KGZ_N", "z": "TAJ_S", "country_ini_lat": 38.245812580448593, "country_ini_lon": 71.415439831433446, "lat_linestring": 40.104040049972959, "lon_linestring": 73.677352271126011, "c": "TAJ", "c2": "KGZ" }, "geometry": { "type": "LineString", "coordinates": [ [ 71.415439831433446, 38.245812580448593 ], [ 75.939264710818591, 41.962267519497324 ] ] } },
{ "type": "Feature", "properties": { "z_other": "NEPS_AFG", "z": "TAJ_S", "country_ini_lat": 38.245812580448593, "country_ini_lon": 71.415439831433446, "lat_linestring": 35.573926690812968, "lon_linestring": 69.217382572227876, "c": "TAJ", "c2": "AFG" }, "geometry": { "type": "LineString", "coordinates": [ [ 71.415439831433446, 38.245812580448593 ], [ 67.019325313022293, 32.90204080117735 ] ] } },
{ "type": "Feature", "properties": { "z_other": "PAK_N", "z": "TAJ_S", "country_ini_lat": 38.245812580448593, "country_ini_lon": 71.415439831433446, "lat_linestring": 35.473850325971213, "lon_linestring": 71.980563739675745, "c": "TAJ", "c2": "PAK" }, "geometry": { "type": "LineString", "coordinates": [ [ 71.415439831433446, 38.245812580448593 ], [ 72.545687647918058, 32.701888071493826 ] ] } },
{ "type": "Feature", "properties": { "z_other": "PAK_S", "z": "TAJ_S", "country_ini_lat": 38.245812580448593, "country_ini_lon": 71.415439831433446, "lat_linestring": 32.969802772649388, "lon_linestring": 69.052087867652418, "c": "TAJ", "c2": "PAK" }, "geometry": { "type": "LineString", "coordinates": [ [ 71.415439831433446, 38.245812580448593 ], [ 66.68873590387139, 27.693792964850179 ] ] } },
{ "type": "Feature", "properties": { "z_other": "UZB", "z": "TAJ_S", "country_ini_lat": 38.245812580448593, "country_ini_lon": 71.415439831433446, "lat_linestring": 40.000883631404776, "lon_linestring": 67.277740505958135, "c": "TAJ", "c2": "UZB" }, "geometry": { "type": "LineString", "coordinates": [ [ 71.415439831433446, 38.245812580448593 ], [ 63.140041180482825, 41.755954682360958 ] ] } },
{ "type": "Feature", "properties": { "z_other": "TUR", "z": "TAJ_S", "country_ini_lat": 38.245812580448593, "country_ini_lon": 71.415439831433446, "lat_linestring": 38.680863443929596, "lon_linestring": 65.39569702668787, "c": "TAJ", "c2": "TUR" }, "geometry": { "type": "LineString", "coordinates": [ [ 71.415439831433446, 38.245812580448593 ], [ 59.375954221942287, 39.115914307410591 ] ] } },
{ "type": "Feature", "properties": { "z_other": "KAZ_S", "z": "TAJ_S", "country_ini_lat": 38.245812580448593, "country_ini_lon": 71.415439831433446, "lat_linestring": 41.437541382851506, "lon_linestring": 71.0102907126915, "c": "TAJ", "c2": "KAZ" }, "geometry": { "type": "LineString", "coordinates": [ [ 71.415439831433446, 38.245812580448593 ], [ 70.605141593949568, 44.629270185254427 ] ] } },
{ "type": "Feature", "properties": { "z_other": "KAZ_N", "z": "TAJ_S", "country_ini_lat": 38.245812580448593, "country_ini_lon": 71.415439831433446, "lat_linestring": 44.055810131860682, "lon_linestring": 70.622706561938685, "c": "TAJ", "c2": "KAZ" }, "geometry": { "type": "LineString", "coordinates": [ [ 71.415439831433446, 38.245812580448593 ], [ 69.829973292443924, 49.865807683272763 ] ] } },
{ "type": "Feature", "properties": { "z_other": "PAK_KAR", "z": "KGZ_N", "country_ini_lat": 41.962267519497324, "country_ini_lon": 75.939264710818591, "lat_linestring": 33.529276958214687, "lon_linestring": 71.583247722207631, "c": "KGZ", "c2": "PAK" }, "geometry": { "type": "LineString", "coordinates": [ [ 75.939264710818591, 41.962267519497324 ], [ 67.227230733596684, 25.096286396932051 ] ] } },
{ "type": "Feature", "properties": { "z_other": "NEPS_TAJ", "z": "KGZ_N", "country_ini_lat": 41.962267519497324, "country_ini_lon": 75.939264710818591, "lat_linestring": 39.360931368947078, "lon_linestring": 72.656182145891393, "c": "KGZ", "c2": "AFG" }, "geometry": { "type": "LineString", "coordinates": [ [ 75.939264710818591, 41.962267519497324 ], [ 69.373099580964194, 36.759595218396832 ] ] } },
{ "type": "Feature", "properties": { "z_other": "TAJ_N", "z": "KGZ_N", "country_ini_lat": 41.962267519497324, "country_ini_lon": 75.939264710818591, "lat_linestring": 40.882945344348613, "lon_linestring": 72.581559843662205, "c": "KGZ", "c2": "TAJ" }, "geometry": { "type": "LineString", "coordinates": [ [ 75.939264710818591, 41.962267519497324 ], [ 69.223854976505834, 39.803623169199909 ] ] } },
{ "type": "Feature", "properties": { "z_other": "NEPS_UZB", "z": "KGZ_N", "country_ini_lat": 41.962267519497324, "country_ini_lon": 75.939264710818591, "lat_linestring": 39.055692806483634, "lon_linestring": 71.439983731550058, "c": "KGZ", "c2": "AFG" }, "geometry": { "type": "LineString", "coordinates": [ [ 75.939264710818591, 41.962267519497324 ], [ 66.94070275228151, 36.149118093469937 ] ] } },
{ "type": "Feature", "properties": { "z_other": "NEPS_TKM", "z": "KGZ_N", "country_ini_lat": 41.962267519497324, "country_ini_lon": 75.939264710818591, "lat_linestring": 38.916166883350932, "lon_linestring": 70.286666973820687, "c": "KGZ", "c2": "AFG" }, "geometry": { "type": "LineString", "coordinates": [ [ 75.939264710818591, 41.962267519497324 ], [ 64.634069236822782, 35.870066247204541 ] ] } },
{ "type": "Feature", "properties": { "z_other": "NEPS_HERAT", "z": "KGZ_N", "country_ini_lat": 41.962267519497324, "country_ini_lon": 75.939264710818591, "lat_linestring": 38.078989727763073, "lon_linestring": 69.029987409135543, "c": "KGZ", "c2": "AFG" }, "geometry": { "type": "LineString", "coordinates": [ [ 75.939264710818591, 41.962267519497324 ], [ 62.120710107452503, 34.195711936028815 ] ] } },
{ "type": "Feature", "properties": { "z_other": "KGZ_S", "z": "KGZ_N", "country_ini_lat": 41.962267519497324, "country_ini_lon": 75.939264710818591, "lat_linestring": 41.327847348880319, "lon_linestring": 74.167297470665247, "c": "KGZ", "c2": "KGZ" }, "geometry": { "type": "LineString", "coordinates": [ [ 75.939264710818591, 41.962267519497324 ], [ 72.395330230511917, 40.693427178263313 ] ] } },
{ "type": "Feature", "properties": { "z_other": "TAJ_S", "z": "KGZ_N", "country_ini_lat": 41.962267519497324, "country_ini_lon": 75.939264710818591, "lat_linestring": 40.104040049972959, "lon_linestring": 73.677352271126011, "c": "KGZ", "c2": "TAJ" }, "geometry": { "type": "LineString", "coordinates": [ [ 75.939264710818591, 41.962267519497324 ], [ 71.415439831433446, 38.245812580448593 ] ] } },
{ "type": "Feature", "properties": { "z_other": "NEPS_AFG", "z": "KGZ_N", "country_ini_lat": 41.962267519497324, "country_ini_lon": 75.939264710818591, "lat_linestring": 37.432154160337333, "lon_linestring": 71.479295011920442, "c": "KGZ", "c2": "AFG" }, "geometry": { "type": "LineString", "coordinates": [ [ 75.939264710818591, 41.962267519497324 ], [ 67.019325313022293, 32.90204080117735 ] ] } },
{ "type": "Feature", "properties": { "z_other": "PAK_N", "z": "KGZ_N", "country_ini_lat": 41.962267519497324, "country_ini_lon": 75.939264710818591, "lat_linestring": 37.332077795495579, "lon_linestring": 74.242476179368325, "c": "KGZ", "c2": "PAK" }, "geometry": { "type": "LineString", "coordinates": [ [ 75.939264710818591, 41.962267519497324 ], [ 72.545687647918058, 32.701888071493826 ] ] } },
{ "type": "Feature", "properties": { "z_other": "PAK_S", "z": "KGZ_N", "country_ini_lat": 41.962267519497324, "country_ini_lon": 75.939264710818591, "lat_linestring": 34.828030242173753, "lon_linestring": 71.314000307344998, "c": "KGZ", "c2": "PAK" }, "geometry": { "type": "LineString", "coordinates": [ [ 75.939264710818591, 41.962267519497324 ], [ 66.68873590387139, 27.693792964850179 ] ] } },
{ "type": "Feature", "properties": { "z_other": "UZB", "z": "KGZ_N", "country_ini_lat": 41.962267519497324, "country_ini_lon": 75.939264710818591, "lat_linestring": 41.859111100929141, "lon_linestring": 69.539652945650715, "c": "KGZ", "c2": "UZB" }, "geometry": { "type": "LineString", "coordinates": [ [ 75.939264710818591, 41.962267519497324 ], [ 63.140041180482825, 41.755954682360958 ] ] } },
{ "type": "Feature", "properties": { "z_other": "TUR", "z": "KGZ_N", "country_ini_lat": 41.962267519497324, "country_ini_lon": 75.939264710818591, "lat_linestring": 40.539090913453961, "lon_linestring": 67.657609466380435, "c": "KGZ", "c2": "TUR" }, "geometry": { "type": "LineString", "coordinates": [ [ 75.939264710818591, 41.962267519497324 ], [ 59.375954221942287, 39.115914307410591 ] ] } },
{ "type": "Feature", "properties": { "z_other": "KAZ_S", "z": "KGZ_N", "country_ini_lat": 41.962267519497324, "country_ini_lon": 75.939264710818591, "lat_linestring": 43.295768852375872, "lon_linestring": 73.27220315238408, "c": "KGZ", "c2": "KAZ" }, "geometry": { "type": "LineString", "coordinates": [ [ 75.939264710818591, 41.962267519497324 ], [ 70.605141593949568, 44.629270185254427 ] ] } },
{ "type": "Feature", "properties": { "z_other": "KAZ_N", "z": "KGZ_N", "country_ini_lat": 41.962267519497324, "country_ini_lon": 75.939264710818591, "lat_linestring": 45.914037601385047, "lon_linestring": 72.884619001631251, "c": "KGZ", "c2": "KAZ" }, "geometry": { "type": "LineString", "coordinates": [ [ 75.939264710818591, 41.962267519497324 ], [ 69.829973292443924, 49.865807683272763 ] ] } },
{ "type": "Feature", "properties": { "z_other": "PAK_KAR", "z": "NEPS_AFG", "country_ini_lat": 32.90204080117735, "country_ini_lon": 67.019325313022293, "lat_linestring": 28.9991635990547, "lon_linestring": 67.123278023309496, "c": "AFG", "c2": "PAK" }, "geometry": { "type": "LineString", "coordinates": [ [ 67.019325313022293, 32.90204080117735 ], [ 67.227230733596684, 25.096286396932051 ] ] } },
{ "type": "Feature", "properties": { "z_other": "NEPS_TAJ", "z": "NEPS_AFG", "country_ini_lat": 32.90204080117735, "country_ini_lon": 67.019325313022293, "lat_linestring": 34.830818009787095, "lon_linestring": 68.196212446993243, "c": "AFG", "c2": "AFG" }, "geometry": { "type": "LineString", "coordinates": [ [ 67.019325313022293, 32.90204080117735 ], [ 69.373099580964194, 36.759595218396832 ] ] } },
{ "type": "Feature", "properties": { "z_other": "TAJ_N", "z": "NEPS_AFG", "country_ini_lat": 32.90204080117735, "country_ini_lon": 67.019325313022293, "lat_linestring": 36.352831985188629, "lon_linestring": 68.12159014476407, "c": "AFG", "c2": "TAJ" }, "geometry": { "type": "LineString", "coordinates": [ [ 67.019325313022293, 32.90204080117735 ], [ 69.223854976505834, 39.803623169199909 ] ] } },
{ "type": "Feature", "properties": { "z_other": "NEPS_UZB", "z": "NEPS_AFG", "country_ini_lat": 32.90204080117735, "country_ini_lon": 67.019325313022293, "lat_linestring": 34.525579447323643, "lon_linestring": 66.980014032651894, "c": "AFG", "c2": "AFG" }, "geometry": { "type": "LineString", "coordinates": [ [ 67.019325313022293, 32.90204080117735 ], [ 66.94070275228151, 36.149118093469937 ] ] } },
{ "type": "Feature", "properties": { "z_other": "NEPS_TKM", "z": "NEPS_AFG", "country_ini_lat": 32.90204080117735, "country_ini_lon": 67.019325313022293, "lat_linestring": 34.386053524190942, "lon_linestring": 65.826697274922537, "c": "AFG", "c2": "AFG" }, "geometry": { "type": "LineString", "coordinates": [ [ 67.019325313022293, 32.90204080117735 ], [ 64.634069236822782, 35.870066247204541 ] ] } },
{ "type": "Feature", "properties": { "z_other": "NEPS_HERAT", "z": "NEPS_AFG", "country_ini_lat": 32.90204080117735, "country_ini_lon": 67.019325313022293, "lat_linestring": 33.548876368603082, "lon_linestring": 64.570017710237394, "c": "AFG", "c2": "AFG" }, "geometry": { "type": "LineString", "coordinates": [ [ 67.019325313022293, 32.90204080117735 ], [ 62.120710107452503, 34.195711936028815 ] ] } },
{ "type": "Feature", "properties": { "z_other": "KGZ_S", "z": "NEPS_AFG", "country_ini_lat": 32.90204080117735, "country_ini_lon": 67.019325313022293, "lat_linestring": 36.797733989720328, "lon_linestring": 69.707327771767098, "c": "AFG", "c2": "KGZ" }, "geometry": { "type": "LineString", "coordinates": [ [ 67.019325313022293, 32.90204080117735 ], [ 72.395330230511917, 40.693427178263313 ] ] } },
{ "type": "Feature", "properties": { "z_other": "TAJ_S", "z": "NEPS_AFG", "country_ini_lat": 32.90204080117735, "country_ini_lon": 67.019325313022293, "lat_linestring": 35.573926690812968, "lon_linestring": 69.217382572227876, "c": "AFG", "c2": "TAJ" }, "geometry": { "type": "LineString", "coordinates": [ [ 67.019325313022293, 32.90204080117735 ], [ 71.415439831433446, 38.245812580448593 ] ] } },
{ "type": "Feature", "properties": { "z_other": "KGZ_N", "z": "NEPS_AFG", "country_ini_lat": 32.90204080117735, "country_ini_lon": 67.019325313022293, "lat_linestring": 37.432154160337333, "lon_linestring": 71.479295011920442, "c": "AFG", "c2": "KGZ" }, "geometry": { "type": "LineString", "coordinates": [ [ 67.019325313022293, 32.90204080117735 ], [ 75.939264710818591, 41.962267519497324 ] ] } },
{ "type": "Feature", "properties": { "z_other": "PAK_N", "z": "NEPS_AFG", "country_ini_lat": 32.90204080117735, "country_ini_lon": 67.019325313022293, "lat_linestring": 32.801964436335588, "lon_linestring": 69.782506480470175, "c": "AFG", "c2": "PAK" }, "geometry": { "type": "LineString", "coordinates": [ [ 67.019325313022293, 32.90204080117735 ], [ 72.545687647918058, 32.701888071493826 ] ] } },
{ "type": "Feature", "properties": { "z_other": "PAK_S", "z": "NEPS_AFG", "country_ini_lat": 32.90204080117735, "country_ini_lon": 67.019325313022293, "lat_linestring": 30.297916883013762, "lon_linestring": 66.854030608446834, "c": "AFG", "c2": "PAK" }, "geometry": { "type": "LineString", "coordinates": [ [ 67.019325313022293, 32.90204080117735 ], [ 66.68873590387139, 27.693792964850179 ] ] } },
{ "type": "Feature", "properties": { "z_other": "UZB", "z": "NEPS_AFG", "country_ini_lat": 32.90204080117735, "country_ini_lon": 67.019325313022293, "lat_linestring": 37.328997741769157, "lon_linestring": 65.079683246752552, "c": "AFG", "c2": "UZB" }, "geometry": { "type": "LineString", "coordinates": [ [ 67.019325313022293, 32.90204080117735 ], [ 63.140041180482825, 41.755954682360958 ] ] } },
{ "type": "Feature", "properties": { "z_other": "TUR", "z": "NEPS_AFG", "country_ini_lat": 32.90204080117735, "country_ini_lon": 67.019325313022293, "lat_linestring": 36.008977554293971, "lon_linestring": 63.197639767482286, "c": "AFG", "c2": "TUR" }, "geometry": { "type": "LineString", "coordinates": [ [ 67.019325313022293, 32.90204080117735 ], [ 59.375954221942287, 39.115914307410591 ] ] } },
{ "type": "Feature", "properties": { "z_other": "KAZ_S", "z": "NEPS_AFG", "country_ini_lat": 32.90204080117735, "country_ini_lon": 67.019325313022293, "lat_linestring": 38.765655493215888, "lon_linestring": 68.812233453485931, "c": "AFG", "c2": "KAZ" }, "geometry": { "type": "LineString", "coordinates": [ [ 67.019325313022293, 32.90204080117735 ], [ 70.605141593949568, 44.629270185254427 ] ] } },
{ "type": "Feature", "properties": { "z_other": "KAZ_N", "z": "NEPS_AFG", "country_ini_lat": 32.90204080117735, "country_ini_lon": 67.019325313022293, "lat_linestring": 41.383924242225056, "lon_linestring": 68.424649302733116, "c": "AFG", "c2": "KAZ" }, "geometry": { "type": "LineString", "coordinates": [ [ 67.019325313022293, 32.90204080117735 ], [ 69.829973292443924, 49.865807683272763 ] ] } },
{ "type": "Feature", "properties": { "z_other": "PAK_KAR", "z": "PAK_N", "country_ini_lat": 32.701888071493826, "country_ini_lon": 72.545687647918058, "lat_linestring": 28.899087234212939, "lon_linestring": 69.886459190757364, "c": "PAK", "c2": "PAK" }, "geometry": { "type": "LineString", "coordinates": [ [ 72.545687647918058, 32.701888071493826 ], [ 67.227230733596684, 25.096286396932051 ] ] } },
{ "type": "Feature", "properties": { "z_other": "NEPS_TAJ", "z": "PAK_N", "country_ini_lat": 32.701888071493826, "country_ini_lon": 72.545687647918058, "lat_linestring": 34.730741644945326, "lon_linestring": 70.959393614441126, "c": "PAK", "c2": "AFG" }, "geometry": { "type": "LineString", "coordinates": [ [ 72.545687647918058, 32.701888071493826 ], [ 69.373099580964194, 36.759595218396832 ] ] } },
{ "type": "Feature", "properties": { "z_other": "TAJ_N", "z": "PAK_N", "country_ini_lat": 32.701888071493826, "country_ini_lon": 72.545687647918058, "lat_linestring": 36.252755620346868, "lon_linestring": 70.884771312211939, "c": "PAK", "c2": "TAJ" }, "geometry": { "type": "LineString", "coordinates": [ [ 72.545687647918058, 32.701888071493826 ], [ 69.223854976505834, 39.803623169199909 ] ] } },
{ "type": "Feature", "properties": { "z_other": "NEPS_UZB", "z": "PAK_N", "country_ini_lat": 32.701888071493826, "country_ini_lon": 72.545687647918058, "lat_linestring": 34.425503082481882, "lon_linestring": 69.743195200099791, "c": "PAK", "c2": "AFG" }, "geometry": { "type": "LineString", "coordinates": [ [ 72.545687647918058, 32.701888071493826 ], [ 66.94070275228151, 36.149118093469937 ] ] } },
{ "type": "Feature", "properties": { "z_other": "NEPS_TKM", "z": "PAK_N", "country_ini_lat": 32.701888071493826, "country_ini_lon": 72.545687647918058, "lat_linestring": 34.285977159349187, "lon_linestring": 68.58987844237042, "c": "PAK", "c2": "AFG" }, "geometry": { "type": "LineString", "coordinates": [ [ 72.545687647918058, 32.701888071493826 ], [ 64.634069236822782, 35.870066247204541 ] ] } },
{ "type": "Feature", "properties": { "z_other": "NEPS_HERAT", "z": "PAK_N", "country_ini_lat": 32.701888071493826, "country_ini_lon": 72.545687647918058, "lat_linestring": 33.44880000376132, "lon_linestring": 67.333198877685277, "c": "PAK", "c2": "AFG" }, "geometry": { "type": "LineString", "coordinates": [ [ 72.545687647918058, 32.701888071493826 ], [ 62.120710107452503, 34.195711936028815 ] ] } },
{ "type": "Feature", "properties": { "z_other": "KGZ_S", "z": "PAK_N", "country_ini_lat": 32.701888071493826, "country_ini_lon": 72.545687647918058, "lat_linestring": 36.697657624878573, "lon_linestring": 72.470508939214994, "c": "PAK", "c2": "KGZ" }, "geometry": { "type": "LineString", "coordinates": [ [ 72.545687647918058, 32.701888071493826 ], [ 72.395330230511917, 40.693427178263313 ] ] } },
{ "type": "Feature", "properties": { "z_other": "TAJ_S", "z": "PAK_N", "country_ini_lat": 32.701888071493826, "country_ini_lon": 72.545687647918058, "lat_linestring": 35.473850325971213, "lon_linestring": 71.980563739675745, "c": "PAK", "c2": "TAJ" }, "geometry": { "type": "LineString", "coordinates": [ [ 72.545687647918058, 32.701888071493826 ], [ 71.415439831433446, 38.245812580448593 ] ] } },
{ "type": "Feature", "properties": { "z_other": "KGZ_N", "z": "PAK_N", "country_ini_lat": 32.701888071493826, "country_ini_lon": 72.545687647918058, "lat_linestring": 37.332077795495579, "lon_linestring": 74.242476179368325, "c": "PAK", "c2": "KGZ" }, "geometry": { "type": "LineString", "coordinates": [ [ 72.545687647918058, 32.701888071493826 ], [ 75.939264710818591, 41.962267519497324 ] ] } },
{ "type": "Feature", "properties": { "z_other": "NEPS_AFG", "z": "PAK_N", "country_ini_lat": 32.701888071493826, "country_ini_lon": 72.545687647918058, "lat_linestring": 32.801964436335588, "lon_linestring": 69.782506480470175, "c": "PAK", "c2": "AFG" }, "geometry": { "type": "LineString", "coordinates": [ [ 72.545687647918058, 32.701888071493826 ], [ 67.019325313022293, 32.90204080117735 ] ] } },
{ "type": "Feature", "properties": { "z_other": "PAK_S", "z": "PAK_N", "country_ini_lat": 32.701888071493826, "country_ini_lon": 72.545687647918058, "lat_linestring": 30.197840518172001, "lon_linestring": 69.617211775894731, "c": "PAK", "c2": "PAK" }, "geometry": { "type": "LineString", "coordinates": [ [ 72.545687647918058, 32.701888071493826 ], [ 66.68873590387139, 27.693792964850179 ] ] } },
{ "type": "Feature", "properties": { "z_other": "UZB", "z": "PAK_N", "country_ini_lat": 32.701888071493826, "country_ini_lon": 72.545687647918058, "lat_linestring": 37.228921376927389, "lon_linestring": 67.842864414200449, "c": "PAK", "c2": "UZB" }, "geometry": { "type": "LineString", "coordinates": [ [ 72.545687647918058, 32.701888071493826 ], [ 63.140041180482825, 41.755954682360958 ] ] } },
{ "type": "Feature", "properties": { "z_other": "TUR", "z": "PAK_N", "country_ini_lat": 32.701888071493826, "country_ini_lon": 72.545687647918058, "lat_linestring": 35.908901189452209, "lon_linestring": 65.960820934930169, "c": "PAK", "c2": "TUR" }, "geometry": { "type": "LineString", "coordinates": [ [ 72.545687647918058, 32.701888071493826 ], [ 59.375954221942287, 39.115914307410591 ] ] } },
{ "type": "Feature", "properties": { "z_other": "KAZ_S", "z": "PAK_N", "country_ini_lat": 32.701888071493826, "country_ini_lon": 72.545687647918058, "lat_linestring": 38.665579128374127, "lon_linestring": 71.575414620933813, "c": "PAK", "c2": "KAZ" }, "geometry": { "type": "LineString", "coordinates": [ [ 72.545687647918058, 32.701888071493826 ], [ 70.605141593949568, 44.629270185254427 ] ] } },
{ "type": "Feature", "properties": { "z_other": "KAZ_N", "z": "PAK_N", "country_ini_lat": 32.701888071493826, "country_ini_lon": 72.545687647918058, "lat_linestring": 41.283847877383295, "lon_linestring": 71.187830470180984, "c": "PAK", "c2": "KAZ" }, "geometry": { "type": "LineString", "coordinates": [ [ 72.545687647918058, 32.701888071493826 ], [ 69.829973292443924, 49.865807683272763 ] ] } },
{ "type": "Feature", "properties": { "z_other": "PAK_KAR", "z": "PAK_S", "country_ini_lat": 27.693792964850179, "country_ini_lon": 66.68873590387139, "lat_linestring": 26.395039680891117, "lon_linestring": 66.957983318734037, "c": "PAK", "c2": "PAK" }, "geometry": { "type": "LineString", "coordinates": [ [ 66.68873590387139, 27.693792964850179 ], [ 67.227230733596684, 25.096286396932051 ] ] } },
{ "type": "Feature", "properties": { "z_other": "NEPS_TAJ", "z": "PAK_S", "country_ini_lat": 27.693792964850179, "country_ini_lon": 66.68873590387139, "lat_linestring": 32.226694091623507, "lon_linestring": 68.030917742417785, "c": "PAK", "c2": "AFG" }, "geometry": { "type": "LineString", "coordinates": [ [ 66.68873590387139, 27.693792964850179 ], [ 69.373099580964194, 36.759595218396832 ] ] } },
{ "type": "Feature", "properties": { "z_other": "TAJ_N", "z": "PAK_S", "country_ini_lat": 27.693792964850179, "country_ini_lon": 66.68873590387139, "lat_linestring": 33.748708067025042, "lon_linestring": 67.956295440188612, "c": "PAK", "c2": "TAJ" }, "geometry": { "type": "LineString", "coordinates": [ [ 66.68873590387139, 27.693792964850179 ], [ 69.223854976505834, 39.803623169199909 ] ] } },
{ "type": "Feature", "properties": { "z_other": "NEPS_UZB", "z": "PAK_S", "country_ini_lat": 27.693792964850179, "country_ini_lon": 66.68873590387139, "lat_linestring": 31.921455529160056, "lon_linestring": 66.81471932807645, "c": "PAK", "c2": "AFG" }, "geometry": { "type": "LineString", "coordinates": [ [ 66.68873590387139, 27.693792964850179 ], [ 66.94070275228151, 36.149118093469937 ] ] } },
{ "type": "Feature", "properties": { "z_other": "NEPS_TKM", "z": "PAK_S", "country_ini_lat": 27.693792964850179, "country_ini_lon": 66.68873590387139, "lat_linestring": 31.781929606027358, "lon_linestring": 65.661402570347093, "c": "PAK", "c2": "AFG" }, "geometry": { "type": "LineString", "coordinates": [ [ 66.68873590387139, 27.693792964850179 ], [ 64.634069236822782, 35.870066247204541 ] ] } },
{ "type": "Feature", "properties": { "z_other": "NEPS_HERAT", "z": "PAK_S", "country_ini_lat": 27.693792964850179, "country_ini_lon": 66.68873590387139, "lat_linestring": 30.944752450439495, "lon_linestring": 64.40472300566195, "c": "PAK", "c2": "AFG" }, "geometry": { "type": "LineString", "coordinates": [ [ 66.68873590387139, 27.693792964850179 ], [ 62.120710107452503, 34.195711936028815 ] ] } },
{ "type": "Feature", "properties": { "z_other": "KGZ_S", "z": "PAK_S", "country_ini_lat": 27.693792964850179, "country_ini_lon": 66.68873590387139, "lat_linestring": 34.193610071556748, "lon_linestring": 69.542033067191653, "c": "PAK", "c2": "KGZ" }, "geometry": { "type": "LineString", "coordinates": [ [ 66.68873590387139, 27.693792964850179 ], [ 72.395330230511917, 40.693427178263313 ] ] } },
{ "type": "Feature", "properties": { "z_other": "TAJ_S", "z": "PAK_S", "country_ini_lat": 27.693792964850179, "country_ini_lon": 66.68873590387139, "lat_linestring": 32.969802772649388, "lon_linestring": 69.052087867652418, "c": "PAK", "c2": "TAJ" }, "geometry": { "type": "LineString", "coordinates": [ [ 66.68873590387139, 27.693792964850179 ], [ 71.415439831433446, 38.245812580448593 ] ] } },
{ "type": "Feature", "properties": { "z_other": "KGZ_N", "z": "PAK_S", "country_ini_lat": 27.693792964850179, "country_ini_lon": 66.68873590387139, "lat_linestring": 34.828030242173753, "lon_linestring": 71.314000307344998, "c": "PAK", "c2": "KGZ" }, "geometry": { "type": "LineString", "coordinates": [ [ 66.68873590387139, 27.693792964850179 ], [ 75.939264710818591, 41.962267519497324 ] ] } },
{ "type": "Feature", "properties": { "z_other": "NEPS_AFG", "z": "PAK_S", "country_ini_lat": 27.693792964850179, "country_ini_lon": 66.68873590387139, "lat_linestring": 30.297916883013762, "lon_linestring": 66.854030608446834, "c": "PAK", "c2": "AFG" }, "geometry": { "type": "LineString", "coordinates": [ [ 66.68873590387139, 27.693792964850179 ], [ 67.019325313022293, 32.90204080117735 ] ] } },
{ "type": "Feature", "properties": { "z_other": "PAK_N", "z": "PAK_S", "country_ini_lat": 27.693792964850179, "country_ini_lon": 66.68873590387139, "lat_linestring": 30.197840518172001, "lon_linestring": 69.617211775894731, "c": "PAK", "c2": "PAK" }, "geometry": { "type": "LineString", "coordinates": [ [ 66.68873590387139, 27.693792964850179 ], [ 72.545687647918058, 32.701888071493826 ] ] } },
{ "type": "Feature", "properties": { "z_other": "UZB", "z": "PAK_S", "country_ini_lat": 27.693792964850179, "country_ini_lon": 66.68873590387139, "lat_linestring": 34.72487382360557, "lon_linestring": 64.914388542177107, "c": "PAK", "c2": "UZB" }, "geometry": { "type": "LineString", "coordinates": [ [ 66.68873590387139, 27.693792964850179 ], [ 63.140041180482825, 41.755954682360958 ] ] } },
{ "type": "Feature", "properties": { "z_other": "TUR", "z": "PAK_S", "country_ini_lat": 27.693792964850179, "country_ini_lon": 66.68873590387139, "lat_linestring": 33.404853636130383, "lon_linestring": 63.032345062906842, "c": "PAK", "c2": "TUR" }, "geometry": { "type": "LineString", "coordinates": [ [ 66.68873590387139, 27.693792964850179 ], [ 59.375954221942287, 39.115914307410591 ] ] } },
{ "type": "Feature", "properties": { "z_other": "KAZ_S", "z": "PAK_S", "country_ini_lat": 27.693792964850179, "country_ini_lon": 66.68873590387139, "lat_linestring": 36.161531575052301, "lon_linestring": 68.646938748910486, "c": "PAK", "c2": "KAZ" }, "geometry": { "type": "LineString", "coordinates": [ [ 66.68873590387139, 27.693792964850179 ], [ 70.605141593949568, 44.629270185254427 ] ] } },
{ "type": "Feature", "properties": { "z_other": "KAZ_N", "z": "PAK_S", "country_ini_lat": 27.693792964850179, "country_ini_lon": 66.68873590387139, "lat_linestring": 38.779800324061469, "lon_linestring": 68.259354598157657, "c": "PAK", "c2": "KAZ" }, "geometry": { "type": "LineString", "coordinates": [ [ 66.68873590387139, 27.693792964850179 ], [ 69.829973292443924, 49.865807683272763 ] ] } },
{ "type": "Feature", "properties": { "z_other": "PAK_KAR", "z": "UZB", "country_ini_lat": 41.755954682360958, "country_ini_lon": 63.140041180482825, "lat_linestring": 33.426120539646504, "lon_linestring": 65.183635957039755, "c": "UZB", "c2": "PAK" }, "geometry": { "type": "LineString", "coordinates": [ [ 63.140041180482825, 41.755954682360958 ], [ 67.227230733596684, 25.096286396932051 ] ] } },
{ "type": "Feature", "properties": { "z_other": "NEPS_TAJ", "z": "UZB", "country_ini_lat": 41.755954682360958, "country_ini_lon": 63.140041180482825, "lat_linestring": 39.257774950378895, "lon_linestring": 66.256570380723502, "c": "UZB", "c2": "AFG" }, "geometry": { "type": "LineString", "coordinates": [ [ 63.140041180482825, 41.755954682360958 ], [ 69.373099580964194, 36.759595218396832 ] ] } },
{ "type": "Feature", "properties": { "z_other": "TAJ_N", "z": "UZB", "country_ini_lat": 41.755954682360958, "country_ini_lon": 63.140041180482825, "lat_linestring": 40.779788925780444, "lon_linestring": 66.181948078494329, "c": "UZB", "c2": "TAJ" }, "geometry": { "type": "LineString", "coordinates": [ [ 63.140041180482825, 41.755954682360958 ], [ 69.223854976505834, 39.803623169199909 ] ] } },
{ "type": "Feature", "properties": { "z_other": "NEPS_UZB", "z": "UZB", "country_ini_lat": 41.755954682360958, "country_ini_lon": 63.140041180482825, "lat_linestring": 38.952536387915444, "lon_linestring": 65.040371966382168, "c": "UZB", "c2": "AFG" }, "geometry": { "type": "LineString", "coordinates": [ [ 63.140041180482825, 41.755954682360958 ], [ 66.94070275228151, 36.149118093469937 ] ] } },
{ "type": "Feature", "properties": { "z_other": "NEPS_TKM", "z": "UZB", "country_ini_lat": 41.755954682360958, "country_ini_lon": 63.140041180482825, "lat_linestring": 38.813010464782749, "lon_linestring": 63.887055208652804, "c": "UZB", "c2": "AFG" }, "geometry": { "type": "LineString", "coordinates": [ [ 63.140041180482825, 41.755954682360958 ], [ 64.634069236822782, 35.870066247204541 ] ] } },
{ "type": "Feature", "properties": { "z_other": "NEPS_HERAT", "z": "UZB", "country_ini_lat": 41.755954682360958, "country_ini_lon": 63.140041180482825, "lat_linestring": 37.975833309194883, "lon_linestring": 62.630375643967668, "c": "UZB", "c2": "AFG" }, "geometry": { "type": "LineString", "coordinates": [ [ 63.140041180482825, 41.755954682360958 ], [ 62.120710107452503, 34.195711936028815 ] ] } },
{ "type": "Feature", "properties": { "z_other": "KGZ_S", "z": "UZB", "country_ini_lat": 41.755954682360958, "country_ini_lon": 63.140041180482825, "lat_linestring": 41.224690930312136, "lon_linestring": 67.767685705497371, "c": "UZB", "c2": "KGZ" }, "geometry": { "type": "LineString", "coordinates": [ [ 63.140041180482825, 41.755954682360958 ], [ 72.395330230511917, 40.693427178263313 ] ] } },
{ "type": "Feature", "properties": { "z_other": "TAJ_S", "z": "UZB", "country_ini_lat": 41.755954682360958, "country_ini_lon": 63.140041180482825, "lat_linestring": 40.000883631404776, "lon_linestring": 67.277740505958135, "c": "UZB", "c2": "TAJ" }, "geometry": { "type": "LineString", "coordinates": [ [ 63.140041180482825, 41.755954682360958 ], [ 71.415439831433446, 38.245812580448593 ] ] } },
{ "type": "Feature", "properties": { "z_other": "KGZ_N", "z": "UZB", "country_ini_lat": 41.755954682360958, "country_ini_lon": 63.140041180482825, "lat_linestring": 41.859111100929141, "lon_linestring": 69.539652945650715, "c": "UZB", "c2": "KGZ" }, "geometry": { "type": "LineString", "coordinates": [ [ 63.140041180482825, 41.755954682360958 ], [ 75.939264710818591, 41.962267519497324 ] ] } },
{ "type": "Feature", "properties": { "z_other": "NEPS_AFG", "z": "UZB", "country_ini_lat": 41.755954682360958, "country_ini_lon": 63.140041180482825, "lat_linestring": 37.328997741769157, "lon_linestring": 65.079683246752552, "c": "UZB", "c2": "AFG" }, "geometry": { "type": "LineString", "coordinates": [ [ 63.140041180482825, 41.755954682360958 ], [ 67.019325313022293, 32.90204080117735 ] ] } },
{ "type": "Feature", "properties": { "z_other": "PAK_N", "z": "UZB", "country_ini_lat": 41.755954682360958, "country_ini_lon": 63.140041180482825, "lat_linestring": 37.228921376927389, "lon_linestring": 67.842864414200449, "c": "UZB", "c2": "PAK" }, "geometry": { "type": "LineString", "coordinates": [ [ 63.140041180482825, 41.755954682360958 ], [ 72.545687647918058, 32.701888071493826 ] ] } },
{ "type": "Feature", "properties": { "z_other": "PAK_S", "z": "UZB", "country_ini_lat": 41.755954682360958, "country_ini_lon": 63.140041180482825, "lat_linestring": 34.72487382360557, "lon_linestring": 64.914388542177107, "c": "UZB", "c2": "PAK" }, "geometry": { "type": "LineString", "coordinates": [ [ 63.140041180482825, 41.755954682360958 ], [ 66.68873590387139, 27.693792964850179 ] ] } },
{ "type": "Feature", "properties": { "z_other": "TUR", "z": "UZB", "country_ini_lat": 41.755954682360958, "country_ini_lon": 63.140041180482825, "lat_linestring": 40.435934494885771, "lon_linestring": 61.257997701212567, "c": "UZB", "c2": "TUR" }, "geometry": { "type": "LineString", "coordinates": [ [ 63.140041180482825, 41.755954682360958 ], [ 59.375954221942287, 39.115914307410591 ] ] } },
{ "type": "Feature", "properties": { "z_other": "KAZ_S", "z": "UZB", "country_ini_lat": 41.755954682360958, "country_ini_lon": 63.140041180482825, "lat_linestring": 43.192612433807696, "lon_linestring": 66.872591387216204, "c": "UZB", "c2": "KAZ" }, "geometry": { "type": "LineString", "coordinates": [ [ 63.140041180482825, 41.755954682360958 ], [ 70.605141593949568, 44.629270185254427 ] ] } },
{ "type": "Feature", "properties": { "z_other": "KAZ_N", "z": "UZB", "country_ini_lat": 41.755954682360958, "country_ini_lon": 63.140041180482825, "lat_linestring": 45.810881182816857, "lon_linestring": 66.485007236463375, "c": "UZB", "c2": "KAZ" }, "geometry": { "type": "LineString", "coordinates": [ [ 63.140041180482825, 41.755954682360958 ], [ 69.829973292443924, 49.865807683272763 ] ] } },
{ "type": "Feature", "properties": { "z_other": "PAK_KAR", "z": "TUR", "country_ini_lat": 39.115914307410591, "country_ini_lon": 59.375954221942287, "lat_linestring": 32.106100352171325, "lon_linestring": 63.301592477769489, "c": "TUR", "c2": "PAK" }, "geometry": { "type": "LineString", "coordinates": [ [ 59.375954221942287, 39.115914307410591 ], [ 67.227230733596684, 25.096286396932051 ] ] } },
{ "type": "Feature", "properties": { "z_other": "NEPS_TAJ", "z": "TUR", "country_ini_lat": 39.115914307410591, "country_ini_lon": 59.375954221942287, "lat_linestring": 37.937754762903708, "lon_linestring": 64.374526901453237, "c": "TUR", "c2": "AFG" }, "geometry": { "type": "LineString", "coordinates": [ [ 59.375954221942287, 39.115914307410591 ], [ 69.373099580964194, 36.759595218396832 ] ] } },
{ "type": "Feature", "properties": { "z_other": "TAJ_N", "z": "TUR", "country_ini_lat": 39.115914307410591, "country_ini_lon": 59.375954221942287, "lat_linestring": 39.45976873830525, "lon_linestring": 64.299904599224064, "c": "TUR", "c2": "TAJ" }, "geometry": { "type": "LineString", "coordinates": [ [ 59.375954221942287, 39.115914307410591 ], [ 69.223854976505834, 39.803623169199909 ] ] } },
{ "type": "Feature", "properties": { "z_other": "NEPS_UZB", "z": "TUR", "country_ini_lat": 39.115914307410591, "country_ini_lon": 59.375954221942287, "lat_linestring": 37.632516200440264, "lon_linestring": 63.158328487111902, "c": "TUR", "c2": "AFG" }, "geometry": { "type": "LineString", "coordinates": [ [ 59.375954221942287, 39.115914307410591 ], [ 66.94070275228151, 36.149118093469937 ] ] } },
{ "type": "Feature", "properties": { "z_other": "NEPS_TKM", "z": "TUR", "country_ini_lat": 39.115914307410591, "country_ini_lon": 59.375954221942287, "lat_linestring": 37.49299027730757, "lon_linestring": 62.005011729382531, "c": "TUR", "c2": "AFG" }, "geometry": { "type": "LineString", "coordinates": [ [ 59.375954221942287, 39.115914307410591 ], [ 64.634069236822782, 35.870066247204541 ] ] } },
{ "type": "Feature", "properties": { "z_other": "NEPS_HERAT", "z": "TUR", "country_ini_lat": 39.115914307410591, "country_ini_lon": 59.375954221942287, "lat_linestring": 36.655813121719703, "lon_linestring": 60.748332164697388, "c": "TUR", "c2": "AFG" }, "geometry": { "type": "LineString", "coordinates": [ [ 59.375954221942287, 39.115914307410591 ], [ 62.120710107452503, 34.195711936028815 ] ] } },
{ "type": "Feature", "properties": { "z_other": "KGZ_S", "z": "TUR", "country_ini_lat": 39.115914307410591, "country_ini_lon": 59.375954221942287, "lat_linestring": 39.904670742836956, "lon_linestring": 65.885642226227105, "c": "TUR", "c2": "KGZ" }, "geometry": { "type": "LineString", "coordinates": [ [ 59.375954221942287, 39.115914307410591 ], [ 72.395330230511917, 40.693427178263313 ] ] } },
{ "type": "Feature", "properties": { "z_other": "TAJ_S", "z": "TUR", "country_ini_lat": 39.115914307410591, "country_ini_lon": 59.375954221942287, "lat_linestring": 38.680863443929596, "lon_linestring": 65.39569702668787, "c": "TUR", "c2": "TAJ" }, "geometry": { "type": "LineString", "coordinates": [ [ 59.375954221942287, 39.115914307410591 ], [ 71.415439831433446, 38.245812580448593 ] ] } },
{ "type": "Feature", "properties": { "z_other": "KGZ_N", "z": "TUR", "country_ini_lat": 39.115914307410591, "country_ini_lon": 59.375954221942287, "lat_linestring": 40.539090913453961, "lon_linestring": 67.657609466380435, "c": "TUR", "c2": "KGZ" }, "geometry": { "type": "LineString", "coordinates": [ [ 59.375954221942287, 39.115914307410591 ], [ 75.939264710818591, 41.962267519497324 ] ] } },
{ "type": "Feature", "properties": { "z_other": "NEPS_AFG", "z": "TUR", "country_ini_lat": 39.115914307410591, "country_ini_lon": 59.375954221942287, "lat_linestring": 36.008977554293971, "lon_linestring": 63.197639767482286, "c": "TUR", "c2": "AFG" }, "geometry": { "type": "LineString", "coordinates": [ [ 59.375954221942287, 39.115914307410591 ], [ 67.019325313022293, 32.90204080117735 ] ] } },
{ "type": "Feature", "properties": { "z_other": "PAK_N", "z": "TUR", "country_ini_lat": 39.115914307410591, "country_ini_lon": 59.375954221942287, "lat_linestring": 35.908901189452209, "lon_linestring": 65.960820934930169, "c": "TUR", "c2": "PAK" }, "geometry": { "type": "LineString", "coordinates": [ [ 59.375954221942287, 39.115914307410591 ], [ 72.545687647918058, 32.701888071493826 ] ] } },
{ "type": "Feature", "properties": { "z_other": "PAK_S", "z": "TUR", "country_ini_lat": 39.115914307410591, "country_ini_lon": 59.375954221942287, "lat_linestring": 33.404853636130383, "lon_linestring": 63.032345062906842, "c": "TUR", "c2": "PAK" }, "geometry": { "type": "LineString", "coordinates": [ [ 59.375954221942287, 39.115914307410591 ], [ 66.68873590387139, 27.693792964850179 ] ] } },
{ "type": "Feature", "properties": { "z_other": "UZB", "z": "TUR", "country_ini_lat": 39.115914307410591, "country_ini_lon": 59.375954221942287, "lat_linestring": 40.435934494885771, "lon_linestring": 61.257997701212567, "c": "TUR", "c2": "UZB" }, "geometry": { "type": "LineString", "coordinates": [ [ 59.375954221942287, 39.115914307410591 ], [ 63.140041180482825, 41.755954682360958 ] ] } },
{ "type": "Feature", "properties": { "z_other": "KAZ_S", "z": "TUR", "country_ini_lat": 39.115914307410591, "country_ini_lon": 59.375954221942287, "lat_linestring": 41.872592246332509, "lon_linestring": 64.990547907945924, "c": "TUR", "c2": "KAZ" }, "geometry": { "type": "LineString", "coordinates": [ [ 59.375954221942287, 39.115914307410591 ], [ 70.605141593949568, 44.629270185254427 ] ] } },
{ "type": "Feature", "properties": { "z_other": "KAZ_N", "z": "TUR", "country_ini_lat": 39.115914307410591, "country_ini_lon": 59.375954221942287, "lat_linestring": 44.490860995341677, "lon_linestring": 64.602963757193109, "c": "TUR", "c2": "KAZ" }, "geometry": { "type": "LineString", "coordinates": [ [ 59.375954221942287, 39.115914307410591 ], [ 69.829973292443924, 49.865807683272763 ] ] } },
{ "type": "Feature", "properties": { "z_other": "PAK_KAR", "z": "KAZ_S", "country_ini_lat": 44.629270185254427, "country_ini_lon": 70.605141593949568, "lat_linestring": 34.862778291093235, "lon_linestring": 68.916186163773119, "c": "KAZ", "c2": "PAK" }, "geometry": { "type": "LineString", "coordinates": [ [ 70.605141593949568, 44.629270185254427 ], [ 67.227230733596684, 25.096286396932051 ] ] } },
{ "type": "Feature", "properties": { "z_other": "NEPS_TAJ", "z": "KAZ_S", "country_ini_lat": 44.629270185254427, "country_ini_lon": 70.605141593949568, "lat_linestring": 40.694432701825633, "lon_linestring": 69.989120587456881, "c": "KAZ", "c2": "AFG" }, "geometry": { "type": "LineString", "coordinates": [ [ 70.605141593949568, 44.629270185254427 ], [ 69.373099580964194, 36.759595218396832 ] ] } },
{ "type": "Feature", "properties": { "z_other": "TAJ_N", "z": "KAZ_S", "country_ini_lat": 44.629270185254427, "country_ini_lon": 70.605141593949568, "lat_linestring": 42.216446677227168, "lon_linestring": 69.914498285227694, "c": "KAZ", "c2": "TAJ" }, "geometry": { "type": "LineString", "coordinates": [ [ 70.605141593949568, 44.629270185254427 ], [ 69.223854976505834, 39.803623169199909 ] ] } },
{ "type": "Feature", "properties": { "z_other": "NEPS_UZB", "z": "KAZ_S", "country_ini_lat": 44.629270185254427, "country_ini_lon": 70.605141593949568, "lat_linestring": 40.389194139362182, "lon_linestring": 68.772922173115546, "c": "KAZ", "c2": "AFG" }, "geometry": { "type": "LineString", "coordinates": [ [ 70.605141593949568, 44.629270185254427 ], [ 66.94070275228151, 36.149118093469937 ] ] } },
{ "type": "Feature", "properties": { "z_other": "NEPS_TKM", "z": "KAZ_S", "country_ini_lat": 44.629270185254427, "country_ini_lon": 70.605141593949568, "lat_linestring": 40.24966821622948, "lon_linestring": 67.619605415386175, "c": "KAZ", "c2": "AFG" }, "geometry": { "type": "LineString", "coordinates": [ [ 70.605141593949568, 44.629270185254427 ], [ 64.634069236822782, 35.870066247204541 ] ] } },
{ "type": "Feature", "properties": { "z_other": "NEPS_HERAT", "z": "KAZ_S", "country_ini_lat": 44.629270185254427, "country_ini_lon": 70.605141593949568, "lat_linestring": 39.412491060641621, "lon_linestring": 66.362925850701032, "c": "KAZ", "c2": "AFG" }, "geometry": { "type": "LineString", "coordinates": [ [ 70.605141593949568, 44.629270185254427 ], [ 62.120710107452503, 34.195711936028815 ] ] } },
{ "type": "Feature", "properties": { "z_other": "KGZ_S", "z": "KAZ_S", "country_ini_lat": 44.629270185254427, "country_ini_lon": 70.605141593949568, "lat_linestring": 42.661348681758867, "lon_linestring": 71.50023591223075, "c": "KAZ", "c2": "KGZ" }, "geometry": { "type": "LineString", "coordinates": [ [ 70.605141593949568, 44.629270185254427 ], [ 72.395330230511917, 40.693427178263313 ] ] } },
{ "type": "Feature", "properties": { "z_other": "TAJ_S", "z": "KAZ_S", "country_ini_lat": 44.629270185254427, "country_ini_lon": 70.605141593949568, "lat_linestring": 41.437541382851506, "lon_linestring": 71.0102907126915, "c": "KAZ", "c2": "TAJ" }, "geometry": { "type": "LineString", "coordinates": [ [ 70.605141593949568, 44.629270185254427 ], [ 71.415439831433446, 38.245812580448593 ] ] } },
{ "type": "Feature", "properties": { "z_other": "KGZ_N", "z": "KAZ_S", "country_ini_lat": 44.629270185254427, "country_ini_lon": 70.605141593949568, "lat_linestring": 43.295768852375872, "lon_linestring": 73.27220315238408, "c": "KAZ", "c2": "KGZ" }, "geometry": { "type": "LineString", "coordinates": [ [ 70.605141593949568, 44.629270185254427 ], [ 75.939264710818591, 41.962267519497324 ] ] } },
{ "type": "Feature", "properties": { "z_other": "NEPS_AFG", "z": "KAZ_S", "country_ini_lat": 44.629270185254427, "country_ini_lon": 70.605141593949568, "lat_linestring": 38.765655493215888, "lon_linestring": 68.812233453485931, "c": "KAZ", "c2": "AFG" }, "geometry": { "type": "LineString", "coordinates": [ [ 70.605141593949568, 44.629270185254427 ], [ 67.019325313022293, 32.90204080117735 ] ] } },
{ "type": "Feature", "properties": { "z_other": "PAK_N", "z": "KAZ_S", "country_ini_lat": 44.629270185254427, "country_ini_lon": 70.605141593949568, "lat_linestring": 38.665579128374127, "lon_linestring": 71.575414620933813, "c": "KAZ", "c2": "PAK" }, "geometry": { "type": "LineString", "coordinates": [ [ 70.605141593949568, 44.629270185254427 ], [ 72.545687647918058, 32.701888071493826 ] ] } },
{ "type": "Feature", "properties": { "z_other": "PAK_S", "z": "KAZ_S", "country_ini_lat": 44.629270185254427, "country_ini_lon": 70.605141593949568, "lat_linestring": 36.161531575052301, "lon_linestring": 68.646938748910486, "c": "KAZ", "c2": "PAK" }, "geometry": { "type": "LineString", "coordinates": [ [ 70.605141593949568, 44.629270185254427 ], [ 66.68873590387139, 27.693792964850179 ] ] } },
{ "type": "Feature", "properties": { "z_other": "UZB", "z": "KAZ_S", "country_ini_lat": 44.629270185254427, "country_ini_lon": 70.605141593949568, "lat_linestring": 43.192612433807696, "lon_linestring": 66.872591387216204, "c": "KAZ", "c2": "UZB" }, "geometry": { "type": "LineString", "coordinates": [ [ 70.605141593949568, 44.629270185254427 ], [ 63.140041180482825, 41.755954682360958 ] ] } },
{ "type": "Feature", "properties": { "z_other": "TUR", "z": "KAZ_S", "country_ini_lat": 44.629270185254427, "country_ini_lon": 70.605141593949568, "lat_linestring": 41.872592246332509, "lon_linestring": 64.990547907945924, "c": "KAZ", "c2": "TUR" }, "geometry": { "type": "LineString", "coordinates": [ [ 70.605141593949568, 44.629270185254427 ], [ 59.375954221942287, 39.115914307410591 ] ] } },
{ "type": "Feature", "properties": { "z_other": "KAZ_N", "z": "KAZ_S", "country_ini_lat": 44.629270185254427, "country_ini_lon": 70.605141593949568, "lat_linestring": 47.247538934263595, "lon_linestring": 70.217557443196739, "c": "KAZ", "c2": "KAZ" }, "geometry": { "type": "LineString", "coordinates": [ [ 70.605141593949568, 44.629270185254427 ], [ 69.829973292443924, 49.865807683272763 ] ] } },
{ "type": "Feature", "properties": { "z_other": "PAK_KAR", "z": "KAZ_N", "country_ini_lat": 49.865807683272763, "country_ini_lon": 69.829973292443924, "lat_linestring": 37.481047040102411, "lon_linestring": 68.528602013020304, "c": "KAZ", "c2": "PAK" }, "geometry": { "type": "LineString", "coordinates": [ [ 69.829973292443924, 49.865807683272763 ], [ 67.227230733596684, 25.096286396932051 ] ] } },
{ "type": "Feature", "properties": { "z_other": "NEPS_TAJ", "z": "KAZ_N", "country_ini_lat": 49.865807683272763, "country_ini_lon": 69.829973292443924, "lat_linestring": 43.312701450834794, "lon_linestring": 69.601536436704066, "c": "KAZ", "c2": "AFG" }, "geometry": { "type": "LineString", "coordinates": [ [ 69.829973292443924, 49.865807683272763 ], [ 69.373099580964194, 36.759595218396832 ] ] } },
{ "type": "Feature", "properties": { "z_other": "TAJ_N", "z": "KAZ_N", "country_ini_lat": 49.865807683272763, "country_ini_lon": 69.829973292443924, "lat_linestring": 44.834715426236336, "lon_linestring": 69.526914134474879, "c": "KAZ", "c2": "TAJ" }, "geometry": { "type": "LineString", "coordinates": [ [ 69.829973292443924, 49.865807683272763 ], [ 69.223854976505834, 39.803623169199909 ] ] } },
{ "type": "Feature", "properties": { "z_other": "NEPS_UZB", "z": "KAZ_N", "country_ini_lat": 49.865807683272763, "country_ini_lon": 69.829973292443924, "lat_linestring": 43.00746288837135, "lon_linestring": 68.385338022362717, "c": "KAZ", "c2": "AFG" }, "geometry": { "type": "LineString", "coordinates": [ [ 69.829973292443924, 49.865807683272763 ], [ 66.94070275228151, 36.149118093469937 ] ] } },
{ "type": "Feature", "properties": { "z_other": "NEPS_TKM", "z": "KAZ_N", "country_ini_lat": 49.865807683272763, "country_ini_lon": 69.829973292443924, "lat_linestring": 42.867936965238655, "lon_linestring": 67.232021264633346, "c": "KAZ", "c2": "AFG" }, "geometry": { "type": "LineString", "coordinates": [ [ 69.829973292443924, 49.865807683272763 ], [ 64.634069236822782, 35.870066247204541 ] ] } },
{ "type": "Feature", "properties": { "z_other": "NEPS_HERAT", "z": "KAZ_N", "country_ini_lat": 49.865807683272763, "country_ini_lon": 69.829973292443924, "lat_linestring": 42.030759809650789, "lon_linestring": 65.975341699948217, "c": "KAZ", "c2": "AFG" }, "geometry": { "type": "LineString", "coordinates": [ [ 69.829973292443924, 49.865807683272763 ], [ 62.120710107452503, 34.195711936028815 ] ] } },
{ "type": "Feature", "properties": { "z_other": "KGZ_S", "z": "KAZ_N", "country_ini_lat": 49.865807683272763, "country_ini_lon": 69.829973292443924, "lat_linestring": 45.279617430768042, "lon_linestring": 71.11265176147792, "c": "KAZ", "c2": "KGZ" }, "geometry": { "type": "LineString", "coordinates": [ [ 69.829973292443924, 49.865807683272763 ], [ 72.395330230511917, 40.693427178263313 ] ] } },
{ "type": "Feature", "properties": { "z_other": "TAJ_S", "z": "KAZ_N", "country_ini_lat": 49.865807683272763, "country_ini_lon": 69.829973292443924, "lat_linestring": 44.055810131860682, "lon_linestring": 70.622706561938685, "c": "KAZ", "c2": "TAJ" }, "geometry": { "type": "LineString", "coordinates": [ [ 69.829973292443924, 49.865807683272763 ], [ 71.415439831433446, 38.245812580448593 ] ] } },
{ "type": "Feature", "properties": { "z_other": "KGZ_N", "z": "KAZ_N", "country_ini_lat": 49.865807683272763, "country_ini_lon": 69.829973292443924, "lat_linestring": 45.914037601385047, "lon_linestring": 72.884619001631251, "c": "KAZ", "c2": "KGZ" }, "geometry": { "type": "LineString", "coordinates": [ [ 69.829973292443924, 49.865807683272763 ], [ 75.939264710818591, 41.962267519497324 ] ] } },
{ "type": "Feature", "properties": { "z_other": "NEPS_AFG", "z": "KAZ_N", "country_ini_lat": 49.865807683272763, "country_ini_lon": 69.829973292443924, "lat_linestring": 41.383924242225056, "lon_linestring": 68.424649302733116, "c": "KAZ", "c2": "AFG" }, "geometry": { "type": "LineString", "coordinates": [ [ 69.829973292443924, 49.865807683272763 ], [ 67.019325313022293, 32.90204080117735 ] ] } },
{ "type": "Feature", "properties": { "z_other": "PAK_N", "z": "KAZ_N", "country_ini_lat": 49.865807683272763, "country_ini_lon": 69.829973292443924, "lat_linestring": 41.283847877383295, "lon_linestring": 71.187830470180984, "c": "KAZ", "c2": "PAK" }, "geometry": { "type": "LineString", "coordinates": [ [ 69.829973292443924, 49.865807683272763 ], [ 72.545687647918058, 32.701888071493826 ] ] } },
{ "type": "Feature", "properties": { "z_other": "PAK_S", "z": "KAZ_N", "country_ini_lat": 49.865807683272763, "country_ini_lon": 69.829973292443924, "lat_linestring": 38.779800324061469, "lon_linestring": 68.259354598157657, "c": "KAZ", "c2": "PAK" }, "geometry": { "type": "LineString", "coordinates": [ [ 69.829973292443924, 49.865807683272763 ], [ 66.68873590387139, 27.693792964850179 ] ] } },
{ "type": "Feature", "properties": { "z_other": "UZB", "z": "KAZ_N", "country_ini_lat": 49.865807683272763, "country_ini_lon": 69.829973292443924, "lat_linestring": 45.810881182816857, "lon_linestring": 66.485007236463375, "c": "KAZ", "c2": "UZB" }, "geometry": { "type": "LineString", "coordinates": [ [ 69.829973292443924, 49.865807683272763 ], [ 63.140041180482825, 41.755954682360958 ] ] } },
{ "type": "Feature", "properties": { "z_other": "TUR", "z": "KAZ_N", "country_ini_lat": 49.865807683272763, "country_ini_lon": 69.829973292443924, "lat_linestring": 44.490860995341677, "lon_linestring": 64.602963757193109, "c": "KAZ", "c2": "TUR" }, "geometry": { "type": "LineString", "coordinates": [ [ 69.829973292443924, 49.865807683272763 ], [ 59.375954221942287, 39.115914307410591 ] ] } },
{ "type": "Feature", "properties": { "z_other": "KAZ_S", "z": "KAZ_N", "country_ini_lat": 49.865807683272763, "country_ini_lon": 69.829973292443924, "lat_linestring": 47.247538934263595, "lon_linestring": 70.217557443196739, "c": "KAZ", "c2": "KAZ" }, "geometry": { "type": "LineString", "coordinates": [ [ 69.829973292443924, 49.865807683272763 ], [ 70.605141593949568, 44.629270185254427 ] ] } }
]
}
