{
"type": "FeatureCollection",
"name": "zones_offgrid",
"crs": { "type": "name", "properties": { "name": "urn:ogc:def:crs:OGC:1.3:CRS84" } },
"features": [
{ "type": "Feature", "properties": { "z": "KAZ_WEST", "name": "Kazakhstan - Western zone", "ISO_A3": "KAZ", "c": "KAZ", "status": "not modelled", "reason": "KEGOC Western zone: isolated from the rest of the Kazakh grid and synchronised with Russia. No plant and no load in the 2020 model.", "admin_units": "Atyrau, Mangghystau, West Kazakhstan", "admin_source": "Natural Earth 10m admin-1", "area_km2": 431041 }, "geometry": { "type": "MultiPolygon", "coordinates": [ [ [ [ 55.372568, 41.375563 ], [ 55.360930877056141, 41.383412934656903 ], [ 55.356755, 41.389051 ], [ 55.228391, 41.472819 ], [ 55.100026, 41.644152 ], [ 54.950682, 41.795564 ], [ 54.934972, 41.833727 ], [ 54.94076, 41.889615 ], [ 54.907067, 41.932144 ], [ 54.738291, 42.04821 ], [ 54.195276, 42.318064 ], [ 54.122618, 42.337598 ], [ 54.047171, 42.345401 ], [ 53.412274, 42.258171 ], [ 52.978709, 42.126629 ], [ 52.764665, 41.993769 ], [ 52.437671, 41.748876 ], [ 52.490977, 41.902045 ], [ 52.474132, 41.962592 ], [ 52.433767, 42.000434 ], [ 52.436778, 42.057807 ], [ 52.402029, 42.092515 ], [ 52.43629, 42.179877 ], [ 52.484548, 42.201728 ], [ 52.594086, 42.335273 ], [ 52.601085, 42.388617 ], [ 52.642833, 42.42829 ], [ 52.67628, 42.538479 ], [ 52.663341, 42.612698 ], [ 52.6185, 42.678412 ], [ 52.575694, 42.698635 ], [ 52.563813, 42.742255 ], [ 52.574474, 42.749823 ], [ 52.600434, 42.697659 ], [ 52.663341, 42.667914 ], [ 52.71046, 42.585395 ], [ 52.74464, 42.657375 ], [ 52.712901, 42.73078 ], [ 52.629161, 42.749823 ], [ 52.625011, 42.774726 ], [ 52.470876, 42.826239 ], [ 52.345063, 42.829413 ], [ 52.299571, 42.790839 ], [ 52.1692, 42.88703 ], [ 52.05836, 42.878485 ], [ 51.932791, 42.834947 ], [ 51.912446, 42.842353 ], [ 51.802582, 42.958686 ], [ 51.771983, 43.030992 ], [ 51.711436, 43.090888 ], [ 51.675792, 43.099921 ], [ 51.679373, 43.159735 ], [ 51.651052, 43.191392 ], [ 51.539806, 43.174994 ], [ 51.508556, 43.154486 ], [ 51.460297, 43.16885 ], [ 51.275727, 43.154486 ], [ 51.266287, 43.187567 ], [ 51.312836, 43.311184 ], [ 51.314708, 43.46247 ], [ 51.278575, 43.517646 ], [ 51.27296, 43.55858 ], [ 51.21811, 43.593329 ], [ 51.206879, 43.624457 ], [ 51.156016, 43.624823 ], [ 51.115001, 43.660834 ], [ 51.023123, 43.800971 ], [ 50.991059, 43.867092 ], [ 50.991059, 43.908108 ], [ 50.901703, 44.011054 ], [ 50.86085, 44.025377 ], [ 50.847179, 44.189276 ], [ 50.781261, 44.235907 ], [ 50.6963, 44.26435 ], [ 50.344574, 44.311265 ], [ 50.237478, 44.36933 ], [ 50.22462, 44.567694 ], [ 50.237559, 44.586493 ], [ 50.25408, 44.557522 ], [ 50.268321, 44.570543 ], [ 50.311209, 44.66234 ], [ 50.497813, 44.6258 ], [ 50.616954, 44.639716 ], [ 50.627452, 44.62401 ], [ 50.730479, 44.620551 ], [ 50.756847, 44.605048 ], [ 50.78419, 44.632717 ], [ 50.872895, 44.628852 ], [ 50.96046, 44.569729 ], [ 51.004731, 44.565985 ], [ 51.008637, 44.551459 ], [ 50.991059, 44.545478 ], [ 51.007335, 44.528795 ], [ 51.143321, 44.484768 ], [ 51.225271, 44.499742 ], [ 51.292247, 44.552314 ], [ 51.366222, 44.560207 ], [ 51.381521, 44.55976 ], [ 51.37379, 44.527737 ], [ 51.470958, 44.531887 ], [ 51.560313, 44.511379 ], [ 51.573904, 44.523912 ], [ 51.554373, 44.550482 ], [ 51.438975, 44.610053 ], [ 51.319347, 44.596381 ], [ 51.29184, 44.614488 ], [ 51.234386, 44.719062 ], [ 51.096039, 44.796861 ], [ 51.049571, 44.803453 ], [ 50.962413, 44.863674 ], [ 50.965505, 44.906684 ], [ 50.993988, 44.936469 ], [ 50.954356, 44.952216 ], [ 50.959321, 44.978827 ], [ 51.065196, 44.997016 ], [ 51.107188, 45.032172 ], [ 51.196544, 45.065619 ], [ 51.27296, 45.024644 ], [ 51.274913, 45.05683 ], [ 51.243419, 45.10106 ], [ 51.257986, 45.134508 ], [ 51.244395, 45.161811 ], [ 51.309255, 45.25731 ], [ 51.397227, 45.332587 ], [ 51.415701, 45.38996 ], [ 51.456716, 45.347398 ], [ 51.543712, 45.334906 ], [ 51.699962, 45.392076 ], [ 51.758311, 45.457261 ], [ 51.792491, 45.405463 ], [ 51.878429, 45.395209 ], [ 51.940115, 45.367336 ], [ 52.0088, 45.395209 ], [ 52.094086, 45.381537 ], [ 52.519298, 45.408881 ], [ 52.909679, 45.31269 ], [ 53.002208, 45.320136 ], [ 53.108246, 45.299628 ], [ 53.261241, 45.342841 ], [ 53.26588, 45.36107 ], [ 53.247569, 45.369696 ], [ 53.142914, 45.383979 ], [ 53.112071, 45.406155 ], [ 53.035655, 45.418769 ], [ 52.755219, 45.516791 ], [ 52.731944, 45.554145 ], [ 52.745616, 45.639146 ], [ 52.792247, 45.662909 ], [ 52.858735, 45.764838 ], [ 52.919932, 45.796129 ], [ 53.04005, 45.936469 ], [ 53.081798, 46.005113 ], [ 53.082367, 46.060736 ], [ 53.118419, 46.114325 ], [ 53.156749, 46.272284 ], [ 53.156749, 46.341702 ], [ 53.128266, 46.393948 ], [ 53.032563, 46.470893 ], [ 53.102061, 46.443549 ], [ 53.07545, 46.475653 ], [ 53.081716, 46.512437 ], [ 53.017833, 46.478664 ], [ 52.998383, 46.484565 ], [ 52.996593, 46.504788 ], [ 53.04005, 46.57392 ], [ 53.05421, 46.5456 ], [ 53.087901, 46.553412 ], [ 53.108246, 46.621731 ], [ 53.117686, 46.601508 ], [ 53.142426, 46.635321 ], [ 53.200531, 46.643297 ], [ 53.207774, 46.695014 ], [ 53.188162, 46.718004 ], [ 53.105805, 46.73725 ], [ 53.083507, 46.853258 ], [ 53.060395, 46.89232 ], [ 52.992198, 46.895453 ], [ 52.919932, 46.957465 ], [ 52.782725, 46.943834 ], [ 52.614757, 46.950019 ], [ 52.536957, 46.988837 ], [ 52.455903, 47.001166 ], [ 52.427257, 46.99018 ], [ 52.419281, 46.943996 ], [ 52.357188, 46.893622 ], [ 52.262218, 46.870103 ], [ 52.188813, 46.883775 ], [ 52.182872, 46.861884 ], [ 52.224376, 46.848293 ], [ 52.244884, 46.810045 ], [ 52.112559, 46.81273 ], [ 52.000011, 46.89057 ], [ 52.018891, 46.936998 ], [ 51.999034, 46.940985 ], [ 51.960704, 46.88581 ], [ 51.941417, 46.87995 ], [ 51.853852, 46.895453 ], [ 51.895518, 46.930813 ], [ 51.806, 46.909084 ], [ 51.743907, 46.926825 ], [ 51.675792, 46.978583 ], [ 51.696056, 47.021186 ], [ 51.680186, 47.057034 ], [ 51.635753, 47.048774 ], [ 51.611013, 46.988837 ], [ 51.592296, 46.98725 ], [ 51.527192, 47.052965 ], [ 51.212576, 47.120917 ], [ 51.102712, 47.080471 ], [ 50.970714, 47.059882 ], [ 50.905447, 47.018948 ], [ 50.846528, 47.03677 ], [ 50.838145, 47.009914 ], [ 50.740571, 46.906155 ], [ 50.730479, 46.923326 ], [ 50.752126, 46.974677 ], [ 50.678233, 46.932685 ], [ 50.616059, 46.935614 ], [ 50.606944, 46.868109 ], [ 50.569102, 46.829047 ], [ 50.551606, 46.834621 ], [ 50.578136, 46.878363 ], [ 50.502778, 46.863593 ], [ 50.430186, 46.896715 ], [ 50.383637, 46.817776 ], [ 50.367361, 46.806627 ], [ 50.374278, 46.854438 ], [ 50.340017, 46.813463 ], [ 50.298676, 46.801947 ], [ 50.230968, 46.72602 ], [ 50.213145, 46.728176 ], [ 50.223155, 46.761054 ], [ 50.213145, 46.765692 ], [ 50.168793, 46.749091 ], [ 50.034028, 46.635159 ], [ 49.962657, 46.629136 ], [ 49.882335, 46.575873 ], [ 49.839692, 46.580756 ], [ 49.817393, 46.540432 ], [ 49.771332, 46.567084 ], [ 49.757498, 46.531684 ], [ 49.702647, 46.560248 ], [ 49.702647, 46.519273 ], [ 49.622569, 46.582831 ], [ 49.626801, 46.519273 ], [ 49.608084, 46.527004 ], [ 49.578949, 46.498847 ], [ 49.557872, 46.534369 ], [ 49.480805, 46.560614 ], [ 49.469086, 46.594387 ], [ 49.472341, 46.546617 ], [ 49.50408, 46.498847 ], [ 49.492849, 46.499579 ], [ 49.456798, 46.509589 ], [ 49.46225, 46.532945 ], [ 49.428966, 46.554877 ], [ 49.421397, 46.53974 ], [ 49.389496, 46.544013 ], [ 49.305349, 46.587592 ], [ 49.312999, 46.562079 ], [ 49.378591, 46.510199 ], [ 49.394216, 46.478339 ], [ 49.333263, 46.484565 ], [ 49.297862, 46.523749 ], [ 49.278087, 46.519273 ], [ 49.294688, 46.508002 ], [ 49.303559, 46.466457 ], [ 49.366873, 46.429877 ], [ 49.37143, 46.399359 ], [ 49.366873, 46.388983 ], [ 49.325694, 46.410346 ], [ 49.266287, 46.464057 ], [ 49.223399, 46.470893 ], [ 49.291759, 46.39643 ], [ 49.168224, 46.40941 ], [ 49.215831, 46.380316 ], [ 49.227131, 46.327879 ], [ 49.033162, 46.404895 ], [ 48.897046, 46.482177 ], [ 48.819635, 46.479257 ], [ 48.705016, 46.550441 ], [ 48.539393, 46.56796 ], [ 48.563009, 46.591317 ], [ 48.53004, 46.638188 ], [ 48.455109, 46.660796 ], [ 48.505752, 46.732601 ], [ 48.556705, 46.761746 ], [ 48.6182, 46.770428 ], [ 48.676594, 46.758026 ], [ 48.739536, 46.690562 ], [ 48.764031, 46.682836 ], [ 48.91689, 46.702577 ], [ 49.00629, 46.76911 ], [ 48.697265, 47.100976 ], [ 48.525079, 47.410234 ], [ 48.411081, 47.445761 ], [ 48.174351, 47.712851 ], [ 48.044488, 47.769695 ], [ 47.649732, 47.765587 ], [ 47.412175, 47.835867 ], [ 47.388818, 47.811915 ], [ 47.382926, 47.705358 ], [ 47.359672, 47.683344 ], [ 47.174464, 47.770522 ], [ 47.11948, 47.81977 ], [ 47.155343, 47.87744 ], [ 47.044239, 47.986219 ], [ 47.13705, 48.02725 ], [ 47.192034, 48.071796 ], [ 47.103564, 48.101199 ], [ 47.116483, 48.153858 ], [ 47.075245, 48.205121 ], [ 47.112142, 48.241553 ], [ 47.098913, 48.265375 ], [ 46.478279, 48.41056 ], [ 46.753818, 48.91407 ], [ 46.930034, 49.004038 ], [ 47.020881, 49.096849 ], [ 47.040002, 49.150334 ], [ 47.028633, 49.201494 ], [ 46.97923, 49.244282 ], [ 46.775108, 49.332545 ], [ 46.899907, 49.820319 ], [ 46.922593, 49.86135 ], [ 46.95856, 49.88414 ], [ 47.177358, 49.947185 ], [ 47.328563, 50.072965 ], [ 47.327633, 50.109294 ], [ 47.273062, 50.158438 ], [ 47.265104, 50.186343 ], [ 47.32231, 50.2374 ], [ 47.294766, 50.275434 ], [ 47.30567, 50.294864 ], [ 47.392228, 50.323234 ], [ 47.438892, 50.383179 ], [ 47.511497, 50.436923 ], [ 47.599296, 50.452684 ], [ 47.993225, 50.181796 ], [ 48.012242, 50.142108 ], [ 48.096371, 50.078546 ], [ 48.142363, 49.963773 ], [ 48.200448, 49.925016 ], [ 48.239308, 49.864761 ], [ 48.30287, 49.866725 ], [ 48.429891, 49.809674 ], [ 48.479087, 49.84316 ], [ 48.784598, 49.933387 ], [ 48.885677, 50.019894 ], [ 48.874102, 50.069813 ], [ 48.851829, 50.097253 ], [ 48.782841, 50.111464 ], [ 48.789042, 50.173011 ], [ 48.701296, 50.334603 ], [ 48.674424, 50.47847 ], [ 48.67339, 50.579549 ], [ 48.648482, 50.601564 ], [ 48.572931, 50.61686 ], [ 48.56828, 50.636549 ], [ 48.608795, 50.647917 ], [ 48.739588, 50.597533 ], [ 48.830435, 50.596034 ], [ 49.012698, 50.683419 ], [ 49.144059, 50.781708 ], [ 49.36942, 50.82677 ], [ 49.408436, 50.848267 ], [ 49.423732, 50.882063 ], [ 49.347354, 50.96428 ], [ 49.436548, 51.112333 ], [ 49.779059, 51.102179 ], [ 49.98685, 51.22982 ], [ 50.207457, 51.265942 ], [ 50.325383, 51.303459 ], [ 50.348947, 51.322605 ], [ 50.337578, 51.372033 ], [ 50.376232, 51.397019 ], [ 50.359592, 51.413323 ], [ 50.457467, 51.426888 ], [ 50.478965, 51.453734 ], [ 50.527231, 51.470089 ], [ 50.52537, 51.565587 ], [ 50.575703, 51.588428 ], [ 50.581698, 51.635299 ], [ 50.694197, 51.611166 ], [ 50.658696, 51.576181 ], [ 50.670891, 51.567525 ], [ 50.719984, 51.567422 ], [ 50.790677, 51.597291 ], [ 50.794501, 51.625971 ], [ 50.747372, 51.709041 ], [ 50.744168, 51.742373 ], [ 50.767009, 51.7594 ], [ 50.839253, 51.745525 ], [ 50.925449, 51.679689 ], [ 51.169775, 51.669483 ], [ 51.233854, 51.685477 ], [ 51.288425, 51.64287 ], [ 51.371934, 51.629589 ], [ 51.381132, 51.587059 ], [ 51.358963, 51.561479 ], [ 51.236541, 51.535899 ], [ 51.304238, 51.47164 ], [ 51.461851, 51.475283 ], [ 51.514974, 51.492698 ], [ 51.559829, 51.534582 ], [ 51.584324, 51.534918 ], [ 51.620497, 51.518691 ], [ 51.624425, 51.481019 ], [ 51.647369, 51.451228 ], [ 51.693309, 51.454096 ], [ 51.782296, 51.492853 ], [ 51.764726, 51.593312 ], [ 51.869164, 51.673074 ], [ 52.091786, 51.658708 ], [ 52.14801, 51.716069 ], [ 52.258184, 51.724208 ], [ 52.307794, 51.774541 ], [ 52.334872, 51.763715 ], [ 52.37766, 51.660104 ], [ 52.44453, 51.580186 ], [ 52.478843, 51.504868 ], [ 52.52499, 51.467531 ], [ 52.668547, 51.455129 ], [ 52.779755, 51.508123 ], [ 52.820682, 51.487013 ], [ 52.896543, 51.485282 ], [ 52.882797, 51.467144 ], [ 52.944292, 51.452881 ], [ 53.037103, 51.489726 ], [ 53.157199, 51.487013 ], [ 53.148621, 51.504764 ], [ 53.165778, 51.514557 ], [ 53.214147, 51.494765 ], [ 53.346335, 51.503033 ], [ 53.407313, 51.484171 ], [ 53.453409, 51.4419 ], [ 53.610298, 51.388415 ], [ 53.617946, 51.372137 ], [ 53.574435, 51.353223 ], [ 53.593245, 51.339115 ], [ 53.594072, 51.289429 ], [ 53.67386, 51.219872 ], [ 53.857725, 51.184603 ], [ 53.93586, 51.185611 ], [ 53.994047, 51.15339 ], [ 54.017612, 51.119077 ], [ 54.11156, 51.096004 ], [ 54.145356, 50.992651 ], [ 54.275787, 50.904284 ], [ 54.478566, 50.853486 ], [ 54.485284, 50.825426 ], [ 54.421928, 50.768685 ], [ 54.37976, 50.619444 ], [ 54.399501, 50.578671 ], [ 54.455725, 50.535521 ], [ 54.545517, 50.530519 ], [ 54.474226, 50.455422 ], [ 54.457586, 50.404598 ], [ 54.391543, 50.35827 ], [ 54.435158, 50.255718 ], [ 54.42379, 50.150117 ], [ 54.551224, 50.031365 ], [ 54.514017, 49.931681 ], [ 54.466784, 49.869566 ], [ 54.453245, 49.814686 ], [ 54.295529, 49.692264 ], [ 54.292635, 49.650096 ], [ 54.179153, 49.612734 ], [ 54.005934, 49.617153 ], [ 53.977408, 49.582194 ], [ 53.855866, 49.558939 ], [ 53.806049, 49.528295 ], [ 53.764502, 49.471528 ], [ 53.713445, 49.462743 ], [ 53.718613, 49.401016 ], [ 53.670967, 49.288258 ], [ 53.673241, 49.18444 ], [ 53.742694, 49.142789 ], [ 53.858553, 49.103747 ], [ 53.864857, 49.073801 ], [ 53.905165, 49.058246 ], [ 53.978855, 49.127751 ], [ 54.053269, 49.005536 ], [ 54.081795, 48.89469 ], [ 54.091717, 48.750461 ], [ 54.07177, 48.716768 ], [ 54.4426, 48.657625 ], [ 54.493346, 48.747051 ], [ 54.536651, 48.794025 ], [ 54.577579, 48.813403 ], [ 54.632562, 48.806866 ], [ 54.710594, 48.746327 ], [ 54.800511, 48.741211 ], [ 54.848776, 48.628867 ], [ 54.793689, 48.427664 ], [ 54.875545, 48.199616 ], [ 54.872858, 48.09076 ], [ 54.973213, 48.012315 ], [ 55.060547, 47.762821 ], [ 55.072535, 47.645826 ], [ 55.001739, 47.296777 ], [ 54.997501, 47.152264 ], [ 55.07977, 47.067877 ], [ 55.16669, 46.917292 ], [ 55.291333, 46.791149 ], [ 55.493802, 46.659633 ], [ 56.271222, 46.457165 ], [ 56.295923, 46.352727 ], [ 56.377779, 46.26715 ], [ 56.42191, 46.154367 ], [ 56.54118, 45.953784 ], [ 56.70761, 45.161911 ], [ 56.429699249975386, 45.098298513691617 ], [ 55.976149, 44.995084 ], [ 55.976149371859378, 44.994483042684216 ], [ 55.975839, 44.994412 ], [ 55.978420630200901, 41.323664678790507 ], [ 55.910106, 41.326626 ], [ 55.898158197581559, 41.323916721113015 ], [ 55.87662, 41.324507 ], [ 55.837715567785764, 41.310210774609693 ], [ 55.635498, 41.264356 ], [ 55.490000911611929, 41.266604170659633 ], [ 55.429515, 41.290814 ], [ 55.372568, 41.375563 ] ] ], [ [ [ 52.62794, 45.410224 ], [ 52.56129, 45.456529 ], [ 52.552013, 45.478339 ], [ 52.599946, 45.527493 ], [ 52.65504, 45.521389 ], [ 52.687348, 45.475002 ], [ 52.702485, 45.405219 ], [ 52.62794, 45.410224 ] ] ], [ [ [ 50.697765, 44.857856 ], [ 50.686534, 44.911689 ], [ 50.640798, 44.933295 ], [ 50.62794, 44.967027 ], [ 50.677989, 44.935614 ], [ 50.713715, 44.953803 ], [ 50.760753, 44.864936 ], [ 50.697765, 44.857856 ] ] ], [ [ [ 50.343923, 45.086005 ], [ 50.353689, 45.073065 ], [ 50.326345, 45.033108 ], [ 50.324555, 44.973212 ], [ 50.281505, 44.955512 ], [ 50.256602, 44.985989 ], [ 50.27711, 45.071519 ], [ 50.343923, 45.086005 ] ] ], [ [ [ 50.04184, 44.894924 ], [ 49.986095, 44.946763 ], [ 49.986176, 44.968004 ], [ 50.04184, 45.057522 ], [ 50.113455, 45.079901 ], [ 50.112153, 45.062486 ], [ 50.053559, 45.038764 ], [ 50.021007, 44.975775 ], [ 50.021169, 44.944037 ], [ 50.042817, 44.924465 ], [ 50.058279, 44.929104 ], [ 50.073416, 44.861762 ], [ 50.141368, 44.840277 ], [ 50.18922, 44.861477 ], [ 50.143077, 44.817857 ], [ 50.079356, 44.833482 ], [ 50.04184, 44.894924 ] ] ], [ [ [ 49.781912, 46.224189 ], [ 49.719981, 46.356757 ], [ 49.750011, 46.357489 ], [ 49.822439, 46.313951 ], [ 49.841319, 46.262844 ], [ 49.821544, 46.217515 ], [ 49.781912, 46.224189 ] ] ] ] } },
{ "type": "Feature", "properties": { "z": "AFG_WEST", "name": "Afghanistan - western islands", "ISO_A3": "AFG", "c": "AFG", "status": "not modelled", "reason": "Farah and Nimruz: western islands fed from Iran, not synchronised with NEPS and not represented by any zone (unlike Herat, which has one).", "admin_units": "Farah, Nimroz", "admin_source": "Natural Earth 10m admin-1", "area_km2": 91467 }, "geometry": { "type": "Polygon", "coordinates": [ [ [ 61.802253, 30.847059 ], [ 61.800186, 30.961419 ], [ 61.826334, 31.034593 ], [ 61.779205, 31.181095 ], [ 61.742722, 31.239541 ], [ 61.742308, 31.32088 ], [ 61.686911, 31.373177 ], [ 60.821744, 31.494668 ], [ 60.792599, 31.660084 ], [ 60.805311, 31.733981 ], [ 60.792599, 32.011277 ], [ 60.774926, 32.027194 ], [ 60.81482, 32.087862 ], [ 60.830323, 32.248885 ], [ 60.577522, 32.994344 ], [ 60.561502, 33.137307 ], [ 60.757046, 33.366337 ], [ 60.829082, 33.416282 ], [ 60.832183, 33.484495 ], [ 60.919788, 33.512571 ], [ 61.164463, 33.461472 ], [ 61.433732432230499, 33.459775130661541 ], [ 61.438038, 33.458682 ], [ 61.441697469330997, 33.45972493696847 ], [ 61.451526, 33.459663 ], [ 61.461529361240643, 33.465376962264045 ], [ 61.4908, 33.473719 ], [ 61.502977128321227, 33.489052102182555 ], [ 61.550228, 33.516042 ], [ 61.847367, 33.476458 ], [ 61.858995, 33.452429 ], [ 61.828919, 33.4084 ], [ 61.823131, 33.342771 ], [ 61.755022, 33.271665 ], [ 61.843337, 33.155832 ], [ 61.67668, 33.01199 ], [ 61.666293, 32.912487 ], [ 61.690478, 32.89192 ], [ 61.778483, 32.881714 ], [ 61.855739, 32.816809 ], [ 61.964673, 32.892075 ], [ 61.99542, 32.897475 ], [ 62.013869, 32.816395 ], [ 62.027263032856247, 32.794964403431365 ], [ 62.028287, 32.791668 ], [ 62.029459412539893, 32.791450172324367 ], [ 62.032472, 32.78663 ], [ 62.059809, 32.782056 ], [ 62.065386657125707, 32.784775091741508 ], [ 62.073762, 32.783219 ], [ 62.150708, 32.826369 ], [ 62.348887, 32.842724 ], [ 62.38351, 32.983904 ], [ 62.508722, 33.057724 ], [ 62.645251, 33.054262 ], [ 62.700959, 33.072969 ], [ 62.741628, 33.121338 ], [ 62.916811, 33.151284 ], [ 62.927198, 33.126428 ], [ 63.014583, 33.15392 ], [ 63.037827965361345, 33.174910283055638 ], [ 63.041403, 33.176477 ], [ 63.042433463099051, 33.179069063231218 ], [ 63.043883, 33.180378 ], [ 63.088642552616641, 33.285157108253394 ], [ 63.14026, 33.319491 ], [ 63.206819, 33.307063 ], [ 63.296375, 33.328509 ], [ 63.551139, 33.344012 ], [ 63.681829, 33.404886 ], [ 63.807351, 33.424007 ], [ 63.86957, 33.485037 ], [ 63.933648, 33.51444 ], [ 63.95866, 33.516688 ], [ 64.011525, 33.487388 ], [ 64.099065, 33.349128 ], [ 64.110692, 33.274817 ], [ 64.150431, 33.264146 ], [ 64.229393, 33.158984 ], [ 64.254714, 33.164255 ], [ 64.326544, 33.123327 ], [ 64.402405, 33.142835 ], [ 64.37636, 33.182316 ], [ 64.475527, 33.227636 ], [ 64.534025, 33.319646 ], [ 64.565651, 33.320499 ], [ 64.608026, 33.283033 ], [ 64.680218, 33.27846 ], [ 64.694015, 33.247041 ], [ 64.725176, 33.227791 ], [ 64.738405, 33.208671 ], [ 64.697116, 33.165883 ], [ 64.699441, 33.140742 ], [ 64.715874, 33.133378 ], [ 64.614382, 33.066871 ], [ 64.562706, 33.010544 ], [ 64.573248, 32.995532 ], [ 64.540536, 32.938481 ], [ 64.57888, 32.913805 ], [ 64.395429, 32.848925 ], [ 64.334606, 32.767742 ], [ 64.266651, 32.719528 ], [ 64.255179, 32.688651 ], [ 64.300964, 32.664234 ], [ 64.284635, 32.621498 ], [ 64.177406, 32.572198 ], [ 64.043667, 32.557522 ], [ 64.029715, 32.575531 ], [ 64.014212, 32.571656 ], [ 63.996022, 32.533699 ], [ 64.022738, 32.466752 ], [ 64.014367, 32.444867 ], [ 63.952407, 32.400245 ], [ 63.91768, 32.403914 ], [ 63.84678, 32.355519 ], [ 63.82673, 32.322472 ], [ 63.726477, 32.319578 ], [ 63.649841, 32.258031 ], [ 63.530055, 32.200205 ], [ 63.538427, 32.136669 ], [ 63.56964, 32.079903 ], [ 63.533621, 32.038717 ], [ 63.538892, 31.996264 ], [ 63.497758, 31.91875 ], [ 63.429493, 31.860329 ], [ 63.407634, 31.804932 ], [ 63.354407, 31.480249 ], [ 63.352702, 31.374959 ], [ 63.316373, 31.316616 ], [ 63.349601, 31.250031 ], [ 63.342935, 31.125284 ], [ 63.285522, 31.083529 ], [ 63.22594, 30.985861 ], [ 63.143051, 30.936355 ], [ 63.156538, 30.773652 ], [ 63.057371, 30.681771 ], [ 63.085173, 30.650222 ], [ 63.061919, 30.60883 ], [ 63.09835, 30.539273 ], [ 63.092304, 30.518706 ], [ 63.011482, 30.456927 ], [ 62.962286, 30.36595 ], [ 62.889939, 30.276421 ], [ 62.767518, 30.204539 ], [ 62.758681, 30.073178 ], [ 62.718374, 30.006334 ], [ 62.720957, 29.907038 ], [ 62.602587538051708, 29.418097006302506 ], [ 62.477509, 29.407819 ], [ 62.374466, 29.424872 ], [ 60.844379, 29.858179 ], [ 61.802253, 30.847059 ] ] ] } },
{ "type": "Feature", "properties": { "z": "AFG_BADAKHSHAN", "name": "Afghanistan - Badakhshan", "ISO_A3": "AFG", "c": "AFG", "status": "not modelled", "reason": "Badakhshan: not connected to NEPS; supplied by isolated Pamir Energy cross-border micro-grids that are outside the modelled system.", "admin_units": "Badakhshan", "admin_source": "Natural Earth 10m admin-1", "area_km2": 43640 }, "geometry": { "type": "Polygon", "coordinates": [ [ [ 74.737381, 37.296123 ], [ 74.721464, 37.297776 ], [ 74.623279, 37.230804 ], [ 74.59, 37.243361 ], [ 74.500083, 37.23163 ], [ 74.456674, 37.177318 ], [ 74.368308, 37.167061 ], [ 74.38257, 37.126572 ], [ 74.476622, 37.083138 ], [ 74.542263649586943, 37.020586689105542 ], [ 74.537393, 36.962241 ], [ 74.521373, 36.958495 ], [ 74.476622, 36.999319 ], [ 74.462159907839322, 37.000694294492376 ], [ 74.456984, 37.004383 ], [ 74.444676108322, 37.002356942808724 ], [ 74.43559, 37.003221 ], [ 74.394043, 36.994022 ], [ 74.235706, 36.902167 ], [ 74.129666, 36.898421 ], [ 74.094319, 36.831241 ], [ 74.035305, 36.815583 ], [ 73.946938, 36.83088 ], [ 73.865083, 36.872582 ], [ 73.849081549628025, 36.875954608846612 ], [ 73.834077, 36.882866 ], [ 73.807256447275989, 36.884770041630745 ], [ 73.772892, 36.892013 ], [ 73.721510985528383, 36.890857273705905 ], [ 73.640083, 36.896638 ], [ 73.573809660888756, 36.887534990050867 ], [ 73.331782, 36.882091 ], [ 73.267496, 36.866536 ], [ 73.191842, 36.877027 ], [ 73.042497, 36.864263 ], [ 72.990511, 36.841577 ], [ 72.945862, 36.852222 ], [ 72.867727, 36.830415 ], [ 72.695852, 36.836719 ], [ 72.662458297581836, 36.832597636659415 ], [ 72.629602, 36.832947 ], [ 72.602617286079024, 36.825212215660471 ], [ 72.565214, 36.820596 ], [ 72.54318125505246, 36.808175722950772 ], [ 72.516741, 36.800597 ], [ 72.454109, 36.757964 ], [ 72.169682, 36.711352 ], [ 72.149632, 36.689338 ], [ 72.171646, 36.653629 ], [ 72.059095, 36.627119 ], [ 72.038838, 36.580456 ], [ 71.977033, 36.563041 ], [ 71.874713, 36.499065 ], [ 71.773221, 36.480048 ], [ 71.794408, 36.407598 ], [ 71.782626, 36.396539 ], [ 71.736324, 36.395919 ], [ 71.649301, 36.452763 ], [ 71.61044, 36.457931 ], [ 71.547188, 36.371631 ], [ 71.55835, 36.327861 ], [ 71.479078, 36.300524 ], [ 71.393561101337966, 36.227995475339753 ], [ 71.31914, 36.200582 ], [ 71.302087, 36.163323 ], [ 71.223073, 36.125393 ], [ 71.165919, 36.045708 ], [ 71.169913, 36.030802 ], [ 71.084633, 35.941941 ], [ 71.063219301187502, 35.859407737941069 ], [ 71.02850918542255, 35.810821850226986 ], [ 71.023732519493677, 35.804581758308387 ], [ 70.973219, 35.775414 ], [ 70.968878, 35.739602 ], [ 71.013681, 35.699165 ], [ 70.959989, 35.642373 ], [ 70.877927, 35.625707 ], [ 70.866145, 35.600256 ], [ 70.882733, 35.516282 ], [ 70.86444, 35.484243 ], [ 70.757676, 35.488764 ], [ 70.687241, 35.537004 ], [ 70.650758, 35.510701 ], [ 70.63479, 35.465691 ], [ 70.576912, 35.442411 ], [ 70.541911084448685, 35.457195931451061 ], [ 70.539844081602354, 35.471100932407474 ], [ 70.554691, 35.566873 ], [ 70.499449, 35.622064 ], [ 70.47945, 35.666945 ], [ 70.383849, 35.698131 ], [ 70.294035, 35.660563 ], [ 70.231197, 35.670355 ], [ 70.273365, 35.850215 ], [ 70.300547, 35.879516 ], [ 70.461777, 35.970518 ], [ 70.429014, 36.037852 ], [ 70.474799, 36.149603 ], [ 70.472474, 36.283574 ], [ 70.440641, 36.303883 ], [ 70.230373191312708, 36.32635439109584 ], [ 70.139626, 36.40491 ], [ 70.038444, 36.462116 ], [ 70.037358, 36.515265 ], [ 70.00382, 36.615052 ], [ 70.006611, 36.922294 ], [ 70.037358, 36.941208 ], [ 70.056427, 36.979655 ], [ 70.096166, 36.996114 ], [ 70.124123, 37.042545 ], [ 70.033018, 37.135098 ], [ 70.034413, 37.188376 ], [ 70.004286, 37.2762 ], [ 70.01829, 37.359167 ], [ 70.041699, 37.387305 ], [ 70.005061, 37.407665 ], [ 70.004191801988227, 37.550581441052159 ], [ 70.007592, 37.548846 ], [ 70.129135, 37.532284 ], [ 70.157867, 37.541431 ], [ 70.216468, 37.617137 ], [ 70.248301, 37.623338 ], [ 70.283079, 37.704831 ], [ 70.275121, 37.774181 ], [ 70.247164, 37.819166 ], [ 70.196004, 37.839914 ], [ 70.165205, 37.889911 ], [ 70.17213, 37.946083 ], [ 70.214711, 37.929262 ], [ 70.26153, 37.939287 ], [ 70.253934, 37.973394 ], [ 70.470303, 38.120517 ], [ 70.547197, 38.262653 ], [ 70.583061, 38.275081 ], [ 70.600011, 38.347066 ], [ 70.641352, 38.354197 ], [ 70.68476, 38.38665 ], [ 70.664865, 38.405409 ], [ 70.741811, 38.419439 ], [ 70.777261, 38.446466 ], [ 70.843045, 38.440161 ], [ 70.871002, 38.45321 ], [ 70.936217, 38.433004 ], [ 70.948637473593351, 38.467257377423223 ], [ 70.963640192343703, 38.471045695088911 ], [ 70.989127519124025, 38.46708010533149 ], [ 71.002064231456956, 38.461425189129066 ], [ 71.049802, 38.408664 ], [ 71.117395, 38.398639 ], [ 71.217699, 38.325827 ], [ 71.334384, 38.280662 ], [ 71.358156, 38.251258 ], [ 71.359086, 38.184105 ], [ 71.272631, 37.997992 ], [ 71.258265, 37.926472 ], [ 71.341154, 37.893295 ], [ 71.501196, 37.946212 ], [ 71.537059, 37.944455 ], [ 71.597727, 37.89836 ], [ 71.590286, 37.815729 ], [ 71.529515, 37.761133 ], [ 71.542537, 37.719559 ], [ 71.497165, 37.566545 ], [ 71.511221, 37.485878 ], [ 71.48714, 37.409087 ], [ 71.493858, 37.307543 ], [ 71.487037, 37.267055 ], [ 71.45014, 37.21667 ], [ 71.431123, 37.066989 ], [ 71.459958, 37.010739 ], [ 71.463059, 36.948082 ], [ 71.528481, 36.856149 ], [ 71.552872, 36.769591 ], [ 71.61106, 36.704841 ], [ 71.653021, 36.687012 ], [ 71.748519, 36.678641 ], [ 71.836576, 36.699156 ], [ 72.259806, 36.967305 ], [ 72.405947, 37.007665 ], [ 72.474987, 36.997484 ], [ 72.657714, 37.028826 ], [ 72.79073, 37.220262 ], [ 72.902247, 37.2538 ], [ 72.995575, 37.3093 ], [ 73.067509, 37.315062 ], [ 73.132104, 37.384386 ], [ 73.170241, 37.40826 ], [ 73.211479, 37.40826 ], [ 73.296332, 37.464949 ], [ 73.378394, 37.452547 ], [ 73.440612, 37.479936 ], [ 73.485261, 37.480969 ], [ 73.6745, 37.43105 ], [ 73.753462, 37.428388 ], [ 73.739096, 37.338342 ], [ 73.690416, 37.305218 ], [ 73.630988, 37.295993 ], [ 73.597295, 37.261809 ], [ 73.617656, 37.233181 ], [ 73.680494, 37.242457 ], [ 73.709227, 37.217006 ], [ 73.798213, 37.22853 ], [ 73.836247, 37.256745 ], [ 74.187647, 37.338394 ], [ 74.223924, 37.403351 ], [ 74.303816, 37.400173 ], [ 74.315598, 37.426916 ], [ 74.378126, 37.393765 ], [ 74.521167, 37.375601 ], [ 74.660383, 37.393972 ], [ 74.78854, 37.331159 ], [ 74.862644, 37.244601 ], [ 74.892307, 37.231114 ], [ 74.794018, 37.213931 ], [ 74.737381, 37.296123 ] ] ] } },
{ "type": "Feature", "properties": { "z": "AFG_GHOR", "name": "Afghanistan - Ghor", "ISO_A3": "AFG", "c": "AFG", "status": "not modelled", "reason": "Ghor: no transmission connection to any modelled zone; isolated micro-hydro and diesel only.", "admin_units": "Ghor", "admin_source": "Natural Earth 10m admin-1", "area_km2": 36060 }, "geometry": { "type": "Polygon", "coordinates": [ [ [ 66.395756414707805, 34.905895049868867 ], [ 66.519434, 34.844333 ], [ 66.577001, 34.792864 ], [ 66.600927, 34.738707 ], [ 66.646403, 34.710001 ], [ 66.637824, 34.685325 ], [ 66.70087, 34.683697 ], [ 66.764948, 34.644966 ], [ 66.770219, 34.608043 ], [ 66.718543, 34.562077 ], [ 66.709551, 34.532621 ], [ 66.735906, 34.487353 ], [ 66.66144, 34.437046 ], [ 66.557778, 34.428674 ], [ 66.487033, 34.389219 ], [ 66.324717, 34.376455 ], [ 66.212062, 34.406324 ], [ 66.15527, 34.358523 ], [ 66.010472, 34.35842 ], [ 65.945463, 34.32098 ], [ 65.624863, 34.35209 ], [ 65.52182, 34.344958 ], [ 65.467353, 34.075078 ], [ 65.490039, 34.03906 ], [ 65.519495, 34.026916 ], [ 65.520477, 33.973327 ], [ 65.469524, 33.905347 ], [ 65.408442, 33.884805 ], [ 65.399399, 33.866254 ], [ 65.409476, 33.833852 ], [ 65.487249, 33.773494 ], [ 65.508333, 33.678255 ], [ 65.56745, 33.629834 ], [ 65.573929272239155, 33.60281551834229 ], [ 65.408752175675147, 33.494343284294786 ], [ 65.38219, 33.477285 ], [ 65.38159932620907, 33.476511936586114 ], [ 65.379865, 33.475373 ], [ 65.363277, 33.452532 ], [ 65.370253, 33.424833 ], [ 65.2191, 33.362951 ], [ 65.158741, 33.362641 ], [ 64.951275915215788, 33.249391057989811 ], [ 64.890127, 33.254896 ], [ 64.820254189659636, 33.204957916916165 ], [ 64.805534701272592, 33.2070900672568 ], [ 64.791261786930235, 33.211761466208543 ], [ 64.782434, 33.246834 ], [ 64.725176, 33.227791 ], [ 64.694015, 33.247041 ], [ 64.680218, 33.27846 ], [ 64.608026, 33.283033 ], [ 64.565651, 33.320499 ], [ 64.534025, 33.319646 ], [ 64.475527, 33.227636 ], [ 64.37636, 33.182316 ], [ 64.402405, 33.142835 ], [ 64.331505, 33.122578 ], [ 64.254714, 33.164255 ], [ 64.229393, 33.158984 ], [ 64.150431, 33.264146 ], [ 64.107281, 33.278227 ], [ 64.102165, 33.340963 ], [ 64.068369, 33.409434 ], [ 64.011525, 33.487388 ], [ 63.95866, 33.516688 ], [ 63.888638, 33.496922 ], [ 63.807351, 33.424007 ], [ 63.681829, 33.404886 ], [ 63.551139, 33.344012 ], [ 63.296375, 33.328509 ], [ 63.206819, 33.307063 ], [ 63.14026, 33.319491 ], [ 63.130028, 33.394758 ], [ 63.090444, 33.46018 ], [ 63.074631, 33.532837 ], [ 63.241132, 33.618517 ], [ 63.477294, 33.659703 ], [ 63.515793, 33.700915 ], [ 63.504579, 33.767164 ], [ 63.582972, 33.802821 ], [ 63.538272, 33.857003 ], [ 63.516258, 33.912556 ], [ 63.445771, 33.974929 ], [ 63.387894, 34.073993 ], [ 63.476674, 34.210961 ], [ 63.493107, 34.268451 ], [ 63.741257, 34.268451 ], [ 63.849881, 34.219927 ], [ 63.976643, 34.217834 ], [ 64.00615, 34.245714 ], [ 64.061651, 34.22401 ], [ 64.117978, 34.22556 ], [ 64.194976, 34.264214 ], [ 64.208619, 34.287313 ], [ 64.188155, 34.34023 ], [ 64.197767, 34.469912 ], [ 64.301429, 34.477637 ], [ 64.404782, 34.520219 ], [ 64.434858, 34.4919 ], [ 64.481574, 34.492417 ], [ 64.462148567159829, 34.57671677778211 ], [ 64.476303, 34.671424 ], [ 64.496301, 34.700311 ], [ 64.529374, 34.711112 ], [ 64.708743, 34.69473 ], [ 64.995961, 34.777619 ], [ 65.002226761063824, 34.78654999119734 ], [ 65.010844, 34.789246 ], [ 65.01439548070222, 34.803894847930017 ], [ 65.029189, 34.824981 ], [ 65.047327, 34.939728 ], [ 65.006813, 35.014039 ], [ 65.005121332385585, 35.015497716863941 ], [ 64.999371, 35.025821 ], [ 64.867958, 35.133773 ], [ 64.764915, 35.166639 ], [ 64.730137, 35.213148 ], [ 64.854161, 35.239813 ], [ 64.912038, 35.212761 ], [ 65.003247, 35.238728 ], [ 65.017355, 35.219737 ], [ 65.133007, 35.256453 ], [ 65.200186, 35.224698 ], [ 65.244214, 35.237694 ], [ 65.26628, 35.187 ], [ 65.332839, 35.188292 ], [ 65.382035, 35.203872 ], [ 65.450622747316856, 35.253396606299802 ], [ 65.461927, 35.239245 ], [ 65.467872318802122, 35.239378006769677 ], [ 65.471591, 35.236092 ], [ 65.530553, 35.236609 ], [ 65.54586071627503, 35.241122738240904 ], [ 65.561249, 35.241467 ], [ 65.642278, 35.269553 ], [ 65.640883, 35.246324 ], [ 65.685841, 35.203872 ], [ 65.754312, 35.192736 ], [ 65.760203, 35.151291 ], [ 65.797411, 35.108167 ], [ 65.907895, 35.07574 ], [ 66.036879, 35.06277 ], [ 66.047731, 35.014013 ], [ 66.026182, 34.990836 ], [ 66.051452, 34.969235 ], [ 66.039515, 34.944844 ], [ 66.079357, 34.910789 ], [ 66.107779, 34.828986 ], [ 66.104989, 34.784363 ], [ 66.173718, 34.831414 ], [ 66.175889, 34.852834 ], [ 66.239502, 34.885184 ], [ 66.240123, 34.916215 ], [ 66.323167, 34.900919 ], [ 66.363629, 34.9142 ], [ 66.395756414707805, 34.905895049868867 ] ] ] } }
]
}
