{"type": "FeatureCollection", "name": "zones_ext", "source": "World Bank Official Boundaries (GUA); interconnection points", "license": "CC BY 4.0", "features": [{"type": "Feature", "properties": {"z": "GUA", "name": "Guatemala", "note": "ORI interconnection"}, "geometry": {"type": "Polygon", "coordinates": [[[-89.3616, 14.4155], [-89.3638, 14.4466], [-89.362, 14.4623], [-89.3555, 14.4755], [-89.3454, 14.4819], [-89.3231, 14.4875], [-89.3148, 14.4959], [-89.3047, 14.5134], [-89.2911, 14.528], [-89.2597, 14.5542], [-89.2457, 14.5729], [-89.2381, 14.5779], [-89.2212, 14.5801], [-89.209, 14.5779], [-89.1838, 14.5695], [-89.1723, 14.5704], [-89.1604, 14.5812], [-89.1557, 14.5978], [-89.1553, 14.6156], [-89.1593, 14.666], [-89.1557, 14.6723], [-89.1453, 14.6834], [-89.1427, 14.6913], [-89.1445, 14.7083], [-89.1507, 14.7173], [-89.1597, 14.7251], [-89.1705, 14.7388], [-89.1895, 14.783], [-89.1989, 14.798], [-89.2191, 14.8217], [-89.2277, 14.8345], [-89.2324, 14.8484], [-89.2313, 14.8673], [-89.2237, 14.879], [-89.1989, 14.8998], [-89.1816, 14.9237], [-89.169, 14.952], [-89.169, 14.9784], [-89.1885, 14.9961], [-89.1726, 15.0422], [-89.1607, 15.0602], [-89.1406, 15.0764], [-89.11, 15.0914], [-89.0081, 15.1243], [-88.9735, 15.1404], [-88.399, 15.5728], [-88.3525, 15.6169], [-88.3223, 15.6673], [-88.3165, 15.6746], [-88.2957, 15.675], [-88.2798, 15.6807], [-88.2478, 15.6956], [-88.2417, 15.6882], [-88.2348, 15.7016], [-88.2359, 15.7124], [-88.2327, 15.7214], [-88.2208, 15.7257], [-88.2564, 15.7404], [-88.3003, 15.7778], [-88.3111, 15.7823], [-88.345, 15.812], [-88.4479, 15.8587], [-88.5001, 15.9011], [-88.5214, 15.9127], [-88.5502, 15.9423], [-88.6056, 15.9697], [-88.62, 15.9532], [-88.6074, 15.9385], [-88.5646, 15.915], [-88.5433, 15.8851], [-88.525, 15.8771], [-88.512, 15.8676], [-88.489, 15.8467], [-88.503, 15.8413], [-88.5322, 15.8469], [-88.5441, 15.8393], [-88.5502, 15.8393], [-88.5502, 15.8529], [-88.5577, 15.8529], [-88.5567, 15.8373], [-88.5491, 15.8137], [-88.5502, 15.7982], [-88.5559, 15.7895], [-88.5657, 15.7809], [-88.5743, 15.7699], [-88.5783, 15.7539], [-88.5822, 15.745], [-88.5912, 15.7435], [-88.6006, 15.7445], [-88.6056, 15.743], [-88.6056, 15.7355], [-88.5991, 15.7274], [-88.5988, 15.7232], [-88.5963, 15.7221], [-88.5952, 15.7146], [-88.5984, 15.7061], [-88.6092, 15.702], [-88.6362, 15.702], [-88.6384, 15.7088], [-88.6258, 15.7539], [-88.7269, 15.8151], [-88.7496, 15.8188], [-88.7532, 15.8397], [-88.7874, 15.859], [-88.8317, 15.8686], [-88.8663, 15.8603], [-88.9001, 15.8878], [-88.9141, 15.894], [-88.9519, 15.8796], [-89.0401, 15.9017], [-89.0725, 15.9015], [-89.101, 15.8968], [-89.1773, 15.9002], [-89.1957, 15.893], [-89.2047, 15.8924], [-89.2165, 15.8887], [-89.2259, 15.8841], [-89.2281, 15.8808], [-89.2363, 15.894], [-89.2342, 15.9549], [-89.2086, 16.1862], [-89.1845, 16.4959], [-89.1492, 17.0362], [-89.1507, 17.321], [-89.1604, 17.8143], [-90.9622, 17.816], [-90.9827, 17.8106], [-90.991, 17.802], [-90.9921, 17.2519], [-91.4309, 17.2549], [-91.4381, 17.2536], [-91.4424, 17.238], [-91.4194, 17.2277], [-91.3884, 17.2215], [-91.373, 17.2135], [-91.365, 17.1898], [-91.3445, 17.1863], [-91.3179, 17.1905], [-91.2905, 17.1891], [-91.2794, 17.18], [-91.2707, 17.1643], [-91.2653, 17.1463], [-91.2632, 17.1307], [-91.2592, 17.1242], [-91.2387, 17.1192], [-91.2297, 17.1139], [-91.2254, 17.1069], [-91.216, 17.0792], [-91.2066, 17.0653], [-91.1714, 17.0279], [-91.1613, 17.0239], [-91.1372, 17.0265], [-91.1267, 17.0246], [-91.1213, 17.0183], [-91.1163, 16.9993], [-91.1123, 16.9904], [-91.077, 16.9495], [-91.0713, 16.9389], [-91.067, 16.9182], [-91.0551, 16.908], [-91.0166, 16.8948], [-90.9982, 16.8771], [-90.9932, 16.8744], [-90.9834, 16.8785], [-90.9842, 16.8877], [-90.9881, 16.8968], [-90.9863, 16.901], [-90.9687, 16.901], [-90.9554, 16.8987], [-90.9528, 16.8908], [-90.969, 16.8744], [-90.9482, 16.8646], [-90.919, 16.8363], [-90.9006, 16.826], [-90.8319, 16.8054], [-90.82, 16.8053], [-90.8106, 16.8128], [-90.797, 16.8054], [-90.797, 16.7987], [-90.8002, 16.7868], [-90.7854, 16.7749], [-90.7498, 16.7576], [-90.7354, 16.7466], [-90.6677, 16.6526], [-90.654, 16.6166], [-90.6674, 16.5932], [-90.6674, 16.587], [-90.6537, 16.59], [-90.6501, 16.5933], [-90.6472, 16.6], [-90.6339, 16.5922], [-90.6371, 16.5779], [-90.6436, 16.561], [-90.64, 16.5448], [-90.6483, 16.5296], [-90.6396, 16.5259], [-90.6242, 16.5249], [-90.6126, 16.518], [-90.6119, 16.5076], [-90.6278, 16.4929], [-90.6332, 16.4833], [-90.6209, 16.4867], [-90.6047, 16.4861], [-90.5907, 16.4834], [-90.5846, 16.4803], [-90.5532, 16.4903], [-90.5439, 16.4901], [-90.5392, 16.4688], [-90.5331, 16.4599], [-90.509, 16.4711], [-90.4978, 16.468], [-90.4823, 16.4561], [-90.4769, 16.4449], [-90.4784, 16.4363], [-90.4758, 16.4307], [-90.4445, 16.4267], [-90.4208, 16.4151], [-90.4096, 16.4167], [-90.4006, 16.4206], [-90.3948, 16.4192], [-90.3912, 16.386], [-90.3797, 16.3672], [-90.3952, 16.3714], [-90.4089, 16.3724], [-90.4182, 16.3672], [-90.4208, 16.353], [-90.4139, 16.353], [-90.4139, 16.3605], [-90.4071, 16.3605], [-90.3988, 16.3476], [-90.4046, 16.3314], [-90.4193, 16.3178], [-90.438, 16.3121], [-90.4449, 16.3084], [-90.4348, 16.3012], [-90.42, 16.2959], [-90.4139, 16.2984], [-90.4139, 16.2878], [-90.4204, 16.2853], [-90.4287, 16.2876], [-90.4344, 16.2915], [-90.4366, 16.2848], [-90.4413, 16.2853], [-90.4276, 16.2636], [-90.4406, 16.2653], [-90.4481, 16.271], [-90.4593, 16.259], [-90.4578, 16.2491], [-90.4481, 16.2414], [-90.4344, 16.2363], [-90.4463, 16.2308], [-90.4586, 16.2217], [-90.4658, 16.2081], [-90.4618, 16.1892], [-90.4326, 16.1732], [-90.4262, 16.1631], [-90.4481, 16.1544], [-90.4481, 16.1483], [-90.4352, 16.1362], [-90.4596, 16.1168], [-90.4557, 16.0997], [-90.4481, 16.0997], [-90.4427, 16.1042], [-90.4344, 16.1072], [-90.4373, 16.0989], [-90.4481, 16.0793], [-90.4661, 16.0728], [-90.4859, 16.0707], [-91.724, 16.0688], [-91.7398, 16.061], [-91.752, 16.0462], [-92.1376, 15.4018], [-92.2046, 15.2895], [-92.2114, 15.272], [-92.211, 15.2534], [-92.2035, 15.2371], [-92.0739, 15.0737], [-92.0937, 15.0294], [-92.1038, 15.0179], [-92.1171, 15.0124], [-92.13, 15.011], [-92.1423, 15.0074], [-92.1542, 14.996], [-92.1578, 14.963], [-92.1545, 14.9008], [-92.166, 14.8707], [-92.1869, 14.8473], [-92.1916, 14.8353], [-92.1909, 14.8142], [-92.1794, 14.7812], [-92.1794, 14.7515], [-92.1617, 14.7023], [-92.1606, 14.6834], [-92.1646, 14.6681], [-92.1862, 14.6296], [-92.2082, 14.5705], [-92.2262, 14.5493], [-92.2463, 14.5463], [-92.0498, 14.4081], [-91.9083, 14.2839], [-91.7625, 14.1801], [-91.6372, 14.1044], [-91.5519, 14.0573], [-91.3164, 13.9557], [-91.1656, 13.9267], [-91.0439, 13.9135], [-90.9104, 13.9111], [-90.7962, 13.9181], [-90.7847, 13.9215], [-90.7073, 13.9288], [-90.6382, 13.9224], [-90.5806, 13.9132], [-90.5003, 13.8948], [-90.4013, 13.8586], [-90.2454, 13.7907], [-90.0982, 13.7313], [-90.1144, 13.7963], [-90.1148, 13.812], [-90.1122, 13.8282], [-90.1068, 13.8441], [-90.0989, 13.8586], [-90.087, 13.8704], [-90.0597, 13.8847], [-90.0474, 13.8943], [-90.0381, 13.9084], [-90.0316, 13.923], [-90.023, 13.937], [-90.0082, 13.9497], [-89.9121, 14.0151], [-89.8908, 14.0359], [-89.88, 14.0427], [-89.8357, 14.059], [-89.821, 14.06], [-89.803, 14.0555], [-89.7771, 14.0357], [-89.7623, 14.03], [-89.7475, 14.0376], [-89.7472, 14.0432], [-89.7544, 14.0593], [-89.7555, 14.0671], [-89.7526, 14.0752], [-89.7097, 14.1488], [-89.6899, 14.17], [-89.6647, 14.1888], [-89.6385, 14.2006], [-89.5308, 14.2256], [-89.5243, 14.2318], [-89.5247, 14.2474], [-89.5279, 14.2514], [-89.5405, 14.2575], [-89.5449, 14.2618], [-89.5485, 14.2836], [-89.5557, 14.299], [-89.5643, 14.3082], [-89.5711, 14.3112], [-89.592, 14.3138], [-89.5985, 14.3279], [-89.5924, 14.3364], [-89.5823, 14.3434], [-89.5762, 14.3531], [-89.5791, 14.3647], [-89.5863, 14.3746], [-89.5906, 14.3859], [-89.5841, 14.4018], [-89.5697, 14.4119], [-89.5553, 14.4108], [-89.5441, 14.4001], [-89.5413, 14.3815], [-89.5276, 14.3911], [-89.5031, 14.4201], [-89.4851, 14.4274], [-89.4693, 14.4254], [-89.4469, 14.4155], [-89.4311, 14.4187], [-89.4084, 14.4416], [-89.3983, 14.4453], [-89.3969, 14.426], [-89.3908, 14.436], [-89.3616, 14.4155]]]}}, {"type": "Feature", "properties": {"z": "CAISO", "name": "CAISO", "note": "Imperial Valley, on the SIBC interconnection", "centroid": [-115.55, 32.75]}, "geometry": {"type": "Point", "coordinates": [-115.55, 32.75]}}, {"type": "Feature", "properties": {"z": "ERCOT", "name": "ERCOT", "note": "South Texas, on the NES DC ties", "centroid": [-99.5, 28.7]}, "geometry": {"type": "Point", "coordinates": [-99.5, 28.7]}}, {"type": "Feature", "properties": {"z": "WEPP", "name": "WEPP", "note": "Southern New Mexico, on the NTE interconnection", "centroid": [-107.6, 32.2]}, "geometry": {"type": "Point", "coordinates": [-107.6, 32.2]}}]}