{
"type": "FeatureCollection",
"name": "zones_offgrid",
"crs": { "type": "name", "properties": { "name": "urn:ogc:def:crs:OGC:1.3:CRS84" } },
"features": [
{ "type": "Feature", "properties": { "z": "KAZ_WEST", "name": "Kazakhstan - Western zone", "ISO_A3": "KAZ", "c": "KAZ", "status": "not modelled", "reason": "KEGOC Western zone: isolated from the rest of the Kazakh grid and synchronised with Russia. No plant and no load in the 2020 model.", "admin_units": "Atyrauskaya, Mangistauskaya, Zapadno-kazachstanskaya", "admin_source": "World Bank GAD, artifact wb_boundaries_20260820", "area_km2": 431303 }, "geometry": { "type": "MultiPolygon", "coordinates": [ [ [ [ 50.991, 43.9081 ], [ 50.9831, 43.919 ], [ 50.9532, 43.9387 ], [ 50.9467, 43.9472 ], [ 50.9388, 43.9657 ], [ 50.9237, 43.983 ], [ 50.9114, 44.0023 ], [ 50.9021, 44.0107 ], [ 50.9017, 44.011 ], [ 50.8913, 44.0155 ], [ 50.8892, 44.0159 ], [ 50.869, 44.0203 ], [ 50.8607, 44.0253 ], [ 50.8528, 44.0388 ], [ 50.8538, 44.0475 ], [ 50.8582, 44.0562 ], [ 50.8607, 44.0694 ], [ 50.8571, 44.1527 ], [ 50.8561, 44.1572 ], [ 50.8528, 44.1733 ], [ 50.8474, 44.1892 ], [ 50.8218, 44.2149 ], [ 50.7839, 44.2344 ], [ 50.7811, 44.2358 ], [ 50.6962, 44.2643 ], [ 50.4676, 44.2948 ], [ 50.3821, 44.3062 ], [ 50.3444, 44.3113 ], [ 50.2991, 44.3263 ], [ 50.2778, 44.3364 ], [ 50.2552, 44.351 ], [ 50.2375, 44.3692 ], [ 50.2303, 44.3908 ], [ 50.2368, 44.4359 ], [ 50.2375, 44.4577 ], [ 50.2303, 44.4765 ], [ 50.2375, 44.484 ], [ 50.2274, 44.5022 ], [ 50.222, 44.5348 ], [ 50.2246, 44.5677 ], [ 50.2375, 44.5864 ], [ 50.2541, 44.5575 ], [ 50.2685, 44.5706 ], [ 50.2786, 44.5983 ], [ 50.2818, 44.6136 ], [ 50.2926, 44.6189 ], [ 50.2951, 44.6311 ], [ 50.2955, 44.645 ], [ 50.2991, 44.6553 ], [ 50.3113, 44.6623 ], [ 50.3203, 44.6599 ], [ 50.329, 44.6533 ], [ 50.3401, 44.6478 ], [ 50.4978, 44.6258 ], [ 50.5009, 44.6259 ], [ 50.5381, 44.6271 ], [ 50.5453, 44.6274 ], [ 50.5925, 44.6397 ], [ 50.617, 44.6397 ], [ 50.6274, 44.6239 ], [ 50.6429, 44.6208 ], [ 50.7304, 44.6205 ], [ 50.7455, 44.6092 ], [ 50.753, 44.6065 ], [ 50.757, 44.6051 ], [ 50.7665, 44.6096 ], [ 50.7682, 44.6103 ], [ 50.779, 44.6281 ], [ 50.7844, 44.6327 ], [ 50.7959, 44.6342 ], [ 50.8093, 44.6339 ], [ 50.8231, 44.6335 ], [ 50.8481, 44.6328 ], [ 50.8729, 44.6288 ], [ 50.8949, 44.6205 ], [ 50.9305, 44.5969 ], [ 50.9604, 44.5697 ], [ 50.9701, 44.5653 ], [ 50.9946, 44.5683 ], [ 51.0047, 44.566 ], [ 51.0112, 44.558 ], [ 51.0086, 44.5514 ], [ 51.0007, 44.5469 ], [ 50.9942, 44.5459 ], [ 50.991, 44.5454 ], [ 50.9967, 44.5395 ], [ 51.0072, 44.5288 ], [ 51.0335, 44.5158 ], [ 51.1145, 44.4884 ], [ 51.1433, 44.4847 ], [ 51.1728, 44.4856 ], [ 51.2027, 44.4909 ], [ 51.2254, 44.4997 ], [ 51.2786, 44.5386 ], [ 51.2858, 44.5485 ], [ 51.2923, 44.5522 ], [ 51.2992, 44.5537 ], [ 51.3236, 44.5522 ], [ 51.3388, 44.554 ], [ 51.3661, 44.5601 ], [ 51.3816, 44.5597 ], [ 51.3737, 44.5276 ], [ 51.3819, 44.5258 ], [ 51.3823, 44.5257 ], [ 51.4025, 44.5213 ], [ 51.4709, 44.5318 ], [ 51.5378, 44.5093 ], [ 51.5602, 44.5113 ], [ 51.5738, 44.5239 ], [ 51.5688, 44.5376 ], [ 51.5544, 44.5504 ], [ 51.5396, 44.5597 ], [ 51.5309, 44.5631 ], [ 51.4949, 44.5772 ], [ 51.4795, 44.5832 ], [ 51.4757, 44.5857 ], [ 51.4388, 44.6101 ], [ 51.4154, 44.6121 ], [ 51.3679, 44.6008 ], [ 51.3409, 44.5983 ], [ 51.3193, 44.5963 ], [ 51.3175, 44.5975 ], [ 51.3124, 44.6009 ], [ 51.292, 44.6145 ], [ 51.2581, 44.6889 ], [ 51.2344, 44.719 ], [ 51.2009, 44.7409 ], [ 51.121, 44.7782 ], [ 51.0961, 44.7968 ], [ 51.0601, 44.8002 ], [ 51.0497, 44.8034 ], [ 51.0454, 44.8095 ], [ 51.0342, 44.8178 ], [ 50.9826, 44.8416 ], [ 50.9708, 44.847 ], [ 50.9686, 44.8516 ], [ 50.9626, 44.8636 ], [ 50.96, 44.8864 ], [ 50.9654, 44.9066 ], [ 50.9899, 44.9189 ], [ 50.9939, 44.927 ], [ 50.9939, 44.9365 ], [ 50.991, 44.9434 ], [ 50.9798, 44.9486 ], [ 50.9662, 44.9494 ], [ 50.9543, 44.9522 ], [ 50.9496, 44.9638 ], [ 50.9593, 44.9788 ], [ 50.9824, 44.9894 ], [ 51.0086, 44.9957 ], [ 51.0284, 44.9979 ], [ 51.0536, 44.9954 ], [ 51.0652, 44.997 ], [ 51.0792, 45.0047 ], [ 51.0979, 45.0252 ], [ 51.1073, 45.0321 ], [ 51.1501, 45.0535 ], [ 51.1746, 45.0621 ], [ 51.1966, 45.0656 ], [ 51.2135, 45.0576 ], [ 51.2315, 45.0407 ], [ 51.2513, 45.0261 ], [ 51.2729, 45.0246 ], [ 51.2729, 45.0247 ], [ 51.2819, 45.0375 ], [ 51.275, 45.0568 ], [ 51.2606, 45.0766 ], [ 51.2585, 45.0789 ], [ 51.2477, 45.0905 ], [ 51.2434, 45.1011 ], [ 51.253, 45.1229 ], [ 51.2581, 45.1344 ], [ 51.2567, 45.1413 ], [ 51.2492, 45.1538 ], [ 51.2444, 45.1617 ], [ 51.2475, 45.1678 ], [ 51.2513, 45.1755 ], [ 51.2632, 45.1925 ], [ 51.2848, 45.2158 ], [ 51.2925, 45.224 ], [ 51.2938, 45.2254 ], [ 51.294, 45.2261 ], [ 51.2995, 45.2409 ], [ 51.3092, 45.2572 ], [ 51.3971, 45.3326 ], [ 51.4061, 45.3485 ], [ 51.4097, 45.371 ], [ 51.4158, 45.3898 ], [ 51.4298, 45.3808 ], [ 51.4568, 45.3473 ], [ 51.4939, 45.3346 ], [ 51.5436, 45.3349 ], [ 51.59, 45.3441 ], [ 51.5929, 45.3446 ], [ 51.6278, 45.3611 ], [ 51.6281, 45.3613 ], [ 51.6588, 45.3853 ], [ 51.6678, 45.3896 ], [ 51.6901, 45.3886 ], [ 51.6998, 45.392 ], [ 51.715, 45.4096 ], [ 51.7265, 45.4293 ], [ 51.7394, 45.4468 ], [ 51.7582, 45.4572 ], [ 51.7704, 45.4477 ], [ 51.7816, 45.4342 ], [ 51.7895, 45.4193 ], [ 51.7916, 45.4091 ], [ 51.7924, 45.4054 ], [ 51.8784, 45.3951 ], [ 51.8942, 45.3908 ], [ 51.9212, 45.3715 ], [ 51.94, 45.3672 ], [ 51.958, 45.3715 ], [ 51.99, 45.3908 ], [ 52.0087, 45.3951 ], [ 52.0314, 45.393 ], [ 52.0721, 45.3835 ], [ 52.094, 45.3815 ], [ 52.1082, 45.3828 ], [ 52.1545, 45.387 ], [ 52.2747, 45.3978 ], [ 52.3189, 45.4018 ], [ 52.4029, 45.4093 ], [ 52.4458, 45.4006 ], [ 52.5192, 45.4089 ], [ 52.5667, 45.4006 ], [ 52.7352, 45.3478 ], [ 52.8353, 45.3366 ], [ 52.885, 45.3183 ], [ 52.9098, 45.3126 ], [ 53.0023, 45.32 ], [ 53.0286, 45.3164 ], [ 53.0833, 45.3015 ], [ 53.1082, 45.2995 ], [ 53.1294, 45.3048 ], [ 53.1708, 45.3224 ], [ 53.2003, 45.3285 ], [ 53.2126, 45.338 ], [ 53.218, 45.3405 ], [ 53.2453, 45.3337 ], [ 53.2612, 45.3428 ], [ 53.2673, 45.3508 ], [ 53.2658, 45.3611 ], [ 53.2475, 45.3697 ], [ 53.1431, 45.384 ], [ 53.1344, 45.3896 ], [ 53.1218, 45.402 ], [ 53.1121, 45.4062 ], [ 53.0819, 45.4089 ], [ 53.0358, 45.4188 ], [ 52.9098, 45.4634 ], [ 52.885, 45.4674 ], [ 52.8756, 45.4711 ], [ 52.85, 45.4942 ], [ 52.8407, 45.4972 ], [ 52.8043, 45.501 ], [ 52.7554, 45.5168 ], [ 52.7384, 45.5255 ], [ 52.7435, 45.5382 ], [ 52.732, 45.5541 ], [ 52.7345, 45.5627 ], [ 52.7428, 45.5733 ], [ 52.7431, 45.5807 ], [ 52.7384, 45.5972 ], [ 52.7399, 45.6208 ], [ 52.7456, 45.6391 ], [ 52.7572, 45.651 ], [ 52.7759, 45.6552 ], [ 52.7921, 45.6629 ], [ 52.804, 45.6806 ], [ 52.8202, 45.7173 ], [ 52.8504, 45.7546 ], [ 52.8587, 45.7648 ], [ 52.8756, 45.7788 ], [ 52.8864, 45.7837 ], [ 52.9109, 45.7904 ], [ 52.9199, 45.7961 ], [ 52.9544, 45.8302 ], [ 52.9674, 45.8478 ], [ 52.9832, 45.8795 ], [ 52.9865, 45.8861 ], [ 53.0023, 45.906 ], [ 53.0311, 45.9274 ], [ 53.0401, 45.9364 ], [ 53.0538, 45.9671 ], [ 53.0603, 45.978 ], [ 53.0819, 46.0051 ], [ 53.0866, 46.0204 ], [ 53.0819, 46.0387 ], [ 53.0819, 46.0325 ], [ 53.0768, 46.0478 ], [ 53.0822, 46.0607 ], [ 53.1053, 46.0838 ], [ 53.1139, 46.0978 ], [ 53.1186, 46.1142 ], [ 53.1276, 46.1832 ], [ 53.1568, 46.2722 ], [ 53.1568, 46.3416 ], [ 53.1283, 46.3939 ], [ 53.083, 46.4349 ], [ 53.0326, 46.4709 ], [ 53.0531, 46.4686 ], [ 53.0833, 46.4501 ], [ 53.102, 46.4435 ], [ 53.102, 46.451 ], [ 53.084, 46.4601 ], [ 53.0754, 46.4756 ], [ 53.075, 46.4942 ], [ 53.0819, 46.5124 ], [ 53.0632, 46.5058 ], [ 53.0408, 46.4902 ], [ 53.0178, 46.4786 ], [ 52.9984, 46.4845 ], [ 52.9966, 46.5048 ], [ 53.0095, 46.5317 ], [ 53.0401, 46.5739 ], [ 53.0419, 46.5553 ], [ 53.0542, 46.5456 ], [ 53.0718, 46.5447 ], [ 53.088, 46.5533 ], [ 53.0956, 46.5683 ], [ 53.1002, 46.6051 ], [ 53.1082, 46.6217 ], [ 53.1175, 46.6014 ], [ 53.1258, 46.6065 ], [ 53.1337, 46.6227 ], [ 53.1424, 46.6353 ], [ 53.1521, 46.6376 ], [ 53.1751, 46.6349 ], [ 53.1841, 46.6353 ], [ 53.2007, 46.6432 ], [ 53.2046, 46.6558 ], [ 53.2063, 46.6753 ], [ 53.2079, 46.695 ], [ 53.1993, 46.7049 ], [ 53.1967, 46.7079 ], [ 53.1881, 46.7179 ], [ 53.1751, 46.7224 ], [ 53.1568, 46.7289 ], [ 53.1498, 46.7295 ], [ 53.1413, 46.7302 ], [ 53.1258, 46.7315 ], [ 53.1056, 46.7372 ], [ 53.0995, 46.7511 ], [ 53.102, 46.783 ], [ 53.0837, 46.8532 ], [ 53.065, 46.8794 ], [ 53.0603, 46.8923 ], [ 53.052, 46.8983 ], [ 53.0092, 46.8947 ], [ 52.9922, 46.8953 ], [ 52.9742, 46.9083 ], [ 52.9357, 46.9488 ], [ 52.9199, 46.9574 ], [ 52.8749, 46.9567 ], [ 52.7827, 46.9438 ], [ 52.7273, 46.95 ], [ 52.6146, 46.95 ], [ 52.5905, 46.9543 ], [ 52.5714, 46.9622 ], [ 52.5368, 46.9888 ], [ 52.5196, 46.9942 ], [ 52.4558, 47.0011 ], [ 52.4368, 46.9991 ], [ 52.4274, 46.9901 ], [ 52.4234, 46.979 ], [ 52.4231, 46.9537 ], [ 52.4191, 46.944 ], [ 52.3741, 46.9036 ], [ 52.3572, 46.8936 ], [ 52.2622, 46.87 ], [ 52.2352, 46.8688 ], [ 52.2017, 46.8854 ], [ 52.1887, 46.8837 ], [ 52.1808, 46.8754 ], [ 52.183, 46.8618 ], [ 52.2244, 46.8482 ], [ 52.2373, 46.8322 ], [ 52.2427, 46.8212 ], [ 52.2449, 46.81 ], [ 52.2391, 46.8067 ], [ 52.1124, 46.8126 ], [ 52.0879, 46.8209 ], [ 52.0717, 46.8299 ], [ 52.0685, 46.8374 ], [ 52.0674, 46.8514 ], [ 52.062, 46.85 ], [ 52.0494, 46.8568 ], [ 52.0174, 46.8806 ], [ 52.0069, 46.885 ], [ 52.0001, 46.8905 ], [ 51.9979, 46.9028 ], [ 52.0224, 46.9261 ], [ 52.0188, 46.937 ], [ 51.999, 46.941 ], [ 51.9814, 46.9232 ], [ 51.9608, 46.8857 ], [ 51.9414, 46.8799 ], [ 51.9097, 46.881 ], [ 51.8766, 46.8869 ], [ 51.8539, 46.8953 ], [ 51.8856, 46.9244 ], [ 51.8957, 46.9308 ], [ 51.8741, 46.9355 ], [ 51.8496, 46.9281 ], [ 51.806, 46.9091 ], [ 51.7848, 46.9091 ], [ 51.7636, 46.9156 ], [ 51.7438, 46.9268 ], [ 51.7276, 46.9404 ], [ 51.6894, 46.9614 ], [ 51.6839, 46.9682 ], [ 51.6757, 46.9785 ], [ 51.6962, 47.0211 ], [ 51.6941, 47.0417 ], [ 51.68, 47.057 ], [ 51.6552, 47.0597 ], [ 51.6358, 47.0487 ], [ 51.6268, 47.0293 ], [ 51.621, 47.0074 ], [ 51.6141, 46.9946 ], [ 51.6109, 46.9888 ], [ 51.5922, 46.9872 ], [ 51.572, 47.0048 ], [ 51.5599, 47.0212 ], [ 51.5461, 47.04 ], [ 51.527, 47.0529 ], [ 51.5026, 47.0613 ], [ 51.4378, 47.0691 ], [ 51.382, 47.0836 ], [ 51.3187, 47.0932 ], [ 51.2534, 47.103 ], [ 51.2149, 47.1199 ], [ 51.2128, 47.1209 ], [ 51.1872, 47.1168 ], [ 51.1418, 47.0947 ], [ 51.1026, 47.0804 ], [ 51.1013, 47.0802 ], [ 50.9708, 47.0597 ], [ 50.9518, 47.0522 ], [ 50.923, 47.0248 ], [ 50.9053, 47.0188 ], [ 50.8909, 47.0223 ], [ 50.8682, 47.0367 ], [ 50.8574, 47.04 ], [ 50.8466, 47.0367 ], [ 50.8405, 47.0294 ], [ 50.8394, 47.0223 ], [ 50.8438, 47.0188 ], [ 50.838, 47.0098 ], [ 50.7577, 46.9155 ], [ 50.7404, 46.9061 ], [ 50.7304, 46.9232 ], [ 50.734, 46.935 ], [ 50.753, 46.955 ], [ 50.7577, 46.9679 ], [ 50.752, 46.9746 ], [ 50.7394, 46.9692 ], [ 50.7037, 46.9427 ], [ 50.6782, 46.9327 ], [ 50.6515, 46.9282 ], [ 50.631, 46.9338 ], [ 50.6162, 46.9355 ], [ 50.6105, 46.9152 ], [ 50.6069, 46.868 ], [ 50.5986, 46.8524 ], [ 50.5856, 46.8372 ], [ 50.5691, 46.8289 ], [ 50.5514, 46.8345 ], [ 50.5698, 46.8522 ], [ 50.581, 46.8676 ], [ 50.5781, 46.8783 ], [ 50.5554, 46.8823 ], [ 50.5212, 46.8746 ], [ 50.5144, 46.8717 ], [ 50.5028, 46.8636 ], [ 50.4938, 46.8657 ], [ 50.4863, 46.872 ], [ 50.4535, 46.8917 ], [ 50.4431, 46.8953 ], [ 50.4301, 46.8966 ], [ 50.4192, 46.8858 ], [ 50.4157, 46.8823 ], [ 50.393, 46.8365 ], [ 50.3837, 46.8178 ], [ 50.3675, 46.8066 ], [ 50.3722, 46.8192 ], [ 50.3733, 46.8375 ], [ 50.3743, 46.8544 ], [ 50.361, 46.8464 ], [ 50.3531, 46.8348 ], [ 50.3473, 46.8228 ], [ 50.3408, 46.8144 ], [ 50.3401, 46.8135 ], [ 50.3329, 46.8109 ], [ 50.3237, 46.8101 ], [ 50.3142, 46.8093 ], [ 50.3059, 46.8066 ], [ 50.294, 46.7979 ], [ 50.2516, 46.7423 ], [ 50.231, 46.726 ], [ 50.23, 46.7261 ], [ 50.213, 46.7282 ], [ 50.213, 46.7376 ], [ 50.2199, 46.7501 ], [ 50.2231, 46.7609 ], [ 50.2135, 46.7654 ], [ 50.213, 46.7657 ], [ 50.2004, 46.7631 ], [ 50.1688, 46.7491 ], [ 50.0795, 46.6837 ], [ 50.0507, 46.6496 ], [ 50.0341, 46.6352 ], [ 50.0143, 46.6291 ], [ 49.9765, 46.6321 ], [ 49.9628, 46.6291 ], [ 49.9527, 46.6236 ], [ 49.9373, 46.6078 ], [ 49.9286, 46.6012 ], [ 49.8933, 46.5906 ], [ 49.8822, 46.5758 ], [ 49.8685, 46.5755 ], [ 49.8397, 46.5806 ], [ 49.8253, 46.5715 ], [ 49.8231, 46.5533 ], [ 49.8174, 46.5404 ], [ 49.7918, 46.5471 ], [ 49.7796, 46.5617 ], [ 49.7713, 46.567 ], [ 49.7609, 46.5633 ], [ 49.7609, 46.5417 ], [ 49.7576, 46.5317 ], [ 49.7472, 46.5363 ], [ 49.7267, 46.5546 ], [ 49.7137, 46.5613 ], [ 49.7025, 46.5602 ], [ 49.7007, 46.5524 ], [ 49.7043, 46.5271 ], [ 49.7025, 46.5192 ], [ 49.6377, 46.5773 ], [ 49.6226, 46.5828 ], [ 49.6197, 46.5637 ], [ 49.6269, 46.5192 ], [ 49.6082, 46.527 ], [ 49.5978, 46.5211 ], [ 49.5899, 46.5092 ], [ 49.5791, 46.4988 ], [ 49.5708, 46.5218 ], [ 49.5578, 46.5343 ], [ 49.4981, 46.5527 ], [ 49.4808, 46.5606 ], [ 49.4696, 46.5735 ], [ 49.4689, 46.5944 ], [ 49.4693, 46.5626 ], [ 49.4725, 46.5466 ], [ 49.4862, 46.5346 ], [ 49.4966, 46.5089 ], [ 49.5042, 46.4988 ], [ 49.4927, 46.4995 ], [ 49.4567, 46.5095 ], [ 49.4574, 46.5172 ], [ 49.4617, 46.5261 ], [ 49.4624, 46.5328 ], [ 49.4383, 46.5503 ], [ 49.4289, 46.5549 ], [ 49.4235, 46.5504 ], [ 49.4214, 46.5397 ], [ 49.3893, 46.544 ], [ 49.3537, 46.5534 ], [ 49.3231, 46.568 ], [ 49.3055, 46.5875 ], [ 49.313, 46.562 ], [ 49.3785, 46.5101 ], [ 49.3944, 46.4783 ], [ 49.3746, 46.484 ], [ 49.3332, 46.4845 ], [ 49.3191, 46.4972 ], [ 49.3094, 46.5122 ], [ 49.2979, 46.5237 ], [ 49.2781, 46.5254 ], [ 49.2781, 46.5192 ], [ 49.2947, 46.5079 ], [ 49.2975, 46.4868 ], [ 49.3037, 46.4664 ], [ 49.3296, 46.4571 ], [ 49.367, 46.4298 ], [ 49.371, 46.4208 ], [ 49.3728, 46.4103 ], [ 49.3713, 46.3993 ], [ 49.367, 46.3889 ], [ 49.3256, 46.4103 ], [ 49.3062, 46.4238 ], [ 49.2662, 46.464 ], [ 49.2504, 46.4693 ], [ 49.2234, 46.4709 ], [ 49.2432, 46.4586 ], [ 49.2489, 46.4491 ], [ 49.2507, 46.4337 ], [ 49.2554, 46.4241 ], [ 49.2918, 46.3963 ], [ 49.2781, 46.3889 ], [ 49.2637, 46.396 ], [ 49.1849, 46.4138 ], [ 49.1737, 46.4135 ], [ 49.1683, 46.4093 ], [ 49.1705, 46.399 ], [ 49.1784, 46.3927 ], [ 49.1888, 46.3896 ], [ 49.1993, 46.3889 ], [ 49.2158, 46.3803 ], [ 49.2223, 46.3612 ], [ 49.2237, 46.3422 ], [ 49.2256, 46.3338 ], [ 49.227, 46.3278 ], [ 49.0691, 46.3906 ], [ 49.0437, 46.4008 ], [ 49.0333, 46.4049 ], [ 48.9847, 46.4316 ], [ 48.9599, 46.4453 ], [ 48.9181, 46.4743 ], [ 48.8969, 46.4822 ], [ 48.8688, 46.4823 ], [ 48.8546, 46.4801 ], [ 48.8443, 46.4785 ], [ 48.8195, 46.4792 ], [ 48.7586, 46.5131 ], [ 48.7331, 46.534 ], [ 48.705, 46.5504 ], [ 48.6701, 46.5564 ], [ 48.6654, 46.5572 ], [ 48.6589, 46.5572 ], [ 48.607, 46.5578 ], [ 48.5879, 46.558 ], [ 48.5732, 46.5582 ], [ 48.5698, 46.5592 ], [ 48.5475, 46.5656 ], [ 48.5394, 46.5679 ], [ 48.5566, 46.5848 ], [ 48.5581, 46.5863 ], [ 48.5631, 46.5912 ], [ 48.5469, 46.5992 ], [ 48.5419, 46.6133 ], [ 48.5394, 46.6279 ], [ 48.53, 46.6382 ], [ 48.4933, 46.6535 ], [ 48.4739, 46.6592 ], [ 48.4551, 46.6608 ], [ 48.4789, 46.6834 ], [ 48.5059, 46.7325 ], [ 48.5567, 46.7617 ], [ 48.6182, 46.7704 ], [ 48.6765, 46.7579 ], [ 48.6974, 46.7451 ], [ 48.7125, 46.7287 ], [ 48.7289, 46.7057 ], [ 48.7395, 46.6905 ], [ 48.7483, 46.6878 ], [ 48.7568, 46.6851 ], [ 48.764, 46.6828 ], [ 48.7966, 46.687 ], [ 48.917, 46.7026 ], [ 48.948, 46.7199 ], [ 48.9893, 46.7547 ], [ 49.0063, 46.7691 ], [ 48.9375, 46.843 ], [ 48.6974, 47.101 ], [ 48.5628, 47.34 ], [ 48.5462, 47.3694 ], [ 48.5358, 47.3935 ], [ 48.525, 47.4102 ], [ 48.5102, 47.4174 ], [ 48.4731, 47.4204 ], [ 48.4375, 47.4291 ], [ 48.4349, 47.4308 ], [ 48.4112, 47.4457 ], [ 48.3605, 47.4931 ], [ 48.178, 47.7085 ], [ 48.1743, 47.7127 ], [ 48.1124, 47.7484 ], [ 48.0444, 47.7696 ], [ 47.6498, 47.7655 ], [ 47.4353, 47.8344 ], [ 47.4202, 47.8353 ], [ 47.4147, 47.8357 ], [ 47.4122, 47.8358 ], [ 47.3942, 47.8267 ], [ 47.3888, 47.8118 ], [ 47.3895, 47.7515 ], [ 47.3831, 47.7053 ], [ 47.3741, 47.6857 ], [ 47.3739, 47.6857 ], [ 47.3597, 47.6833 ], [ 47.2056, 47.7558 ], [ 47.1929, 47.7618 ], [ 47.1746, 47.7704 ], [ 47.1404, 47.7926 ], [ 47.1239, 47.8079 ], [ 47.1195, 47.8196 ], [ 47.1244, 47.8301 ], [ 47.1253, 47.8321 ], [ 47.1383, 47.8496 ], [ 47.1566, 47.8633 ], [ 47.1588, 47.8716 ], [ 47.1553, 47.8772 ], [ 47.1552, 47.8775 ], [ 47.1217, 47.9155 ], [ 47.0907, 47.9416 ], [ 47.0511, 47.9748 ], [ 47.0443, 47.9862 ], [ 47.0547, 47.9924 ], [ 47.0583, 47.9945 ], [ 47.1372, 48.0273 ], [ 47.1782, 48.0519 ], [ 47.182, 48.0574 ], [ 47.1919, 48.0718 ], [ 47.1739, 48.0842 ], [ 47.1195, 48.0884 ], [ 47.1038, 48.1012 ], [ 47.1037, 48.1013 ], [ 47.1041, 48.1193 ], [ 47.1115, 48.1361 ], [ 47.1251, 48.1581 ], [ 47.1116, 48.1363 ], [ 47.1163, 48.1539 ], [ 47.1087, 48.1741 ], [ 47.1026, 48.1804 ], [ 47.0803, 48.196 ], [ 47.0753, 48.2052 ], [ 47.0814, 48.2119 ], [ 47.0987, 48.2226 ], [ 47.112, 48.2417 ], [ 47.112, 48.2511 ], [ 47.099, 48.2654 ], [ 47.0781, 48.2754 ], [ 46.9791, 48.294 ], [ 46.4784, 48.4107 ], [ 46.7538, 48.9141 ], [ 46.7629, 48.9224 ], [ 46.7779, 48.9362 ], [ 46.8128, 48.9538 ], [ 46.8881, 48.9805 ], [ 46.8892, 48.9812 ], [ 46.9302, 49.0041 ], [ 46.9791, 49.0474 ], [ 47.0209, 49.0969 ], [ 47.04, 49.1504 ], [ 47.0311, 49.1899 ], [ 47.0285, 49.2016 ], [ 47.0038, 49.223 ], [ 46.9854, 49.239 ], [ 46.9791, 49.2444 ], [ 46.9662, 49.2509 ], [ 46.8308, 49.3184 ], [ 46.775, 49.3326 ], [ 46.818, 49.5004 ], [ 46.8347, 49.5657 ], [ 46.8427, 49.5967 ], [ 46.848, 49.6177 ], [ 46.8605, 49.6664 ], [ 46.8999, 49.8204 ], [ 46.9226, 49.8613 ], [ 46.9416, 49.8734 ], [ 46.9586, 49.8842 ], [ 47.1775, 49.9472 ], [ 47.24, 49.9887 ], [ 47.2455, 49.9924 ], [ 47.3085, 50.0448 ], [ 47.3253, 50.0682 ], [ 47.3287, 50.073 ], [ 47.3276, 50.1093 ], [ 47.2729, 50.1584 ], [ 47.265, 50.1863 ], [ 47.2652, 50.1866 ], [ 47.2761, 50.1999 ], [ 47.3125, 50.2225 ], [ 47.3147, 50.226 ], [ 47.3222, 50.2374 ], [ 47.3176, 50.2508 ], [ 47.3168, 50.253 ], [ 47.3031, 50.2636 ], [ 47.2953, 50.2749 ], [ 47.2949, 50.2755 ], [ 47.2949, 50.2756 ], [ 47.3057, 50.295 ], [ 47.3229, 50.3045 ], [ 47.3921, 50.3233 ], [ 47.4061, 50.3343 ], [ 47.4389, 50.3832 ], [ 47.4698, 50.4119 ], [ 47.5116, 50.4369 ], [ 47.5569, 50.4527 ], [ 47.5994, 50.4528 ], [ 47.6246, 50.4409 ], [ 47.6901, 50.3864 ], [ 47.7348, 50.3701 ], [ 47.7454, 50.3629 ], [ 47.7492, 50.3603 ], [ 47.7649, 50.3398 ], [ 47.7668, 50.3373 ], [ 47.7765, 50.3299 ], [ 47.796, 50.3249 ], [ 47.8082, 50.32 ], [ 47.8547, 50.2851 ], [ 47.8741, 50.2665 ], [ 47.9133, 50.2439 ], [ 47.9537, 50.2049 ], [ 47.9684, 50.1964 ], [ 47.9933, 50.1819 ], [ 48.0005, 50.1697 ], [ 48.0051, 50.1561 ], [ 48.0123, 50.1421 ], [ 48.0129, 50.1416 ], [ 48.0246, 50.1314 ], [ 48.0448, 50.1208 ], [ 48.0746, 50.1053 ], [ 48.0751, 50.1047 ], [ 48.0962, 50.0786 ], [ 48.1059, 50.0507 ], [ 48.1124, 50.022 ], [ 48.1254, 49.993 ], [ 48.1322, 49.9838 ], [ 48.1423, 49.9638 ], [ 48.1491, 49.9549 ], [ 48.161, 49.9465 ], [ 48.2003, 49.925 ], [ 48.2197, 49.9016 ], [ 48.2271, 49.8801 ], [ 48.2273, 49.8795 ], [ 48.2284, 49.8781 ], [ 48.2391, 49.8648 ], [ 48.2609, 49.8637 ], [ 48.2741, 49.8631 ], [ 48.3029, 49.8668 ], [ 48.3045, 49.8662 ], [ 48.3122, 49.8636 ], [ 48.3238, 49.8563 ], [ 48.3594, 49.834 ], [ 48.371, 49.8296 ], [ 48.4177, 49.8117 ], [ 48.428, 49.81 ], [ 48.4299, 49.8097 ], [ 48.4429, 49.8151 ], [ 48.4456, 49.8175 ], [ 48.4659, 49.8359 ], [ 48.477, 49.8421 ], [ 48.4789, 49.8432 ], [ 48.5105, 49.8513 ], [ 48.6834, 49.8955 ], [ 48.7845, 49.9335 ], [ 48.8619, 49.993 ], [ 48.8632, 49.9944 ], [ 48.8857, 50.0199 ], [ 48.8857, 50.0275 ], [ 48.8857, 50.0305 ], [ 48.8742, 50.0698 ], [ 48.8655, 50.0863 ], [ 48.8519, 50.0973 ], [ 48.7827, 50.1115 ], [ 48.7817, 50.1263 ], [ 48.7809, 50.1377 ], [ 48.7889, 50.173 ], [ 48.7709, 50.2111 ], [ 48.7411, 50.2495 ], [ 48.7304, 50.2633 ], [ 48.7287, 50.2655 ], [ 48.7014, 50.3346 ], [ 48.6773, 50.4631 ], [ 48.6744, 50.4786 ], [ 48.6787, 50.5485 ], [ 48.6733, 50.5796 ], [ 48.6545, 50.5963 ], [ 48.6485, 50.6016 ], [ 48.5973, 50.6081 ], [ 48.5729, 50.6169 ], [ 48.5682, 50.6365 ], [ 48.584, 50.6497 ], [ 48.5922, 50.6491 ], [ 48.6089, 50.648 ], [ 48.6789, 50.621 ], [ 48.7243, 50.6035 ], [ 48.7395, 50.5976 ], [ 48.7863, 50.5906 ], [ 48.8303, 50.596 ], [ 48.9051, 50.6319 ], [ 48.9656, 50.6609 ], [ 49.0128, 50.6835 ], [ 49.1024, 50.758 ], [ 49.1442, 50.7818 ], [ 49.2835, 50.8038 ], [ 49.3695, 50.8269 ], [ 49.4061, 50.8471 ], [ 49.4084, 50.8483 ], [ 49.4239, 50.8821 ], [ 49.4055, 50.9136 ], [ 49.3717, 50.9395 ], [ 49.3472, 50.9644 ], [ 49.3555, 50.9841 ], [ 49.3591, 50.9927 ], [ 49.3832, 51.0195 ], [ 49.3926, 51.0342 ], [ 49.4009, 51.0672 ], [ 49.4106, 51.0856 ], [ 49.414, 51.0901 ], [ 49.4232, 51.1021 ], [ 49.4365, 51.1124 ], [ 49.4466, 51.114 ], [ 49.4603, 51.1162 ], [ 49.4694, 51.1145 ], [ 49.5237, 51.1039 ], [ 49.5398, 51.1008 ], [ 49.7792, 51.1022 ], [ 49.7958, 51.1097 ], [ 49.8429, 51.1507 ], [ 49.9869, 51.2299 ], [ 50.0287, 51.243 ], [ 50.2076, 51.2659 ], [ 50.3254, 51.3036 ], [ 50.3423, 51.3127 ], [ 50.3491, 51.3226 ], [ 50.349, 51.3231 ], [ 50.3473, 51.3353 ], [ 50.3405, 51.3529 ], [ 50.3376, 51.3721 ], [ 50.3419, 51.3765 ], [ 50.3466, 51.3813 ], [ 50.3617, 51.3874 ], [ 50.3685, 51.3919 ], [ 50.3761, 51.397 ], [ 50.3596, 51.4133 ], [ 50.3675, 51.419 ], [ 50.3797, 51.4212 ], [ 50.3818, 51.4213 ], [ 50.4391, 51.4231 ], [ 50.4575, 51.4269 ], [ 50.458, 51.4273 ], [ 50.4712, 51.4362 ], [ 50.4791, 51.4538 ], [ 50.4978, 51.4557 ], [ 50.5028, 51.4563 ], [ 50.5183, 51.4598 ], [ 50.5236, 51.4659 ], [ 50.5273, 51.4701 ], [ 50.5313, 51.4927 ], [ 50.5223, 51.5508 ], [ 50.5255, 51.5656 ], [ 50.5381, 51.5742 ], [ 50.5428, 51.5775 ], [ 50.5619, 51.5808 ], [ 50.5756, 51.5885 ], [ 50.5757, 51.5906 ], [ 50.5777, 51.6134 ], [ 50.5817, 51.6353 ], [ 50.586, 51.6351 ], [ 50.5997, 51.6347 ], [ 50.6393, 51.6162 ], [ 50.6857, 51.6157 ], [ 50.6944, 51.6112 ], [ 50.6749, 51.5945 ], [ 50.6587, 51.5762 ], [ 50.671, 51.5676 ], [ 50.6965, 51.5656 ], [ 50.7199, 51.5674 ], [ 50.7496, 51.575 ], [ 50.7642, 51.5788 ], [ 50.767, 51.5807 ], [ 50.7742, 51.5857 ], [ 50.7908, 51.5974 ], [ 50.7944, 51.626 ], [ 50.7473, 51.7091 ], [ 50.744, 51.7425 ], [ 50.7671, 51.7595 ], [ 50.7676, 51.7594 ], [ 50.8207, 51.7526 ], [ 50.8394, 51.7456 ], [ 50.8578, 51.7353 ], [ 50.8736, 51.7219 ], [ 50.8844, 51.7055 ], [ 50.8846, 51.7053 ], [ 50.9006, 51.6872 ], [ 50.9203, 51.6813 ], [ 50.9255, 51.6798 ], [ 50.9912, 51.677 ], [ 51.0182, 51.6759 ], [ 51.0651, 51.6739 ], [ 51.1087, 51.6721 ], [ 51.1699, 51.6695 ], [ 51.174, 51.6705 ], [ 51.1901, 51.6742 ], [ 51.2124, 51.6818 ], [ 51.234, 51.6855 ], [ 51.2409, 51.6829 ], [ 51.252, 51.6786 ], [ 51.2761, 51.6516 ], [ 51.2884, 51.6429 ], [ 51.3085, 51.6371 ], [ 51.3524, 51.6363 ], [ 51.3719, 51.6297 ], [ 51.3797, 51.6142 ], [ 51.382, 51.6098 ], [ 51.3812, 51.5871 ], [ 51.3798, 51.5842 ], [ 51.3733, 51.5716 ], [ 51.3613, 51.5632 ], [ 51.3589, 51.5616 ], [ 51.3391, 51.555 ], [ 51.2435, 51.5439 ], [ 51.2416, 51.5437 ], [ 51.2365, 51.536 ], [ 51.2477, 51.5211 ], [ 51.2639, 51.5049 ], [ 51.2729, 51.4926 ], [ 51.3042, 51.4717 ], [ 51.3794, 51.4671 ], [ 51.4619, 51.4753 ], [ 51.5152, 51.4927 ], [ 51.5184, 51.4958 ], [ 51.5321, 51.5085 ], [ 51.5447, 51.5242 ], [ 51.5598, 51.5347 ], [ 51.5819, 51.5349 ], [ 51.5843, 51.535 ], [ 51.6098, 51.5278 ], [ 51.6206, 51.5188 ], [ 51.6246, 51.481 ], [ 51.6473, 51.4512 ], [ 51.6545, 51.4517 ], [ 51.678, 51.4532 ], [ 51.6934, 51.4541 ], [ 51.7052, 51.4586 ], [ 51.7359, 51.4702 ], [ 51.7445, 51.4734 ], [ 51.7765, 51.4899 ], [ 51.7823, 51.4929 ], [ 51.783, 51.5298 ], [ 51.7679, 51.563 ], [ 51.7646, 51.5934 ], [ 51.8201, 51.633 ], [ 51.851, 51.6618 ], [ 51.8606, 51.6678 ], [ 51.869, 51.6731 ], [ 51.8732, 51.6741 ], [ 51.894, 51.6791 ], [ 51.8968, 51.6798 ], [ 51.9248, 51.6784 ], [ 51.9526, 51.6711 ], [ 51.9785, 51.6605 ], [ 52.0044, 51.6549 ], [ 52.0354, 51.6525 ], [ 52.066, 51.6535 ], [ 52.0919, 51.6588 ], [ 52.0941, 51.6601 ], [ 52.111, 51.6703 ], [ 52.1333, 51.7021 ], [ 52.148, 51.7161 ], [ 52.174, 51.7253 ], [ 52.1786, 51.7251 ], [ 52.2301, 51.7224 ], [ 52.2582, 51.7243 ], [ 52.2691, 51.73 ], [ 52.2794, 51.7355 ], [ 52.2924, 51.7657 ], [ 52.3079, 51.7745 ], [ 52.326, 51.7673 ], [ 52.3349, 51.7638 ], [ 52.3522, 51.7303 ], [ 52.3648, 51.6904 ], [ 52.3777, 51.6602 ], [ 52.4447, 51.5802 ], [ 52.4724, 51.5151 ], [ 52.4789, 51.5049 ], [ 52.49, 51.4926 ], [ 52.5059, 51.4789 ], [ 52.525, 51.4676 ], [ 52.5458, 51.4595 ], [ 52.5538, 51.458 ], [ 52.5551, 51.4585 ], [ 52.575, 51.4671 ], [ 52.5751, 51.4671 ], [ 52.5957, 51.4663 ], [ 52.6325, 51.4648 ], [ 52.6636, 51.4636 ], [ 52.6686, 51.4551 ], [ 52.6798, 51.4591 ], [ 52.701, 51.4769 ], [ 52.7052, 51.4794 ], [ 52.7096, 51.4822 ], [ 52.7215, 51.4852 ], [ 52.7456, 51.487 ], [ 52.7525, 51.4905 ], [ 52.7572, 51.498 ], [ 52.7647, 51.5053 ], [ 52.7798, 51.5082 ], [ 52.7896, 51.5048 ], [ 52.7923, 51.5029 ], [ 52.8108, 51.4907 ], [ 52.8205, 51.487 ], [ 52.8763, 51.4902 ], [ 52.8767, 51.4901 ], [ 52.8965, 51.4853 ], [ 52.8913, 51.4785 ], [ 52.8828, 51.4671 ], [ 52.9033, 51.465 ], [ 52.9292, 51.4554 ], [ 52.9444, 51.453 ], [ 52.9598, 51.456 ], [ 52.9912, 51.4756 ], [ 52.9987, 51.4803 ], [ 53.0372, 51.4897 ], [ 53.0544, 51.4894 ], [ 53.1571, 51.487 ], [ 53.1485, 51.5048 ], [ 53.1532, 51.5128 ], [ 53.1658, 51.5146 ], [ 53.1812, 51.5144 ], [ 53.1855, 51.5135 ], [ 53.1906, 51.5125 ], [ 53.1967, 51.5048 ], [ 53.1985, 51.5025 ], [ 53.205, 51.4973 ], [ 53.214, 51.4948 ], [ 53.2324, 51.5008 ], [ 53.2574, 51.4985 ], [ 53.2937, 51.4951 ], [ 53.3072, 51.4939 ], [ 53.3224, 51.4953 ], [ 53.3329, 51.4987 ], [ 53.3465, 51.5031 ], [ 53.367, 51.4936 ], [ 53.3819, 51.4901 ], [ 53.4073, 51.4842 ], [ 53.4192, 51.475 ], [ 53.4385, 51.4527 ], [ 53.4397, 51.4512 ], [ 53.4534, 51.4419 ], [ 53.4592, 51.4404 ], [ 53.5553, 51.4156 ], [ 53.5973, 51.3972 ], [ 53.5974, 51.3972 ], [ 53.5997, 51.3956 ], [ 53.6104, 51.3884 ], [ 53.6179, 51.3723 ], [ 53.6168, 51.3712 ], [ 53.6093, 51.3641 ], [ 53.5987, 51.3608 ], [ 53.5744, 51.3532 ], [ 53.5931, 51.3392 ], [ 53.5931, 51.3226 ], [ 53.5888, 51.3054 ], [ 53.5942, 51.2895 ], [ 53.628, 51.2678 ], [ 53.6424, 51.2555 ], [ 53.6492, 51.2374 ], [ 53.6737, 51.22 ], [ 53.7429, 51.2067 ], [ 53.7507, 51.2052 ], [ 53.8577, 51.1846 ], [ 53.9092, 51.1905 ], [ 53.9293, 51.1868 ], [ 53.9358, 51.1856 ], [ 53.9385, 51.1843 ], [ 53.9747, 51.1666 ], [ 53.9941, 51.1534 ], [ 54.0175, 51.1191 ], [ 54.0398, 51.1104 ], [ 54.092, 51.1052 ], [ 54.1115, 51.0961 ], [ 54.1201, 51.0812 ], [ 54.1298, 51.0424 ], [ 54.1457, 51.0196 ], [ 54.1489, 51.0098 ], [ 54.1453, 50.9927 ], [ 54.1766, 50.968 ], [ 54.1939, 50.9582 ], [ 54.2335, 50.9431 ], [ 54.2756, 50.9043 ], [ 54.3001, 50.8947 ], [ 54.3545, 50.8885 ], [ 54.3811, 50.8854 ], [ 54.3895, 50.8808 ], [ 54.4196, 50.8645 ], [ 54.4493, 50.8602 ], [ 54.4643, 50.8581 ], [ 54.4787, 50.8535 ], [ 54.4792, 50.8529 ], [ 54.4859, 50.8452 ], [ 54.488, 50.8356 ], [ 54.4852, 50.8254 ], [ 54.4787, 50.8157 ], [ 54.4218, 50.7688 ], [ 54.4142, 50.7486 ], [ 54.4124, 50.7041 ], [ 54.407, 50.6849 ], [ 54.3854, 50.6395 ], [ 54.3797, 50.6195 ], [ 54.3836, 50.5999 ], [ 54.3995, 50.5787 ], [ 54.4358, 50.5475 ], [ 54.4556, 50.5355 ], [ 54.4787, 50.5261 ], [ 54.4996, 50.5233 ], [ 54.5395, 50.5296 ], [ 54.539500004406413, 50.52959999773725 ], [ 54.5395, 50.529599997032221 ], [ 54.5432, 50.527699997031746 ], [ 54.561199997979813, 50.514099998554762 ], [ 54.4969, 50.4681 ], [ 54.4586, 50.4014 ], [ 54.3625, 50.3176 ], [ 54.362500002387392, 50.317599999061862 ], [ 54.3625, 50.317599996980036 ], [ 54.3994, 50.303099996976357 ], [ 54.44599999922616, 50.215099998415688 ], [ 54.3953, 50.1113 ], [ 54.395300001406099, 50.111299999806945 ], [ 54.3953, 50.111299996928182 ], [ 54.4441, 50.104599996926531 ], [ 54.4482, 50.075399996919096 ], [ 54.5174, 50.056699996914318 ], [ 54.535899999219438, 50.006599999015371 ], [ 54.49, 49.9487 ], [ 54.490000000803207, 49.948699997899872 ], [ 54.49, 49.948699996886681 ], [ 54.500899999162854, 49.920199999068274 ], [ 54.4053, 49.8138 ], [ 54.405300001681539, 49.813799998723276 ], [ 54.4053, 49.81379999685177 ], [ 54.464699995853458, 49.768699999988343 ], [ 54.358, 49.7684 ], [ 54.3332, 49.7327 ], [ 54.2634, 49.6765 ], [ 54.263400001923635, 49.676499998364591 ], [ 54.2634, 49.676499996815757 ], [ 54.294099997383448, 49.650399999033453 ], [ 54.1915, 49.6125 ], [ 54.1114, 49.6216 ], [ 53.9869, 49.6213 ], [ 53.9683, 49.5742 ], [ 53.8747, 49.5761 ], [ 53.7997, 49.5315 ], [ 53.7569, 49.4647 ], [ 53.6952, 49.4829 ], [ 53.695200003284889, 49.482899995795343 ], [ 53.6952, 49.482899996764303 ], [ 53.732699999107034, 49.434899997894426 ], [ 53.6704, 49.288 ], [ 53.67040000027599, 49.287999997362419 ], [ 53.6704, 49.287999996711648 ], [ 53.6801, 49.195299996686217 ], [ 53.7579, 49.146899996672936 ], [ 53.880899998503793, 49.111699997091371 ], [ 53.8684, 49.0874 ], [ 53.868400001428441, 49.087399999433352 ], [ 53.8684, 49.087399996656465 ], [ 53.9289, 49.063399996649785 ], [ 53.9679, 49.136699996670082 ], [ 54.0242, 49.130599996668373 ], [ 54.094499999384098, 48.900899998616637 ], [ 54.0689, 48.8434 ], [ 54.068900000928281, 48.843399998672972 ], [ 54.0689, 48.843399996587962 ], [ 54.112199998969693, 48.78149999804328 ], [ 54.0765, 48.7137 ], [ 54.076500001740428, 48.713699999856374 ], [ 54.0765, 48.713699996551021 ], [ 54.314, 48.694099996545425 ], [ 54.3722, 48.674399996539769 ], [ 54.4818, 48.664599996536928 ], [ 54.5114, 48.749399996561209 ], [ 54.511399999628253, 48.74939999893499 ], [ 54.5114, 48.7494 ], [ 54.501800000550858, 48.810699996482569 ], [ 54.5648, 48.799699996575541 ], [ 54.5981, 48.834599996585517 ], [ 54.6738, 48.798099996575104 ], [ 54.6767, 48.755599996563021 ], [ 54.8557, 48.742699996559324 ], [ 54.868099999739513, 48.582799999872293 ], [ 54.8373, 48.5677 ], [ 54.8046, 48.4107 ], [ 54.804600000600253, 48.410699999345049 ], [ 54.8046, 48.410699996463102 ], [ 54.8463, 48.365199996449697 ], [ 54.897699999361045, 48.206999998369319 ], [ 54.8622, 48.1164 ], [ 54.8622000010972, 48.116399999175719 ], [ 54.8622, 48.116399996375542 ], [ 55.021, 47.997099996339514 ], [ 55.0446, 47.809399996282032 ], [ 55.110999999249543, 47.728099997175732 ], [ 55.07, 47.5738 ], [ 54.9942, 47.1601 ], [ 54.994200000618129, 47.160099999450182 ], [ 54.9942, 47.160099996076553 ], [ 55.1435, 47.027299996033243 ], [ 55.2059, 46.859699995977991 ], [ 55.5053, 46.646599995906783 ], [ 55.7054, 46.585299995886103 ], [ 56.299, 46.456799995842424 ], [ 56.3086, 46.320199995795512 ], [ 56.425099998434455, 46.212399997206845 ], [ 56.4024, 46.1719 ], [ 56.402400001340979, 46.171899998136631 ], [ 56.4024, 46.171899995744134 ], [ 56.4848, 46.057399995704024 ], [ 56.5673, 45.883499995642588 ], [ 56.693599999219998, 45.165799999813551 ], [ 56.4041, 45.0966 ], [ 56.2483, 45.0607 ], [ 55.9982, 45.0004 ], [ 55.9982, 45.000399995319178 ], [ 55.9982, 44.9998 ], [ 55.9759, 44.9947 ], [ 55.975900000003193, 44.994699995317767 ], [ 55.9759, 44.994699995317035 ], [ 55.978399999995766, 41.321600000000309 ], [ 55.91, 41.3266 ], [ 55.8871, 41.3252 ], [ 55.8766, 41.3245 ], [ 55.8344, 41.309 ], [ 55.7873, 41.2917 ], [ 55.7663, 41.2894 ], [ 55.7125, 41.2835 ], [ 55.7037, 41.2826 ], [ 55.6944, 41.2816 ], [ 55.6354, 41.2644 ], [ 55.5235, 41.2594 ], [ 55.5094, 41.2588 ], [ 55.4784, 41.2668 ], [ 55.4731, 41.2691 ], [ 55.4645, 41.2728 ], [ 55.4503, 41.2788 ], [ 55.4492, 41.2795 ], [ 55.4294, 41.2907 ], [ 55.4243, 41.2959 ], [ 55.4132, 41.3072 ], [ 55.4125, 41.3079 ], [ 55.4074, 41.3172 ], [ 55.399, 41.3326 ], [ 55.398, 41.3343 ], [ 55.3848, 41.3585 ], [ 55.3726, 41.3756 ], [ 55.3567, 41.389 ], [ 55.2941, 41.4215 ], [ 55.2676, 41.439 ], [ 55.2592, 41.4446 ], [ 55.2286, 41.4727 ], [ 55.1487, 41.5792 ], [ 55.1, 41.6442 ], [ 55.0977, 41.6465 ], [ 54.9506, 41.7956 ], [ 54.9402, 41.8136 ], [ 54.934800000380868, 41.833699998582325 ], [ 54.9366, 41.855299994021593 ], [ 54.9406, 41.872699994029354 ], [ 54.9409, 41.889599994036864 ], [ 54.940899999897667, 41.889599994235446 ], [ 54.9409, 41.8896 ], [ 54.9308, 41.9092 ], [ 54.9071, 41.9321 ], [ 54.7382, 42.0482 ], [ 54.1954, 42.3181 ], [ 54.1226, 42.3375 ], [ 54.047, 42.3454 ], [ 53.5094, 42.2727 ], [ 53.4786, 42.2686 ], [ 53.4124, 42.2581 ], [ 53.1917, 42.193 ], [ 53.1352, 42.1678 ], [ 52.9786, 42.1266 ], [ 52.7647, 41.9938 ], [ 52.5593, 41.8398 ], [ 52.4378, 41.7488 ], [ 52.4357, 41.7685 ], [ 52.4436, 41.7909 ], [ 52.4821, 41.8639 ], [ 52.4911, 41.9021 ], [ 52.4846, 41.9416 ], [ 52.4742, 41.9626 ], [ 52.4612, 41.9789 ], [ 52.4418, 41.9924 ], [ 52.4339, 42.0004 ], [ 52.4306, 42.0137 ], [ 52.4371, 42.0477 ], [ 52.4368, 42.0578 ], [ 52.431, 42.0671 ], [ 52.4022, 42.0925 ], [ 52.413, 42.1067 ], [ 52.4224, 42.1253 ], [ 52.4285, 42.1455 ], [ 52.4306, 42.1638 ], [ 52.4364, 42.1798 ], [ 52.4504, 42.1878 ], [ 52.4669, 42.1925 ], [ 52.4684, 42.193 ], [ 52.4846, 42.2017 ], [ 52.4962, 42.2183 ], [ 52.5336, 42.2718 ], [ 52.5812, 42.3203 ], [ 52.5876, 42.3268 ], [ 52.5941, 42.3352 ], [ 52.5991, 42.3447 ], [ 52.6013, 42.3563 ], [ 52.6012, 42.3605 ], [ 52.6009, 42.3886 ], [ 52.6049, 42.3966 ], [ 52.6344, 42.4187 ], [ 52.6427, 42.4283 ], [ 52.6459, 42.4364 ], [ 52.6495, 42.4617 ], [ 52.6664, 42.5017 ], [ 52.6762, 42.5385 ], [ 52.6765, 42.5745 ], [ 52.6632, 42.6127 ], [ 52.6434, 42.6463 ], [ 52.638, 42.6555 ], [ 52.6186, 42.6784 ], [ 52.5975, 42.6883 ], [ 52.5757, 42.6986 ], [ 52.5642, 42.7209 ], [ 52.5638, 42.7422 ], [ 52.5746, 42.7498 ], [ 52.5815, 42.7392 ], [ 52.589, 42.7182 ], [ 52.6006, 42.6976 ], [ 52.6189, 42.6884 ], [ 52.6283, 42.6859 ], [ 52.6632, 42.6678 ], [ 52.6682, 42.6605 ], [ 52.6718, 42.6476 ], [ 52.6769, 42.6474 ], [ 52.6909, 42.611 ], [ 52.701, 42.5931 ], [ 52.7104, 42.5854 ], [ 52.7215, 42.5934 ], [ 52.7327, 42.6137 ], [ 52.7413, 42.6379 ], [ 52.7446, 42.6574 ], [ 52.7363, 42.7013 ], [ 52.7129, 42.7308 ], [ 52.6858, 42.7426 ], [ 52.6765, 42.7467 ], [ 52.6684, 42.7472 ], [ 52.6332, 42.7495 ], [ 52.6321, 42.7496 ], [ 52.629, 42.7498 ], [ 52.625, 42.7747 ], [ 52.5743, 42.7985 ], [ 52.471, 42.8262 ], [ 52.3806, 42.8319 ], [ 52.372, 42.8324 ], [ 52.3576, 42.8317 ], [ 52.345, 42.8294 ], [ 52.3205, 42.8187 ], [ 52.3, 42.7913 ], [ 52.2996, 42.7908 ], [ 52.2995, 42.7908 ], [ 52.2831, 42.7957 ], [ 52.273, 42.7988 ], [ 52.2064, 42.866 ], [ 52.1952, 42.8723 ], [ 52.1693, 42.8869 ], [ 52.1455, 42.8885 ], [ 52.0584, 42.8785 ], [ 51.9918, 42.8596 ], [ 51.9551, 42.8406 ], [ 51.9328, 42.835 ], [ 51.9126, 42.8423 ], [ 51.8762, 42.8742 ], [ 51.8539, 42.8938 ], [ 51.8399, 42.9094 ], [ 51.8179, 42.9412 ], [ 51.8024, 42.9586 ], [ 51.7927, 42.9742 ], [ 51.784, 43.0051 ], [ 51.7823, 43.0113 ], [ 51.7718, 43.0309 ], [ 51.7243, 43.0705 ], [ 51.7114, 43.0908 ], [ 51.6844, 43.096 ], [ 51.6757, 43.0999 ], [ 51.6707, 43.1127 ], [ 51.6739, 43.1212 ], [ 51.6797, 43.1291 ], [ 51.6833, 43.1408 ], [ 51.6793, 43.1597 ], [ 51.6678, 43.1797 ], [ 51.6512, 43.1913 ], [ 51.6363, 43.1858 ], [ 51.6124, 43.177 ], [ 51.5682, 43.1789 ], [ 51.5634, 43.1791 ], [ 51.5396, 43.175 ], [ 51.5395, 43.1749 ], [ 51.5188, 43.1568 ], [ 51.5087, 43.1544 ], [ 51.4957, 43.1568 ], [ 51.4784, 43.1641 ], [ 51.4727, 43.1665 ], [ 51.4604, 43.1688 ], [ 51.3947, 43.1586 ], [ 51.3679, 43.1544 ], [ 51.3509, 43.1544 ], [ 51.2763, 43.1544 ], [ 51.2758, 43.1544 ], [ 51.2628, 43.1645 ], [ 51.2664, 43.1876 ], [ 51.2789, 43.2159 ], [ 51.3024, 43.269 ], [ 51.3128, 43.3111 ], [ 51.3166, 43.3836 ], [ 51.3172, 43.3948 ], [ 51.3197, 43.4425 ], [ 51.3146, 43.4625 ], [ 51.2968, 43.4886 ], [ 51.2833, 43.5083 ], [ 51.2786, 43.5176 ], [ 51.2754, 43.5498 ], [ 51.2738, 43.5552 ], [ 51.2729, 43.5585 ], [ 51.2716, 43.5596 ], [ 51.2578, 43.5723 ], [ 51.2182, 43.5933 ], [ 51.2102, 43.61 ], [ 51.2083, 43.6186 ], [ 51.207, 43.6243 ], [ 51.1984, 43.6261 ], [ 51.1941, 43.625 ], [ 51.176, 43.6206 ], [ 51.1559, 43.6248 ], [ 51.1418, 43.6336 ], [ 51.1148, 43.6608 ], [ 51.023, 43.8009 ], [ 51.0148, 43.8185 ], [ 51.0086, 43.8456 ], [ 50.991, 43.8671 ], [ 50.9903, 43.8769 ], [ 50.9928, 43.8985 ], [ 50.991, 43.9081 ] ] ], [ [ [ 50.6976, 44.8578 ], [ 50.6936, 44.8642 ], [ 50.7019, 44.8744 ], [ 50.7019, 44.8805 ], [ 50.6918, 44.8831 ], [ 50.6886, 44.8891 ], [ 50.6933, 44.899 ], [ 50.6864, 44.9116 ], [ 50.6407, 44.9332 ], [ 50.6263, 44.9511 ], [ 50.6281, 44.967 ], [ 50.6357, 44.9674 ], [ 50.6432, 44.9529 ], [ 50.6594, 44.9389 ], [ 50.6782, 44.9356 ], [ 50.6926, 44.9406 ], [ 50.708, 44.9544 ], [ 50.7138, 44.9538 ], [ 50.7206, 44.9416 ], [ 50.7282, 44.9406 ], [ 50.7347, 44.9299 ], [ 50.7368, 44.8958 ], [ 50.7577, 44.8705 ], [ 50.7606, 44.8649 ], [ 50.7394, 44.8684 ], [ 50.7264, 44.8658 ], [ 50.7127, 44.8599 ], [ 50.6976, 44.8578 ] ] ], [ [ [ 49.9862, 44.9466 ], [ 49.9862, 44.968 ], [ 50.0417, 45.0574 ], [ 50.0521, 45.0656 ], [ 50.0676, 45.0714 ], [ 50.1133, 45.0799 ], [ 50.1122, 45.0624 ], [ 50.0704, 45.0455 ], [ 50.0536, 45.0387 ], [ 50.0403, 45.0176 ], [ 50.0384, 45.0146 ], [ 50.0352, 45.0009 ], [ 50.029, 44.9897 ], [ 50.0212, 44.9757 ], [ 50.0179, 44.9601 ], [ 50.0212, 44.9439 ], [ 50.0298, 44.9308 ], [ 50.0428, 44.9245 ], [ 50.048, 44.926 ], [ 50.0582, 44.929 ], [ 50.0585, 44.9112 ], [ 50.0586, 44.904 ], [ 50.0622, 44.8798 ], [ 50.0734, 44.8616 ], [ 50.1076, 44.8518 ], [ 50.1266, 44.8406 ], [ 50.1414, 44.8402 ], [ 50.1448, 44.8421 ], [ 50.1742, 44.8583 ], [ 50.1893, 44.8614 ], [ 50.1805, 44.8471 ], [ 50.1702, 44.8302 ], [ 50.1659, 44.8282 ], [ 50.1432, 44.8178 ], [ 50.1115, 44.8203 ], [ 50.0795, 44.8334 ], [ 50.064, 44.844 ], [ 50.0593, 44.8531 ], [ 50.0579, 44.8642 ], [ 50.0564, 44.8686 ], [ 50.0521, 44.8812 ], [ 50.0417, 44.8948 ], [ 50.0296, 44.9037 ], [ 50.0042, 44.9223 ], [ 49.9862, 44.9466 ] ] ], [ [ [ 50.289, 45.0783 ], [ 50.311, 45.0804 ], [ 50.3297, 45.0799 ], [ 50.3383, 45.0823 ], [ 50.3441, 45.0859 ], [ 50.3484, 45.0849 ], [ 50.3538, 45.073 ], [ 50.3456, 45.0548 ], [ 50.3444, 45.0523 ], [ 50.3376, 45.0428 ], [ 50.3297, 45.0389 ], [ 50.3264, 45.0331 ], [ 50.3333, 44.9946 ], [ 50.3246, 44.9731 ], [ 50.3045, 44.9594 ], [ 50.2814, 44.9555 ], [ 50.2709, 44.9607 ], [ 50.2645, 44.9638 ], [ 50.2585, 44.9806 ], [ 50.2566, 44.986 ], [ 50.2602, 45.0099 ], [ 50.2678, 45.0338 ], [ 50.2694, 45.0431 ], [ 50.2717, 45.0563 ], [ 50.2771, 45.0714 ], [ 50.289, 45.0783 ] ] ], [ [ [ 52.5613, 45.4565 ], [ 52.5522, 45.4777 ], [ 52.552, 45.4783 ], [ 52.5664, 45.4935 ], [ 52.5934, 45.5089 ], [ 52.598, 45.5168 ], [ 52.5952, 45.5235 ], [ 52.5998, 45.5274 ], [ 52.6276, 45.5259 ], [ 52.6355, 45.5255 ], [ 52.6549, 45.5214 ], [ 52.6729, 45.5038 ], [ 52.6873, 45.475 ], [ 52.6992, 45.4414 ], [ 52.7028, 45.4255 ], [ 52.7024, 45.4052 ], [ 52.6772, 45.3969 ], [ 52.6279, 45.4102 ], [ 52.5887, 45.4328 ], [ 52.5613, 45.4565 ] ] ], [ [ [ 49.7817, 46.2242 ], [ 49.767, 46.2478 ], [ 49.7209, 46.3381 ], [ 49.7198, 46.3567 ], [ 49.7501, 46.3574 ], [ 49.7922, 46.3389 ], [ 49.8116, 46.3265 ], [ 49.8224, 46.3139 ], [ 49.8383, 46.2858 ], [ 49.8411, 46.2628 ], [ 49.8217, 46.2174 ], [ 49.8048, 46.2104 ], [ 49.7817, 46.2242 ] ] ] ] } },
{ "type": "Feature", "properties": { "z": "AFG_WEST", "name": "Afghanistan - western islands", "ISO_A3": "AFG", "c": "AFG", "status": "not modelled", "reason": "Farah and Nimruz: western islands fed from Iran, not synchronised with NEPS and not represented by any zone (unlike Herat, which has one).", "admin_units": "Farah, Nimroz", "admin_source": "World Bank GAD, artifact wb_boundaries_20260820", "area_km2": 90712 }, "geometry": { "type": "MultiPolygon", "coordinates": [ [ [ [ 61.7998, 30.845 ], [ 61.8022, 30.8471 ], [ 61.7986, 30.8536 ], [ 61.8, 30.8716 ], [ 61.8025, 30.8786 ], [ 61.8083, 30.8815 ], [ 61.8047, 30.9496 ], [ 61.8314, 30.9712 ], [ 61.8047, 30.9497 ], [ 61.8004, 30.9615 ], [ 61.8194, 30.9939 ], [ 61.8263, 31.015 ], [ 61.8263, 31.0346 ], [ 61.8216, 31.0545 ], [ 61.8094, 31.0872 ], [ 61.7917, 31.119 ], [ 61.7892, 31.1293 ], [ 61.7878, 31.1587 ], [ 61.7791, 31.1811 ], [ 61.7525, 31.2192 ], [ 61.7428, 31.2395 ], [ 61.7424, 31.2594 ], [ 61.7492, 31.3025 ], [ 61.7424, 31.3209 ], [ 61.7064, 31.3599 ], [ 61.687, 31.3732 ], [ 61.661, 31.3819 ], [ 60.855, 31.4828 ], [ 60.8219, 31.4947 ], [ 60.81, 31.5884 ], [ 60.7949, 31.6366 ], [ 60.7927, 31.6601 ], [ 60.8053, 31.7339 ], [ 60.7916, 31.8265 ], [ 60.7891, 31.875 ], [ 60.7967, 31.9367 ], [ 60.7949, 31.9585 ], [ 60.7862, 31.9789 ], [ 60.7841, 31.9892 ], [ 60.7927, 32.0113 ], [ 60.7866, 32.0169 ], [ 60.7783, 32.021 ], [ 60.7751, 32.0272 ], [ 60.7826, 32.0426 ], [ 60.8089, 32.0712 ], [ 60.8147, 32.0878 ], [ 60.8284, 32.1674 ], [ 60.8302, 32.2488 ], [ 60.7524, 32.4946 ], [ 60.5774, 32.9944 ], [ 60.563, 33.0582 ], [ 60.5616, 33.1374 ], [ 60.5677, 33.1513 ], [ 60.6324, 33.2248 ], [ 60.6405, 33.2339 ], [ 60.7571, 33.3664 ], [ 60.7859, 33.3878 ], [ 60.8186, 33.4048 ], [ 60.8291, 33.4163 ], [ 60.8348, 33.4363 ], [ 60.8294, 33.4701 ], [ 60.8323, 33.4846 ], [ 60.85, 33.4944 ], [ 60.8692, 33.4955 ], [ 60.8971, 33.497 ], [ 60.909, 33.5006 ], [ 60.909000020824244, 33.500599996369104 ], [ 60.909, 33.500599989861527 ], [ 60.9285, 33.497199989859759 ], [ 60.9627, 33.498799989860593 ], [ 61.011, 33.485199989853648 ], [ 61.0448, 33.479799989850882 ], [ 61.0861, 33.479799989850882 ], [ 61.1184, 33.461899989841804 ], [ 61.1366, 33.447099989834271 ], [ 61.1965, 33.432899989827028 ], [ 61.2097, 33.440199989830752 ], [ 61.2557, 33.440599989830936 ], [ 61.3633, 33.454899989838232 ], [ 61.3892, 33.451299989836407 ], [ 61.4259, 33.457399989839466 ], [ 61.4605, 33.458799989840223 ], [ 61.4991, 33.476899989849429 ], [ 61.5128, 33.495999989859151 ], [ 61.5358, 33.512199989867426 ], [ 61.5639, 33.516199989869428 ], [ 61.6143, 33.513799989868225 ], [ 61.6526, 33.504099989863263 ], [ 61.6546, 33.490299989856254 ], [ 61.6938, 33.494099989858164 ], [ 61.7034, 33.490799989856484 ], [ 61.7334, 33.497299989859819 ], [ 61.778, 33.484899989853517 ], [ 61.8403, 33.485599989853853 ], [ 61.8584, 33.478799989850415 ], [ 61.867899997840709, 33.439699998717664 ], [ 61.8418, 33.4242 ], [ 61.8353, 33.4046 ], [ 61.835300001398963, 33.404599994031067 ], [ 61.8353, 33.404599989812638 ], [ 61.841299998281485, 33.378999997131906 ], [ 61.812, 33.3301 ], [ 61.7611, 33.2893 ], [ 61.7573, 33.2782 ], [ 61.757300002148881, 33.278199996025371 ], [ 61.7573, 33.278199989748373 ], [ 61.7706, 33.253599989735925 ], [ 61.8063, 33.235099989726521 ], [ 61.8164, 33.224199989720994 ], [ 61.8226, 33.193399989705405 ], [ 61.8475, 33.176099989696631 ], [ 61.871899993155928, 33.164799992860502 ], [ 61.858, 33.1503 ], [ 61.8213, 33.144 ], [ 61.8138, 33.1307 ], [ 61.798, 33.1259 ], [ 61.7896, 33.099 ], [ 61.7674, 33.0925 ], [ 61.7525, 33.0682 ], [ 61.7393, 33.0709 ], [ 61.7285, 33.058 ], [ 61.7276, 33.0414 ], [ 61.7021, 33.0331 ], [ 61.679, 33.0141 ], [ 61.6688, 32.9793 ], [ 61.6513, 32.9526 ], [ 61.583, 32.8648 ], [ 61.583000000091531, 32.864799989657158 ], [ 61.583, 32.864799989539499 ], [ 61.5831, 32.853499989533802 ], [ 61.6458, 32.855299989534693 ], [ 61.7119, 32.851299989532698 ], [ 61.732, 32.868799989541522 ], [ 61.7366, 32.88589998955014 ], [ 61.79, 32.873699989543987 ], [ 61.789999998317882, 32.873700000384304 ], [ 61.79, 32.8737 ], [ 61.7882000013743, 32.885299991143427 ], [ 61.807, 32.907099989560791 ], [ 61.8352, 32.922699989568621 ], [ 61.8395, 32.945599989580217 ], [ 61.8802, 32.967699989591324 ], [ 61.9083, 32.993799989604469 ], [ 61.922699999841981, 32.993999989602393 ], [ 61.9222, 32.9611 ], [ 61.9129, 32.9208 ], [ 61.912900002090502, 32.920799998626528 ], [ 61.9129, 32.920799989567698 ], [ 61.9543, 32.893599989553984 ], [ 61.9702, 32.903499989558973 ], [ 61.9807, 32.897499989555946 ], [ 62.0129, 32.911099989562786 ], [ 62.024099996379313, 32.908399990434248 ], [ 62.016, 32.887 ], [ 62.01600000322393, 32.886999998068255 ], [ 62.016, 32.886999989550702 ], [ 62.0407, 32.872199989543191 ], [ 62.0817, 32.88379998954909 ], [ 62.0941, 32.903599989559012 ], [ 62.1058, 32.901799989558128 ], [ 62.1416, 32.930899989572772 ], [ 62.162, 32.942999989578901 ], [ 62.1747, 32.963199989589036 ], [ 62.1955, 32.972299989593644 ], [ 62.2745, 32.996199989605699 ], [ 62.3146, 32.983799989599433 ], [ 62.3528, 32.987099989601091 ], [ 62.3792, 32.986399989600777 ], [ 62.4004, 32.994099989604628 ], [ 62.4088, 33.014199989614795 ], [ 62.4529, 33.042499989629093 ], [ 62.4708, 33.042999989629315 ], [ 62.4955, 33.051999989633856 ], [ 62.506, 33.029999989622759 ], [ 62.5294, 33.00309998960919 ], [ 62.5491, 33.008799989612044 ], [ 62.5842, 33.038699989627119 ], [ 62.6205, 33.056999989636374 ], [ 62.6469, 33.056399989636077 ], [ 62.7046, 33.073299989644624 ], [ 62.7155, 33.08729998965169 ], [ 62.71549999895899, 33.087299998662921 ], [ 62.7155, 33.0873 ], [ 62.71230000113195, 33.11499999020154 ], [ 62.7311, 33.123899989670228 ], [ 62.7528, 33.112199989664326 ], [ 62.7659, 33.11799998966724 ], [ 62.7854, 33.111299989663827 ], [ 62.7919, 33.129399989672997 ], [ 62.8203, 33.140399989678592 ], [ 62.8425, 33.139199989677962 ], [ 62.907199998873487, 33.151999989461608 ], [ 62.9041, 33.123 ], [ 62.904100001090875, 33.122999999874729 ], [ 62.9041, 33.122999989669758 ], [ 62.925, 33.120599989668513 ], [ 62.9305, 33.129699989673142 ], [ 62.9821, 33.134699989675653 ], [ 63.0093, 33.158599989687772 ], [ 63.0239, 33.149699989683256 ], [ 63.0434, 33.150699989683787 ], [ 63.0739, 33.132999989674815 ], [ 63.0954, 33.140099989678404 ], [ 63.1003, 33.154899989685902 ], [ 63.10029999735481, 33.154899992010456 ], [ 63.1003, 33.1549 ], [ 63.0904, 33.1636 ], [ 63.0898, 33.2099 ], [ 63.0556, 33.2289 ], [ 63.04480000131656, 33.247699997708217 ], [ 63.05, 33.279199989748903 ], [ 63.0777, 33.29459998975674 ], [ 63.1415, 33.309499989764284 ], [ 63.1507, 33.326999989773199 ], [ 63.15069999678591, 33.326999993886247 ], [ 63.1507, 33.327 ], [ 63.1246, 33.3604 ], [ 63.123300000719667, 33.37729999064436 ], [ 63.1393, 33.396099989808299 ], [ 63.139299996455058, 33.396099995834696 ], [ 63.1393, 33.3961 ], [ 63.1183, 33.4318 ], [ 63.101100004302687, 33.450199995397135 ], [ 63.1158, 33.469199989845514 ], [ 63.1506, 33.465999989843858 ], [ 63.1682, 33.476099989849011 ], [ 63.1946, 33.464699989843204 ], [ 63.2212, 33.468999989845422 ], [ 63.284199997076236, 33.448599990781766 ], [ 63.2685, 33.3991 ], [ 63.251, 33.3705 ], [ 63.2613, 33.3434 ], [ 63.2929, 33.34 ], [ 63.2949, 33.3334 ], [ 63.3381, 33.3163 ], [ 63.342, 33.3274 ], [ 63.3611, 33.3365 ], [ 63.3604, 33.3563 ], [ 63.3906, 33.3616 ], [ 63.4179, 33.3438 ], [ 63.4552, 33.3494 ], [ 63.4892, 33.3365 ], [ 63.5004, 33.3542 ], [ 63.5372, 33.3532 ], [ 63.5669, 33.3653 ], [ 63.547, 33.3838 ], [ 63.5554, 33.4002 ], [ 63.5958, 33.4003 ], [ 63.6159, 33.3958 ], [ 63.6347, 33.3837 ], [ 63.6609, 33.3859 ], [ 63.6863, 33.3945 ], [ 63.7166, 33.3954 ], [ 63.748, 33.4174 ], [ 63.7732, 33.418 ], [ 63.7807, 33.4044 ], [ 63.824, 33.411 ], [ 63.8268, 33.4331 ], [ 63.8526, 33.435 ], [ 63.8687, 33.4711 ], [ 63.9047, 33.4797 ], [ 63.9195, 33.5022 ], [ 63.9426, 33.5113 ], [ 63.9528, 33.5164 ], [ 63.9736, 33.5035 ], [ 63.9753, 33.4864 ], [ 63.9916, 33.4698 ], [ 63.9958, 33.4511 ], [ 64.0343, 33.4496 ], [ 64.0507, 33.445 ], [ 64.0471, 33.4251 ], [ 64.0745, 33.4133 ], [ 64.0809, 33.3742 ], [ 64.1083, 33.3483 ], [ 64.1005, 33.329 ], [ 64.1074, 33.3142 ], [ 64.0994, 33.2878 ], [ 64.1288, 33.271 ], [ 64.1505, 33.2688 ], [ 64.18, 33.2339 ], [ 64.1811, 33.2224 ], [ 64.1975, 33.1901 ], [ 64.2274, 33.1615 ], [ 64.2411, 33.1589 ], [ 64.2658, 33.1659 ], [ 64.291, 33.1383 ], [ 64.3181, 33.1279 ], [ 64.3391, 33.1264 ], [ 64.3517, 33.137 ], [ 64.371, 33.1372 ], [ 64.3916, 33.1281 ], [ 64.408, 33.1579 ], [ 64.431, 33.185 ], [ 64.456, 33.2054 ], [ 64.4817, 33.2118 ], [ 64.5117, 33.211 ], [ 64.5461, 33.1863 ], [ 64.5781, 33.2077 ], [ 64.6088, 33.2143 ], [ 64.6289, 33.2328 ], [ 64.6422, 33.2278 ], [ 64.6787, 33.2529 ], [ 64.6947, 33.2511 ], [ 64.7088, 33.2323 ], [ 64.70880000794476, 33.23229999433822 ], [ 64.7088, 33.232299989725128 ], [ 64.726199998398201, 33.219899990860327 ], [ 64.7228, 33.2005 ], [ 64.6951, 33.1781 ], [ 64.695100004013369, 33.178099992943146 ], [ 64.6951, 33.178099989697671 ], [ 64.7071, 33.156999989686945 ], [ 64.729299997348761, 33.15169999031724 ], [ 64.7247, 33.1349 ], [ 64.6786, 33.1131 ], [ 64.6371, 33.0739 ], [ 64.6118, 33.0681 ], [ 64.6099, 33.0549 ], [ 64.5914, 33.047 ], [ 64.586, 33.0345 ], [ 64.5597, 33.0148 ], [ 64.559700004690214, 33.014799993128307 ], [ 64.5597, 33.014799989615113 ], [ 64.5683, 33.002199989608698 ], [ 64.568999999614107, 32.983899999687949 ], [ 64.5528, 32.9708 ], [ 64.5462, 32.9343 ], [ 64.546200001860043, 32.934299999861075 ], [ 64.5462, 32.934299989574477 ], [ 64.5703, 32.932499989573571 ], [ 64.581499997547937, 32.911999994051456 ], [ 64.5761, 32.8989 ], [ 64.5369, 32.8917 ], [ 64.5105, 32.8788 ], [ 64.4753, 32.8712 ], [ 64.4294, 32.8536 ], [ 64.4051, 32.8517 ], [ 64.3858, 32.8413 ], [ 64.3777, 32.8217 ], [ 64.3601, 32.8137 ], [ 64.3449, 32.7914 ], [ 64.3292, 32.7792 ], [ 64.329200002237769, 32.779199991235409 ], [ 64.3292, 32.779199989496504 ], [ 64.333999997570814, 32.760399999001407 ], [ 64.2997, 32.7463 ], [ 64.2748, 32.7308 ], [ 64.26, 32.7072 ], [ 64.260000001821552, 32.707199992364984 ], [ 64.26, 32.707199989460349 ], [ 64.2647, 32.687499989450529 ], [ 64.2829, 32.672599989443043 ], [ 64.3019, 32.670099989441788 ], [ 64.305199997818264, 32.656299998558502 ], [ 64.2884, 32.6452 ], [ 64.288400000563712, 32.645199989801782 ], [ 64.2884, 32.645199989429322 ], [ 64.289499999415639, 32.625299999991014 ], [ 64.2635, 32.6249 ], [ 64.2275, 32.608 ], [ 64.2208, 32.5999 ], [ 64.1831, 32.5943 ], [ 64.18310000476859, 32.594299990112177 ], [ 64.1831, 32.594299989403844 ], [ 64.189899994821317, 32.580200000134944 ], [ 64.1592, 32.581 ], [ 64.1132, 32.5697 ], [ 64.0812, 32.5661 ], [ 64.064, 32.5539 ], [ 64.0344, 32.5788 ], [ 63.993, 32.5602 ], [ 63.9845, 32.5389 ], [ 63.984500002480075, 32.538899995590974 ], [ 63.9845, 32.538899989376198 ], [ 63.9935, 32.522899989368234 ], [ 64.0006, 32.502199989357905 ], [ 64.022199994885426, 32.475499995666816 ], [ 64.0078, 32.4633 ], [ 64.007800003150322, 32.463299992007521 ], [ 64.0078, 32.463299989338502 ], [ 64.013199996752988, 32.449599997569486 ], [ 63.9961, 32.4368 ], [ 63.9792, 32.436 ], [ 63.9593, 32.4014 ], [ 63.9464, 32.3964 ], [ 63.9225, 32.4129 ], [ 63.8971, 32.385 ], [ 63.8646, 32.3689 ], [ 63.8575, 32.3583 ], [ 63.8343, 32.344 ], [ 63.834300005286011, 32.343999992537398 ], [ 63.8343, 32.343999989279212 ], [ 63.839399997062067, 32.336799993423341 ], [ 63.8285, 32.3124 ], [ 63.8045, 32.3215 ], [ 63.7723, 32.3278 ], [ 63.7395, 32.3177 ], [ 63.7238, 32.3236 ], [ 63.7048, 32.2992 ], [ 63.6456, 32.2546 ], [ 63.615, 32.2233 ], [ 63.582, 32.2121 ], [ 63.5492, 32.2118 ], [ 63.534, 32.2025 ], [ 63.534000005056477, 32.202499992302918 ], [ 63.534, 32.202499989209151 ], [ 63.551999999583465, 32.17509998982969 ], [ 63.5508, 32.1458 ], [ 63.5256, 32.1208 ], [ 63.5062, 32.0943 ], [ 63.4898, 32.0805 ], [ 63.4694, 32.0739 ], [ 63.46, 32.0572 ], [ 63.4568, 32.0369 ], [ 63.4114, 31.9664 ], [ 63.3783, 31.9021 ], [ 63.3646, 31.8808 ], [ 63.3625, 31.8616 ], [ 63.3434, 31.8168 ], [ 63.3357, 31.7914 ], [ 63.3076, 31.7553 ], [ 63.3042, 31.693 ], [ 63.304200000337119, 31.69299999513656 ], [ 63.3042, 31.692999988959428 ], [ 63.311699999793298, 31.584799991889049 ], [ 63.3071, 31.4043 ], [ 63.3009, 31.3831 ], [ 63.297, 31.3449 ], [ 63.297000000645561, 31.344899995114652 ], [ 63.297, 31.34489998879144 ], [ 63.300699998765978, 31.316899998116494 ], [ 63.2912, 31.3024 ], [ 63.2899, 31.2814 ], [ 63.2824, 31.2142 ], [ 63.2666, 31.1531 ], [ 63.2372, 31.1198 ], [ 63.2096, 31.0757 ], [ 63.1815, 31.0415 ], [ 63.1538, 30.9831 ], [ 63.1339, 30.9488 ], [ 63.0879, 30.8234 ], [ 63.015, 30.6226 ], [ 62.9925, 30.5206 ], [ 62.967, 30.3962 ], [ 62.923, 30.3231 ], [ 62.8674, 30.2654 ], [ 62.8498, 30.2403 ], [ 62.836, 30.2192 ], [ 62.7806, 30.1096 ], [ 62.7473, 30.0262 ], [ 62.7253, 29.9962 ], [ 62.6811, 29.9028 ], [ 62.6284, 29.6731 ], [ 62.6264, 29.6615 ], [ 62.6246, 29.5346 ], [ 62.5661, 29.4152 ], [ 62.4775, 29.4079 ], [ 62.3746, 29.4249 ], [ 61.9543, 29.5429 ], [ 60.8759, 29.8455 ], [ 60.8442, 29.8582 ], [ 60.9785, 29.9945 ], [ 61.7852, 30.8314 ], [ 61.7998, 30.845 ] ] ], [ [ [ 63.2842, 33.4486 ], [ 63.28419999956472, 33.448599998627628 ], [ 63.284199999488585, 33.448600000165598 ], [ 63.2842, 33.4486 ] ] ] ] } },
{ "type": "Feature", "properties": { "z": "AFG_BADAKHSHAN", "name": "Afghanistan - Badakhshan", "ISO_A3": "AFG", "c": "AFG", "status": "not modelled", "reason": "Badakhshan: not connected to NEPS; supplied by isolated Pamir Energy cross-border micro-grids that are outside the modelled system.", "admin_units": "Badakhshan", "admin_source": "World Bank GAD, artifact wb_boundaries_20260820", "area_km2": 43441 }, "geometry": { "type": "Polygon", "coordinates": [ [ [ 71.4599, 36.9698 ], [ 71.4599, 36.969799991650326 ], [ 71.4631, 36.947999991639144 ], [ 71.4718, 36.92999999162992 ], [ 71.5287, 36.856099991591947 ], [ 71.5384, 36.836099991581676 ], [ 71.5452, 36.789999991557941 ], [ 71.5528, 36.769599991547473 ], [ 71.5639, 36.750699991537758 ], [ 71.5773, 36.733199991528778 ], [ 71.6111, 36.70489999151421 ], [ 71.63, 36.696799991510055 ], [ 71.6456, 36.690099991506564 ], [ 71.6491, 36.688599991505804 ], [ 71.6529, 36.686999991504976 ], [ 71.7, 36.678699991500729 ], [ 71.7486, 36.678699991500729 ], [ 71.7976, 36.686099991504534 ], [ 71.8365, 36.699199991511286 ], [ 72.0157, 36.806399991566408 ], [ 72.0286, 36.814099991570387 ], [ 72.0538, 36.829199991578122 ], [ 72.0705, 36.83909999158324 ], [ 72.1266, 36.872699991600513 ], [ 72.1529, 36.895599991612201 ], [ 72.1867, 36.911399991620335 ], [ 72.1961, 36.918999991624268 ], [ 72.2105, 36.936599991633287 ], [ 72.2202, 36.945599991637891 ], [ 72.2598, 36.96729999164905 ], [ 72.361, 37.000199991665909 ], [ 72.406, 37.007699991669774 ], [ 72.4212, 37.005399991668632 ], [ 72.4576, 37.000099991665842 ], [ 72.4751, 36.997499991664561 ], [ 72.5086, 37.011099991671479 ], [ 72.607, 37.022799991677509 ], [ 72.6393, 37.026699991679486 ], [ 72.6576, 37.028899991680646 ], [ 72.6666, 37.038299991685449 ], [ 72.6727, 37.057599991695362 ], [ 72.7145, 37.109999991722233 ], [ 72.7609, 37.187399991761865 ], [ 72.7908, 37.220199991778614 ], [ 72.8304, 37.239799991788693 ], [ 72.8776, 37.246799991792258 ], [ 72.9024, 37.253799991795795 ], [ 72.9244, 37.274899991806613 ], [ 72.9414, 37.283099991810779 ], [ 72.961, 37.292599991815663 ], [ 72.9957, 37.309399991824229 ], [ 73.0677, 37.315099991827132 ], [ 73.0878, 37.326099991832791 ], [ 73.0993, 37.339799991839776 ], [ 73.1072, 37.353399991846722 ], [ 73.1142, 37.365499991852907 ], [ 73.1163, 37.368999991854679 ], [ 73.1321, 37.38429999186247 ], [ 73.1401, 37.389399991865105 ], [ 73.1703, 37.408199991874682 ], [ 73.1707, 37.408399991874781 ], [ 73.1789, 37.410699991875966 ], [ 73.1904, 37.407199991874165 ], [ 73.2005, 37.404199991872638 ], [ 73.2063, 37.406299991873688 ], [ 73.2117, 37.408199991874682 ], [ 73.2603, 37.449999991896028 ], [ 73.2761, 37.459499991900856 ], [ 73.2963, 37.464899991903614 ], [ 73.3211, 37.467099991904739 ], [ 73.3446, 37.464499991903381 ], [ 73.3449, 37.464499991903381 ], [ 73.3618, 37.456299991899186 ], [ 73.37, 37.454499991898267 ], [ 73.3783, 37.45259999189733 ], [ 73.4406, 37.479899991911211 ], [ 73.4853, 37.480899991911762 ], [ 73.5122, 37.472999991907727 ], [ 73.5534, 37.460899991901577 ], [ 73.6051, 37.445699991893825 ], [ 73.6513, 37.43589999188881 ], [ 73.6746, 37.43099999188631 ], [ 73.7178, 37.431899991886773 ], [ 73.753499998199032, 37.428399992061543 ], [ 73.7459, 37.3949 ], [ 73.7455, 37.3529 ], [ 73.7391, 37.3383 ], [ 73.7221, 37.3224 ], [ 73.7087, 37.3135 ], [ 73.7049, 37.3109 ], [ 73.6905, 37.3052 ], [ 73.6519, 37.3021 ], [ 73.6473, 37.3007 ], [ 73.6311, 37.296 ], [ 73.6098, 37.2815 ], [ 73.5972, 37.2618 ], [ 73.597200001271887, 37.261799993788479 ], [ 73.5972, 37.261799991799904 ], [ 73.6015, 37.240799991789196 ], [ 73.6177, 37.23319999178527 ], [ 73.6599, 37.24369999179067 ], [ 73.6804, 37.242399991790002 ], [ 73.6879, 37.236899991787169 ], [ 73.7023, 37.221199991779116 ], [ 73.7092, 37.217099991777069 ], [ 73.72, 37.217499991777224 ], [ 73.7362, 37.227599991782419 ], [ 73.7383, 37.228199991782738 ], [ 73.7463, 37.230499991783937 ], [ 73.7629, 37.229299991783279 ], [ 73.7686, 37.228899991783081 ], [ 73.7841, 37.225899991781546 ], [ 73.7981, 37.228499991782876 ], [ 73.8035, 37.232499991784898 ], [ 73.8363, 37.256699991797333 ], [ 73.8564, 37.26159999179982 ], [ 73.8787, 37.263599991800838 ], [ 73.8993, 37.265399991801779 ], [ 73.9421, 37.281599991810069 ], [ 73.9558, 37.286699991812625 ], [ 73.9576, 37.287099991812852 ], [ 73.9767, 37.290299991814514 ], [ 73.9911, 37.294499991816629 ], [ 74.0239, 37.303999991821506 ], [ 74.0288, 37.305399991822192 ], [ 74.0523, 37.312199991825651 ], [ 74.1305, 37.324799991832101 ], [ 74.1631, 37.330099991834842 ], [ 74.1849, 37.337499991838584 ], [ 74.1876, 37.338399991839033 ], [ 74.206, 37.355599991847853 ], [ 74.2078, 37.389899991865327 ], [ 74.224, 37.403399991872213 ], [ 74.2361, 37.403499991872273 ], [ 74.2503, 37.403699991872379 ], [ 74.2794, 37.397499991869253 ], [ 74.3039, 37.400199991870608 ], [ 74.3041, 37.400599991870813 ], [ 74.3158, 37.426799991884181 ], [ 74.3208, 37.413799991877532 ], [ 74.3323, 37.420399991880878 ], [ 74.3439, 37.420999991881203 ], [ 74.3473, 37.419199991880284 ], [ 74.3536, 37.415999991878671 ], [ 74.3683, 37.39639999186867 ], [ 74.3781, 37.393799991867347 ], [ 74.4146, 37.389599991865211 ], [ 74.4182, 37.38919999186497 ], [ 74.4184, 37.38919999186497 ], [ 74.4547, 37.393599991867212 ], [ 74.4767, 37.386099991863418 ], [ 74.5213, 37.375599991858024 ], [ 74.564, 37.377699991859117 ], [ 74.5983, 37.379399991859991 ], [ 74.6315, 37.381099991860864 ], [ 74.6365, 37.383299991861961 ], [ 74.6603, 37.393899991867357 ], [ 74.6708, 37.388799991864765 ], [ 74.7885, 37.331099991835316 ], [ 74.8169, 37.306899991822995 ], [ 74.8626, 37.244499991791059 ], [ 74.862603215618151, 37.244498531137388 ], [ 74.8869, 37.2334 ], [ 74.892099311310091, 37.231100304612845 ], [ 74.892099987463013, 37.231099997478971 ], [ 74.8737, 37.2274 ], [ 74.8133, 37.2155 ], [ 74.809, 37.2151 ], [ 74.7939, 37.2139 ], [ 74.7834, 37.2196 ], [ 74.7464, 37.2844 ], [ 74.7442, 37.2883 ], [ 74.7373, 37.296 ], [ 74.7215, 37.2978 ], [ 74.7093, 37.2908 ], [ 74.6988, 37.2803 ], [ 74.6761, 37.2637 ], [ 74.6711, 37.2613 ], [ 74.6509, 37.2597 ], [ 74.6463, 37.2548 ], [ 74.6449, 37.2521 ], [ 74.643, 37.2484 ], [ 74.6301, 37.2382 ], [ 74.6232, 37.2308 ], [ 74.6149, 37.2284 ], [ 74.6092, 37.2302 ], [ 74.5966, 37.2408 ], [ 74.5901, 37.2434 ], [ 74.5859, 37.243 ], [ 74.5761, 37.2421 ], [ 74.5676, 37.2402 ], [ 74.5321, 37.2322 ], [ 74.5014, 37.2317 ], [ 74.5001, 37.2316 ], [ 74.4871, 37.2259 ], [ 74.4767, 37.21 ], [ 74.4717, 37.1989 ], [ 74.4702, 37.1954 ], [ 74.4677, 37.1899 ], [ 74.4565, 37.1773 ], [ 74.4414, 37.1705 ], [ 74.4202, 37.1681 ], [ 74.3824, 37.172 ], [ 74.3683, 37.1671 ], [ 74.3662, 37.1478 ], [ 74.3827, 37.1266 ], [ 74.4144, 37.1079 ], [ 74.4767, 37.0831 ], [ 74.494, 37.0665 ], [ 74.5059, 37.047 ], [ 74.5192, 37.0303 ], [ 74.5344, 37.0246 ], [ 74.5422, 37.0217 ], [ 74.542200005245405, 37.021699993828939 ], [ 74.5422, 37.021699991676975 ], [ 74.5473, 37.015699991673877 ], [ 74.549399998654465, 37.008999995963357 ], [ 74.5444, 36.994 ], [ 74.5408, 36.9772 ], [ 74.5375, 36.9622 ], [ 74.5265, 36.9596 ], [ 74.5213, 36.9585 ], [ 74.5144, 36.9634 ], [ 74.5028, 36.9718 ], [ 74.5019, 36.9725 ], [ 74.4887, 36.9874 ], [ 74.4803, 36.997 ], [ 74.4767, 36.9992 ], [ 74.4569, 37.0044 ], [ 74.4533, 37.0042 ], [ 74.4357, 37.0033 ], [ 74.418, 36.9993 ], [ 74.3939, 36.994 ], [ 74.368, 36.9768 ], [ 74.2845, 36.9343 ], [ 74.2359, 36.9022 ], [ 74.2211, 36.8979 ], [ 74.2117, 36.8951 ], [ 74.1607, 36.9002 ], [ 74.1459, 36.9016 ], [ 74.1297, 36.8984 ], [ 74.1153, 36.8895 ], [ 74.1088, 36.8756 ], [ 74.1041, 36.8413 ], [ 74.1038, 36.841 ], [ 74.0944, 36.8312 ], [ 74.0353, 36.8156 ], [ 74.0065, 36.8158 ], [ 73.9767, 36.8248 ], [ 73.9468, 36.8308 ], [ 73.8651, 36.8726 ], [ 73.8341, 36.8829 ], [ 73.7729, 36.8921 ], [ 73.772884152781799, 36.892100536991578 ], [ 73.6712, 36.895599991612201 ], [ 73.64010484476745, 36.896599835832426 ], [ 73.6401, 36.8966 ], [ 73.5485, 36.884 ], [ 73.5275, 36.8811 ], [ 73.5094, 36.8786 ], [ 73.4496, 36.886 ], [ 73.4472, 36.8863 ], [ 73.446, 36.8865 ], [ 73.3798, 36.8792 ], [ 73.3718, 36.8797 ], [ 73.3506, 36.8809 ], [ 73.3319, 36.882 ], [ 73.3162, 36.8776 ], [ 73.3018, 36.8736 ], [ 73.2819, 36.868 ], [ 73.2675, 36.8666 ], [ 73.2527, 36.868 ], [ 73.2235, 36.8743 ], [ 73.1919, 36.877 ], [ 73.049, 36.8649 ], [ 73.0425, 36.8643 ], [ 73.0325, 36.8613 ], [ 73.0263, 36.8594 ], [ 73.0021, 36.8461 ], [ 72.9906, 36.8415 ], [ 72.9769, 36.8421 ], [ 72.946, 36.8523 ], [ 72.9336, 36.8499 ], [ 72.9211, 36.8474 ], [ 72.9181, 36.8461 ], [ 72.897, 36.837 ], [ 72.8679, 36.8304 ], [ 72.7793, 36.8268 ], [ 72.6958, 36.8367 ], [ 72.6295, 36.833 ], [ 72.5651, 36.8206 ], [ 72.5369, 36.8089 ], [ 72.5169, 36.8006 ], [ 72.4831, 36.7776 ], [ 72.4542, 36.758 ], [ 72.433, 36.7534 ], [ 72.3873, 36.7558 ], [ 72.3462, 36.7449 ], [ 72.3065, 36.7429 ], [ 72.3019, 36.7427 ], [ 72.2941, 36.7412 ], [ 72.2173, 36.7271 ], [ 72.2137, 36.7265 ], [ 72.1698, 36.7113 ], [ 72.1536, 36.7022 ], [ 72.1497, 36.6893 ], [ 72.149700001854868, 36.689299997641491 ], [ 72.1497, 36.689299991506154 ], [ 72.1648, 36.670099991496265 ], [ 72.1694, 36.658999991490553 ], [ 72.171599997087611, 36.653599998636395 ], [ 72.1543, 36.6455 ], [ 72.096, 36.6389 ], [ 72.0923, 36.6379 ], [ 72.0708, 36.6323 ], [ 72.0589, 36.6272 ], [ 72.0503, 36.6186 ], [ 72.050300001535433, 36.618599993005219 ], [ 72.0503, 36.618599991469779 ], [ 72.0521, 36.610399991465513 ], [ 72.056399998986905, 36.60179999348729 ], [ 72.055, 36.5928 ], [ 72.052, 36.5906 ], [ 72.0388, 36.5805 ], [ 72.0287, 36.5786 ], [ 71.9977, 36.5725 ], [ 71.9772, 36.5631 ], [ 71.9687, 36.556 ], [ 71.961, 36.5496 ], [ 71.9246, 36.5327 ], [ 71.9135, 36.5276 ], [ 71.8787, 36.5021 ], [ 71.8746, 36.4991 ], [ 71.8584, 36.4942 ], [ 71.8003, 36.4911 ], [ 71.7936, 36.4908 ], [ 71.7731, 36.4801 ], [ 71.773100000371329, 36.480099991592198 ], [ 71.7731, 36.480099991398383 ], [ 71.7745, 36.448399991382018 ], [ 71.7915, 36.421199991368006 ], [ 71.794299998506389, 36.407599998615673 ], [ 71.7902, 36.4038 ], [ 71.7825, 36.3965 ], [ 71.767, 36.3919 ], [ 71.7511, 36.391 ], [ 71.7364, 36.3959 ], [ 71.7069, 36.4214 ], [ 71.6493, 36.4527 ], [ 71.6389, 36.4563 ], [ 71.6291, 36.4596 ], [ 71.6104, 36.4579 ], [ 71.6007, 36.4493 ], [ 71.5888, 36.4184 ], [ 71.5805, 36.4023 ], [ 71.5722, 36.3916 ], [ 71.547, 36.3716 ], [ 71.5423, 36.3564 ], [ 71.542300001843429, 36.3563999972963 ], [ 71.5423, 36.35639999133457 ], [ 71.5528, 36.340999991326598 ], [ 71.558199996966138, 36.327799998735898 ], [ 71.557, 36.3273 ], [ 71.5391, 36.3193 ], [ 71.5228, 36.3166 ], [ 71.5146, 36.3152 ], [ 71.4959, 36.3096 ], [ 71.479, 36.3005 ], [ 71.4027, 36.2313 ], [ 71.3825, 36.2186 ], [ 71.3191, 36.2006 ], [ 71.3141, 36.194 ], [ 71.3091, 36.1727 ], [ 71.3022, 36.1634 ], [ 71.2929, 36.1579 ], [ 71.2623, 36.146 ], [ 71.223, 36.1254 ], [ 71.2176, 36.118 ], [ 71.2126, 36.0968 ], [ 71.2075, 36.0877 ], [ 71.1755, 36.0612 ], [ 71.1658, 36.0457 ], [ 71.165800001653452, 36.045699993816115 ], [ 71.1658, 36.045699991174011 ], [ 71.1708, 36.026999991164345 ], [ 71.170800238235458, 36.026999816741956 ], [ 71.1721, 36.026 ], [ 71.1699, 36.0248 ], [ 71.1509, 36.0235 ], [ 71.1229, 36.0058 ], [ 71.122900002320307, 36.005799992620148 ], [ 71.1229, 36.005799991153381 ], [ 71.130099998520066, 35.982899995848513 ], [ 71.1224, 35.9613 ], [ 71.1016, 35.9492 ], [ 71.0776, 35.9201 ], [ 71.066, 35.8965 ], [ 71.066000000245936, 35.896499991597189 ], [ 71.066, 35.896499991096839 ], [ 71.0671999997505, 35.855499999600198 ], [ 71.0589, 35.8422 ], [ 71.0301, 35.819 ], [ 71.0198, 35.7944 ], [ 70.9904, 35.7864 ], [ 70.984, 35.7602 ], [ 70.98400000190793, 35.760199998836939 ], [ 70.984, 35.760199991026305 ], [ 71.013199998464344, 35.742399991953214 ], [ 71.0082, 35.7162 ], [ 71.008200001103845, 35.71619999678768 ], [ 71.0082, 35.716199991003514 ], [ 71.017099997632783, 35.690299997878974 ], [ 71.0046, 35.6791 ], [ 70.9819, 35.6773 ], [ 70.9749, 35.6487 ], [ 70.9655, 35.644 ], [ 70.9511, 35.6204 ], [ 70.9338, 35.6222 ], [ 70.9054, 35.6362 ], [ 70.8796, 35.6371 ], [ 70.879600001562679, 35.637099990908013 ], [ 70.8796, 35.637099990962525 ], [ 70.882899998604174, 35.617899999073799 ], [ 70.8722, 35.6108 ], [ 70.872200003667857, 35.610799993382749 ], [ 70.8722, 35.610799990948948 ], [ 70.881899997611455, 35.593299995249147 ], [ 70.8728, 35.5752 ], [ 70.872800002298035, 35.575199995501315 ], [ 70.8728, 35.5751999909305 ], [ 70.884599999791035, 35.552099991327651 ], [ 70.8842, 35.5355 ], [ 70.884200000212431, 35.535499999725701 ], [ 70.8842, 35.535499990909955 ], [ 70.894499998110732, 35.522199993342618 ], [ 70.8903, 35.5074 ], [ 70.8692, 35.4773 ], [ 70.8238, 35.4776 ], [ 70.7954, 35.5009 ], [ 70.7779, 35.5038 ], [ 70.7486, 35.4909 ], [ 70.7376, 35.494 ], [ 70.7276, 35.5123 ], [ 70.6864, 35.5457 ], [ 70.6625, 35.5251 ], [ 70.6432, 35.5207 ], [ 70.643200005220081, 35.520699992092339 ], [ 70.6432, 35.520699990902266 ], [ 70.653299998337928, 35.505399993412148 ], [ 70.6478, 35.4836 ], [ 70.6352, 35.4608 ], [ 70.6049, 35.461 ], [ 70.5952, 35.4487 ], [ 70.5637, 35.4407 ], [ 70.540200001520233, 35.452399999243113 ], [ 70.5453, 35.480499990881462 ], [ 70.545299998688776, 35.480499992775442 ], [ 70.5453, 35.4805 ], [ 70.533600003332126, 35.497399995186932 ], [ 70.5412, 35.507199990895273 ], [ 70.5616, 35.571299990928495 ], [ 70.56159999840564, 35.571299994990298 ], [ 70.5616, 35.5713 ], [ 70.5532, 35.5927 ], [ 70.5024, 35.6273 ], [ 70.495800000516354, 35.650899998153669 ], [ 70.4981, 35.682899990986243 ], [ 70.49809999933737, 35.682899990780882 ], [ 70.4981, 35.6829 ], [ 70.4739, 35.6754 ], [ 70.3975, 35.6988 ], [ 70.374, 35.716 ], [ 70.3417, 35.701 ], [ 70.3412, 35.6888 ], [ 70.3073, 35.658 ], [ 70.2856, 35.6505 ], [ 70.250500007513736, 35.663799997152914 ], [ 70.2623, 35.673499990981405 ], [ 70.262299998044327, 35.673499998392366 ], [ 70.2623, 35.6735 ], [ 70.254700001949942, 35.702299992610762 ], [ 70.264, 35.709999991000323 ], [ 70.263999998719441, 35.709999998939757 ], [ 70.264, 35.71 ], [ 70.260000001278399, 35.734799992073924 ], [ 70.2788, 35.75039999102124 ], [ 70.278799999180691, 35.750399999320138 ], [ 70.2788, 35.7504 ], [ 70.2757, 35.7818 ], [ 70.265900002982988, 35.790899997230078 ], [ 70.278, 35.815999991055186 ], [ 70.277999997706445, 35.815999995242279 ], [ 70.278, 35.816 ], [ 70.269400003644378, 35.831699993346895 ], [ 70.2927, 35.84629999107085 ], [ 70.292699997804903, 35.846299998624538 ], [ 70.2927, 35.8463 ], [ 70.289300002449735, 35.85799999157004 ], [ 70.3047, 35.86109999107854 ], [ 70.3167, 35.882199991089429 ], [ 70.3278, 35.884599991090688 ], [ 70.3488, 35.90489999110121 ], [ 70.3666, 35.910999991104362 ], [ 70.3895, 35.940999991119845 ], [ 70.4135, 35.952899991126017 ], [ 70.4328, 35.955699991127467 ], [ 70.4485, 35.989599991145042 ], [ 70.448499998420615, 35.989599996589746 ], [ 70.4485, 35.9896 ], [ 70.4447, 36.0027 ], [ 70.423300002580802, 36.037999995742879 ], [ 70.4496, 36.084599991194132 ], [ 70.4634, 36.134499991219968 ], [ 70.4807, 36.159899991233033 ], [ 70.4838, 36.186899991247031 ], [ 70.483799999072801, 36.186899991924385 ], [ 70.4838, 36.1869 ], [ 70.467100002125122, 36.199099998447522 ], [ 70.478, 36.235999991272351 ], [ 70.477999998535793, 36.235999995043187 ], [ 70.478, 36.236 ], [ 70.470700002689028, 36.254799993074812 ], [ 70.4848, 36.264199991286922 ], [ 70.484799996935408, 36.264199997956936 ], [ 70.4848, 36.2642 ], [ 70.4729, 36.2901 ], [ 70.452, 36.3095 ], [ 70.4192, 36.3238 ], [ 70.3903, 36.3259 ], [ 70.3695, 36.3183 ], [ 70.2966, 36.3299 ], [ 70.2331, 36.3221 ], [ 70.1802, 36.3377 ], [ 70.17, 36.3651 ], [ 70.1433, 36.3964 ], [ 70.1125, 36.4032 ], [ 70.1005, 36.4259 ], [ 70.0884, 36.4298 ], [ 70.079900002184445, 36.452299994217618 ], [ 70.0974, 36.474999991395734 ], [ 70.1138, 36.478599991397601 ], [ 70.114, 36.51789999141787 ], [ 70.113999999956462, 36.517899991444665 ], [ 70.114, 36.5179 ], [ 70.104900001677152, 36.523499998967907 ], [ 70.1151, 36.569399991444392 ], [ 70.115099998567786, 36.569399993555024 ], [ 70.1151, 36.5694 ], [ 70.09990000094983, 36.591799998600258 ], [ 70.1022, 36.609099991464873 ], [ 70.102199998964721, 36.609099992212954 ], [ 70.1022, 36.6091 ], [ 70.0575, 36.6414 ], [ 70.021400006750753, 36.657699996951877 ], [ 70.0434, 36.67549999149908 ], [ 70.043399998381219, 36.675499998690249 ], [ 70.0434, 36.6755 ], [ 70.0382, 36.6986 ], [ 70.01670000227989, 36.725599997136889 ], [ 70.0219, 36.738399991531431 ], [ 70.02189999712914, 36.73839999293326 ], [ 70.0219, 36.7384 ], [ 69.992, 36.753 ], [ 69.985500001688166, 36.78229999239025 ], [ 70.0071, 36.792999991559562 ], [ 70.007099994926378, 36.792999997486682 ], [ 70.0071, 36.793 ], [ 69.996400001354516, 36.805499998417623 ], [ 70.0101, 36.874799991601563 ], [ 70.0303, 36.887599991608141 ], [ 70.0337, 36.899499991614235 ], [ 70.033699997946727, 36.899499992813574 ], [ 70.0337, 36.8995 ], [ 70.0123, 36.912 ], [ 70.011800000181495, 36.93499999165082 ], [ 70.0385, 36.937699991633835 ], [ 70.047, 36.947999991639144 ], [ 70.046999998281052, 36.947999997917037 ], [ 70.047, 36.948 ], [ 70.042400001779484, 36.964799993501018 ], [ 70.0617, 36.984899991658047 ], [ 70.0981, 36.991499991661478 ], [ 70.1078, 37.014199991673152 ], [ 70.1147, 37.031999991682213 ], [ 70.1317, 37.047599991690227 ], [ 70.131699996242915, 37.047599996552329 ], [ 70.1317, 37.0476 ], [ 70.1215, 37.0608 ], [ 70.0956, 37.0752 ], [ 70.0889, 37.0926 ], [ 70.0596, 37.1097 ], [ 70.023300004909899, 37.137099996293912 ], [ 70.0484, 37.160399991748058 ], [ 70.0493, 37.182799991759474 ], [ 70.049299999704715, 37.182799992650608 ], [ 70.0493, 37.1828 ], [ 70.0381, 37.2166 ], [ 70.0201, 37.2319 ], [ 70.0165, 37.2699 ], [ 70.007100002240961, 37.294199994206863 ], [ 70.0206, 37.308599991823847 ], [ 70.0205999979637, 37.30859999782794 ], [ 70.0206, 37.3086 ], [ 70.007000000061666, 37.348699999818216 ], [ 70.0073, 37.387499991864104 ], [ 70.0151, 37.400899991870986 ], [ 70.015099996712962, 37.400899994353033 ], [ 70.0151, 37.4009 ], [ 69.9955, 37.4157 ], [ 69.991300000925094, 37.443499993876728 ], [ 70.0072, 37.477599991910026 ], [ 70.0228, 37.497699991920292 ], [ 70.025, 37.522799991933134 ], [ 70.0449, 37.541899991942806 ], [ 70.044899992696315, 37.541899992989926 ], [ 70.0449, 37.5419 ], [ 70.04799937555164, 37.541500080573982 ], [ 70.048, 37.541499991942601 ], [ 70.047999992549748, 37.541500000961321 ], [ 70.048, 37.5415 ], [ 70.047999650078708, 37.54150041553153 ], [ 70.046416666666673, 37.543416658610234 ], [ 70.0466, 37.543599991943701 ], [ 70.046599994245497, 37.543599994245497 ], [ 70.0466, 37.5436 ], [ 70.0461, 37.5438 ], [ 70.041900007656565, 37.54879999088503 ], [ 70.052, 37.547399991945625 ], [ 70.0579, 37.54669999194526 ], [ 70.0692, 37.545199991944514 ], [ 70.0991, 37.536599991940129 ], [ 70.129, 37.532299991937897 ], [ 70.1578, 37.541499991942601 ], [ 70.1806, 37.563999991954049 ], [ 70.1856, 37.568899991956563 ], [ 70.1927, 37.575999991960209 ], [ 70.1995, 37.579299991961868 ], [ 70.2021, 37.587999991966264 ], [ 70.2165, 37.617199991981117 ], [ 70.2377, 37.618199991981655 ], [ 70.2409, 37.617199991981117 ], [ 70.2539, 37.630799991988034 ], [ 70.2553, 37.637499991991426 ], [ 70.255299999437213, 37.637499997306655 ], [ 70.2553, 37.6375 ], [ 70.253500000788605, 37.654499992552111 ], [ 70.2625, 37.66079999200327 ], [ 70.2751, 37.675399992010718 ], [ 70.2769, 37.687999992017097 ], [ 70.2831, 37.704799992025634 ], [ 70.283099999503875, 37.704799998655659 ], [ 70.2831, 37.7048 ], [ 70.282, 37.7195 ], [ 70.2719, 37.7487 ], [ 70.269700000938428, 37.762599994070833 ], [ 70.2751, 37.774199992060893 ], [ 70.275099997233553, 37.774199994057291 ], [ 70.2751, 37.7742 ], [ 70.2654, 37.7812 ], [ 70.2564, 37.7918 ], [ 70.2499, 37.8049 ], [ 70.2471, 37.8191 ], [ 70.2402, 37.8275 ], [ 70.2075, 37.8356 ], [ 70.1959, 37.8399 ], [ 70.1929, 37.8436 ], [ 70.1839, 37.8547 ], [ 70.179, 37.8607 ], [ 70.1653, 37.8899 ], [ 70.160700000884134, 37.920699994080159 ], [ 70.1722, 37.945999992147847 ], [ 70.1804, 37.940699992145191 ], [ 70.1923, 37.93289999214123 ], [ 70.1965, 37.932199992140895 ], [ 70.2035, 37.931099992140346 ], [ 70.2147, 37.929299992139434 ], [ 70.2381, 37.932299992140905 ], [ 70.2615, 37.939299992144491 ], [ 70.261499993953322, 37.939299998191167 ], [ 70.2615, 37.9393 ], [ 70.2544, 37.9464 ], [ 70.2535, 37.9473 ], [ 70.2503, 37.9556 ], [ 70.2503, 37.964099992157031 ], [ 70.2539, 37.973399992161667 ], [ 70.2607, 37.976499992163276 ], [ 70.2726, 37.978099992164061 ], [ 70.2838, 37.981799992165939 ], [ 70.2888, 37.990799992170494 ], [ 70.2939, 37.996099992173185 ], [ 70.318, 38.006299992178306 ], [ 70.318000898893459, 38.006300541502085 ], [ 70.326298826824086, 38.011299293267513 ], [ 70.3263, 38.011299992180831 ], [ 70.3649, 38.051599992201176 ], [ 70.3706, 38.057499992204164 ], [ 70.3713, 38.058199992204507 ], [ 70.4155, 38.094599992222861 ], [ 70.426, 38.100599992225895 ], [ 70.4602, 38.112199992231744 ], [ 70.4703, 38.120499992235914 ], [ 70.4825, 38.137399992244447 ], [ 70.5084, 38.19249999227219 ], [ 70.5379, 38.237999992295052 ], [ 70.5473, 38.26259999230745 ], [ 70.5595, 38.268199992310215 ], [ 70.5721, 38.270799992311559 ], [ 70.5732, 38.27099999231168 ], [ 70.5829, 38.274999992313639 ], [ 70.5831, 38.275299992313784 ], [ 70.5966, 38.309199992330853 ], [ 70.596599999824889, 38.309199999560285 ], [ 70.5966, 38.3092 ], [ 70.595900000175931, 38.338099992736737 ], [ 70.5999, 38.346999992349787 ], [ 70.6092, 38.351199992351894 ], [ 70.6263, 38.350399992351498 ], [ 70.6323, 38.350199992351421 ], [ 70.6373, 38.352399992352503 ], [ 70.6413, 38.354199992353394 ], [ 70.6765, 38.374899992363751 ], [ 70.6848, 38.386699992369664 ], [ 70.684799996179947, 38.386699994569085 ], [ 70.6848, 38.3867 ], [ 70.6815, 38.3886 ], [ 70.6743, 38.393 ], [ 70.665, 38.3987 ], [ 70.665, 38.405399992379031 ], [ 70.6834, 38.414599992383671 ], [ 70.6901, 38.415099992383865 ], [ 70.7234, 38.417899992385301 ], [ 70.7405, 38.41929999238603 ], [ 70.7417, 38.419399992386033 ], [ 70.7423, 38.420199992386479 ], [ 70.7611, 38.443499992398102 ], [ 70.7656, 38.444299992398541 ], [ 70.7773, 38.446499992399644 ], [ 70.809, 38.446299992399503 ], [ 70.8102, 38.446099992399432 ], [ 70.8151, 38.444999992398884 ], [ 70.8342, 38.44059999239667 ], [ 70.8432, 38.440199992396458 ], [ 70.8457, 38.44119999239696 ], [ 70.8497, 38.442799992397752 ], [ 70.8594, 38.451599992402173 ], [ 70.8599, 38.451699992402226 ], [ 70.8709, 38.453199992403007 ], [ 70.9066, 38.439699992396228 ], [ 70.9123, 38.437599992395178 ], [ 70.9339, 38.433499992393159 ], [ 70.9361, 38.432999992392872 ], [ 70.9375, 38.434399992393601 ], [ 70.9469, 38.443199992397957 ], [ 70.946899998950244, 38.443199999017246 ], [ 70.9469, 38.4432 ], [ 70.943300001046566, 38.465899993400818 ], [ 70.9509, 38.473099992412919 ], [ 70.9577, 38.473299992413033 ], [ 70.9739, 38.473699992413245 ], [ 70.9869, 38.470899992411866 ], [ 70.9984, 38.465699992409228 ], [ 71.0085, 38.458499992405621 ], [ 71.0185, 38.449799992401275 ], [ 71.0247, 38.441899992397353 ], [ 71.0329, 38.423599992388162 ], [ 71.0394, 38.415299992384028 ], [ 71.0499, 38.408699992380704 ], [ 71.0524, 38.408799992380757 ], [ 71.0571, 38.408999992380842 ], [ 71.065, 38.411799992382235 ], [ 71.0769, 38.412099992382423 ], [ 71.0784, 38.411799992382235 ], [ 71.0895, 38.409799992381259 ], [ 71.1175, 38.398699992375718 ], [ 71.1561, 38.376199992364448 ], [ 71.1807, 38.355999992354327 ], [ 71.1957, 38.343799992348188 ], [ 71.2176, 38.325799992339142 ], [ 71.2215, 38.324599992338534 ], [ 71.2628, 38.310999992331759 ], [ 71.3001, 38.298599992325485 ], [ 71.3333, 38.28109999231674 ], [ 71.3343, 38.280599992316482 ], [ 71.3418, 38.271299992311782 ], [ 71.358, 38.251299992301774 ], [ 71.364499999302467, 38.206799997054837 ], [ 71.3591, 38.184 ], [ 71.3411, 38.1409 ], [ 71.335, 38.1135 ], [ 71.3346, 38.1116 ], [ 71.3185, 38.0873 ], [ 71.3159, 38.0833 ], [ 71.3044, 38.0478 ], [ 71.3026, 38.0423 ], [ 71.2975, 38.0348 ], [ 71.2797, 38.0084 ], [ 71.2727, 37.998 ], [ 71.2693, 37.9852 ], [ 71.2659, 37.9725 ], [ 71.2558, 37.9499 ], [ 71.2547, 37.9393 ], [ 71.254700000594227, 37.939299997870684 ], [ 71.2547, 37.939299992144491 ], [ 71.2583, 37.926399992137945 ], [ 71.2625, 37.924799992137117 ], [ 71.2637, 37.924299992136895 ], [ 71.2713, 37.926099992137765 ], [ 71.2817, 37.924999992137245 ], [ 71.2854, 37.922599992136057 ], [ 71.3199, 37.900499992124843 ], [ 71.326, 37.898399992123757 ], [ 71.3411, 37.893199992121161 ], [ 71.3609, 37.901999992125582 ], [ 71.3793, 37.912999992131184 ], [ 71.4941, 37.944199992146942 ], [ 71.5013, 37.94619999214796 ], [ 71.5339, 37.94459999214714 ], [ 71.5369, 37.944499992147101 ], [ 71.5386, 37.943599992146666 ], [ 71.5672, 37.927999992138766 ], [ 71.5895, 37.906299992127821 ], [ 71.597799995794546, 37.89839999612655 ], [ 71.5902, 37.8914 ], [ 71.590200001717562, 37.89139999370223 ], [ 71.5902, 37.891399992120256 ], [ 71.5923, 37.883699992116348 ], [ 71.5935, 37.879299992114156 ], [ 71.5942, 37.868199992108487 ], [ 71.594899999839768, 37.857499994552299 ], [ 71.5942, 37.8337 ], [ 71.5911, 37.8197 ], [ 71.5902, 37.8157 ], [ 71.5747, 37.7981 ], [ 71.5377, 37.779 ], [ 71.5294, 37.7611 ], [ 71.529400001076837, 37.761099994376522 ], [ 71.5294, 37.761099992054191 ], [ 71.5312, 37.751699992049446 ], [ 71.5402, 37.730499992038688 ], [ 71.542699999186127, 37.71949999561415 ], [ 71.5409, 37.7098 ], [ 71.5294, 37.6786 ], [ 71.5293, 37.6783 ], [ 71.5292, 37.6778 ], [ 71.5222, 37.6376 ], [ 71.5171, 37.6292 ], [ 71.5017, 37.6103 ], [ 71.4973, 37.5665 ], [ 71.49730000051288, 37.566499997060802 ], [ 71.4973, 37.566499991955311 ], [ 71.4999, 37.551599991947761 ], [ 71.5043, 37.526599991935015 ], [ 71.5044, 37.525799991934633 ], [ 71.5078, 37.506299991924735 ], [ 71.5113999991773, 37.485799996598985 ], [ 71.5017, 37.4457 ], [ 71.4901, 37.4234 ], [ 71.4873, 37.4091 ], [ 71.487300000765984, 37.409099995787102 ], [ 71.4873, 37.409099991875117 ], [ 71.4879, 37.405799991873444 ], [ 71.4948, 37.370699991855524 ], [ 71.4948, 37.3699 ], [ 71.4948, 37.369899991855135 ], [ 71.495, 37.36629999185331 ], [ 71.496599999734599, 37.328499998104235 ], [ 71.4959, 37.3235 ], [ 71.4937, 37.3075 ], [ 71.488, 37.295 ], [ 71.4869, 37.267 ], [ 71.4502, 37.2166 ], [ 71.450200001022793, 37.216599993181383 ], [ 71.4502, 37.216599991776789 ], [ 71.453799998966815, 37.192599998652369 ], [ 71.4469, 37.1836 ], [ 71.4412, 37.1684 ], [ 71.4333, 37.1273 ], [ 71.4314, 37.0763 ], [ 71.4311, 37.0669 ], [ 71.431100000224603, 37.066899998737902 ], [ 71.4311, 37.06689999170014 ], [ 71.4332, 37.0550999916941 ], [ 71.4333, 37.054799991693926 ], [ 71.439, 37.043999991688366 ], [ 71.4563, 37.022599991677396 ], [ 71.4599, 37.010699991671324 ], [ 71.4599, 36.9698 ] ] ] } },
{ "type": "Feature", "properties": { "z": "AFG_GHOR", "name": "Afghanistan - Ghor", "ISO_A3": "AFG", "c": "AFG", "status": "not modelled", "reason": "Ghor: no transmission connection to any modelled zone; isolated micro-hydro and diesel only.", "admin_units": "Ghor", "admin_source": "World Bank GAD, artifact wb_boundaries_20260820", "area_km2": 37008 }, "geometry": { "type": "Polygon", "coordinates": [ [ [ 65.044, 34.8448 ], [ 65.0336, 34.8825 ], [ 65.032700000403963, 34.902699990933279 ], [ 65.0426, 34.911299990586819 ], [ 65.0552, 34.957699990610784 ], [ 65.055199997637843, 34.957699991301261 ], [ 65.0552, 34.9577 ], [ 65.0357, 34.9634 ], [ 64.9923, 34.9963 ], [ 64.982000001069579, 35.0267999968328 ], [ 64.9857, 35.048199990657679 ], [ 64.985699998675258, 35.048199992338041 ], [ 64.9857, 35.0482 ], [ 64.9708, 35.0671 ], [ 64.9513, 35.0666 ], [ 64.926500000515816, 35.082299999673452 ], [ 64.9274, 35.097999990683391 ], [ 64.927399999493858, 35.097999991170404 ], [ 64.9274, 35.098 ], [ 64.9036, 35.1209 ], [ 64.8727, 35.1054 ], [ 64.8112, 35.1272 ], [ 64.7976, 35.1428 ], [ 64.7394, 35.178 ], [ 64.702100008264722, 35.207999993352772 ], [ 64.7369, 35.218999990746035 ], [ 64.7479, 35.217599990745327 ], [ 64.8128, 35.227199990750272 ], [ 64.8197, 35.217999990745547 ], [ 64.8627, 35.244799990759383 ], [ 64.872, 35.237699990755736 ], [ 64.9132, 35.229099990751315 ], [ 64.9171, 35.218899990745996 ], [ 64.9556, 35.226099990749731 ], [ 64.9655, 35.233099990753331 ], [ 65.014, 35.238599990756185 ], [ 65.017, 35.220199990746693 ], [ 65.0438, 35.232799990753215 ], [ 65.0597, 35.226999990750222 ], [ 65.1214, 35.262599990768649 ], [ 65.138, 35.2609999907678 ], [ 65.1502, 35.246099990760079 ], [ 65.1665, 35.248099990761098 ], [ 65.1936, 35.222699990747948 ], [ 65.2151, 35.225999990749678 ], [ 65.2308, 35.243999990759043 ], [ 65.2599, 35.233699990753664 ], [ 65.269099997475024, 35.207599997903372 ], [ 65.2579, 35.1983 ], [ 65.2539, 35.1788 ], [ 65.253900001709852, 35.178799999060786 ], [ 65.2539, 35.178799990725238 ], [ 65.2752, 35.167099990719187 ], [ 65.2841, 35.194299990733249 ], [ 65.2932, 35.197799990735106 ], [ 65.3142, 35.1842999907281 ], [ 65.3272, 35.193999990733097 ], [ 65.3637, 35.192499990732351 ], [ 65.389, 35.205499990739078 ], [ 65.4253, 35.242399990758166 ], [ 65.4447, 35.250999990762637 ], [ 65.4841, 35.231699990752631 ], [ 65.498, 35.241799990757841 ], [ 65.5413, 35.253099990763687 ], [ 65.5517, 35.245099990759591 ], [ 65.586, 35.244299990759139 ], [ 65.593, 35.260099990767308 ], [ 65.6257, 35.269599990772271 ], [ 65.6337, 35.280599990777972 ], [ 65.65149999656974, 35.269799992853621 ], [ 65.6443, 35.2548 ], [ 65.644300003345464, 35.254799997734345 ], [ 65.6443, 35.254799990764639 ], [ 65.679, 35.231299990752419 ], [ 65.6997, 35.20229999073743 ], [ 65.7321, 35.19669999073453 ], [ 65.7465, 35.183699990727789 ], [ 65.7531, 35.166399990718823 ], [ 65.7683, 35.157499990714214 ], [ 65.788, 35.128499990699247 ], [ 65.8278, 35.110999990690146 ], [ 65.8324, 35.102699990685849 ], [ 65.861, 35.101999990685464 ], [ 65.8741, 35.090399990679494 ], [ 65.9007, 35.085699990677057 ], [ 65.9333, 35.074399990671182 ], [ 65.9541, 35.082899990675607 ], [ 65.9887, 35.078199990673184 ], [ 65.997, 35.065799990666783 ], [ 66.0328, 35.095999990682365 ], [ 66.0519, 35.092199990680427 ], [ 66.0863, 35.09979999068436 ], [ 66.1082, 35.110699990690016 ], [ 66.116599997175058, 35.090799997372137 ], [ 66.108, 35.0828 ], [ 66.1072, 35.0522 ], [ 66.107200000235892, 35.052199999682323 ], [ 66.1072, 35.052199990659723 ], [ 66.127099997669276, 35.025399993784724 ], [ 66.1226, 35.0134 ], [ 66.122600002440294, 35.013399997147097 ], [ 66.1226, 35.013399990639648 ], [ 66.143299997902105, 34.989199993079701 ], [ 66.1356, 34.9638 ], [ 66.1238, 34.9553 ], [ 66.122, 34.9369 ], [ 66.122000000477257, 34.936899995478655 ], [ 66.122, 34.936899990600061 ], [ 66.1258, 34.900899990581443 ], [ 66.1419, 34.881399990571353 ], [ 66.1667, 34.874299990567621 ], [ 66.1852, 34.857199990558861 ], [ 66.1984, 34.858799990559667 ], [ 66.2095, 34.87989999057055 ], [ 66.2359, 34.88319999057228 ], [ 66.235899997955912, 34.883199999744491 ], [ 66.2359, 34.8832 ], [ 66.232000001439332, 34.900699993541465 ], [ 66.2426, 34.922499990592591 ], [ 66.2561, 34.922799990592743 ], [ 66.2679, 34.909499990585857 ], [ 66.2864, 34.903499990582773 ], [ 66.3032, 34.907799990584998 ], [ 66.328, 34.900399990581143 ], [ 66.3498, 34.913999990588209 ], [ 66.3649, 34.910299990586303 ], [ 66.38, 34.925399990594137 ], [ 66.3913, 34.91109999058672 ], [ 66.4229, 34.912699990587527 ], [ 66.4749, 34.872699990566822 ], [ 66.4978, 34.858099990559275 ], [ 66.52, 34.853499990556891 ], [ 66.5316, 34.819099990539129 ], [ 66.5722, 34.803999990531317 ], [ 66.584399999055051, 34.79469999124683 ], [ 66.5806, 34.7595 ], [ 66.5679, 34.747 ], [ 66.567900004163789, 34.746999994600081 ], [ 66.5679, 34.746999990501855 ], [ 66.5935, 34.713799990484716 ], [ 66.6086, 34.715999990485862 ], [ 66.6403, 34.682099990468316 ], [ 66.6504, 34.684899990469781 ], [ 66.7006, 34.679599990466997 ], [ 66.7137, 34.652799990453175 ], [ 66.727899997572194, 34.640199992600962 ], [ 66.7153, 34.6018 ], [ 66.6826, 34.5685 ], [ 66.6585, 34.571 ], [ 66.658500000312898, 34.570999990378489 ], [ 66.6585, 34.570999990410947 ], [ 66.659299999698305, 34.546399999675359 ], [ 66.633, 34.5181 ], [ 66.6278, 34.4902 ], [ 66.5952, 34.4676 ], [ 66.595200003207992, 34.467599992581519 ], [ 66.5952, 34.467599990357577 ], [ 66.601599996659672, 34.452799998074475 ], [ 66.5447, 34.42 ], [ 66.544700005912574, 34.419999993741328 ], [ 66.5447, 34.419999990333025 ], [ 66.565199996361599, 34.398299994173264 ], [ 66.5514, 34.3762 ], [ 66.5333, 34.362 ], [ 66.533300005163753, 34.361999994354292 ], [ 66.5333, 34.361999990303161 ], [ 66.540799997844559, 34.353799992655539 ], [ 66.5327, 34.3262 ], [ 66.5214, 34.3297 ], [ 66.4881, 34.3202 ], [ 66.461, 34.3069 ], [ 66.4478, 34.2915 ], [ 66.4327, 34.2945 ], [ 66.3876, 34.2938 ], [ 66.3822, 34.3094 ], [ 66.332, 34.3062 ], [ 66.324000002281224, 34.324999994639136 ], [ 66.3295, 34.335499990289492 ], [ 66.329499996181553, 34.33549999271024 ], [ 66.3295, 34.3355 ], [ 66.303, 34.3523 ], [ 66.2867, 34.3554 ], [ 66.2623, 34.3435 ], [ 66.2437, 34.3445 ], [ 66.2248, 34.3331 ], [ 66.2021, 34.3289 ], [ 66.1776, 34.3354 ], [ 66.1552, 34.3323 ], [ 66.1397, 34.3631 ], [ 66.1199, 34.3678 ], [ 66.0972, 34.3496 ], [ 66.0596, 34.3595 ], [ 66.0347, 34.3574 ], [ 66.0183, 34.3638 ], [ 65.9923, 34.3322 ], [ 65.9637, 34.3179 ], [ 65.9361, 34.313 ], [ 65.9193, 34.3296 ], [ 65.9001, 34.3275 ], [ 65.8739, 34.3347 ], [ 65.8465, 34.354 ], [ 65.8251, 34.3426 ], [ 65.8151, 34.3486 ], [ 65.7597, 34.3393 ], [ 65.7516, 34.3478 ], [ 65.7295, 34.3394 ], [ 65.7081, 34.346 ], [ 65.673, 34.3462 ], [ 65.6575, 34.3619 ], [ 65.645, 34.3534 ], [ 65.645000002954305, 34.353399992307637 ], [ 65.645, 34.353399990298705 ], [ 65.655599998281232, 34.325799994759841 ], [ 65.6474, 34.3008 ], [ 65.647400002558257, 34.300799998071163 ], [ 65.6474, 34.300799990271635 ], [ 65.659999997529624, 34.291299992129296 ], [ 65.6514, 34.2639 ], [ 65.651400000179052, 34.263899990823134 ], [ 65.6514, 34.263899990252639 ], [ 65.6518, 34.243399990242111 ], [ 65.667, 34.242399990241552 ], [ 65.6763, 34.224699990232473 ], [ 65.7012, 34.224499990232346 ], [ 65.728799995832418, 34.202599993527969 ], [ 65.7203, 34.1894 ], [ 65.6898, 34.1704 ], [ 65.6583, 34.1607 ], [ 65.6429, 34.1643 ], [ 65.6173, 34.1452 ], [ 65.5886, 34.1415 ], [ 65.5684, 34.1289 ], [ 65.5343, 34.1317 ], [ 65.5144, 34.1491 ], [ 65.4903, 34.157 ], [ 65.4806, 34.1301 ], [ 65.4666, 34.1136 ], [ 65.466600002450321, 34.113599993063175 ], [ 65.4666, 34.113599990175302 ], [ 65.4737, 34.09349999016495 ], [ 65.4934, 34.082299990159186 ], [ 65.5391, 34.070599990153177 ], [ 65.558299998745127, 34.05199999135931 ], [ 65.5548, 34.0279 ], [ 65.554800001303448, 34.027899999106445 ], [ 65.5548, 34.027899990131267 ], [ 65.570699999959487, 34.016999990153458 ], [ 65.5706, 33.9927 ], [ 65.5642, 33.9734 ], [ 65.5569, 33.9667 ], [ 65.522, 33.9607 ], [ 65.4909, 33.967 ], [ 65.4741, 33.9503 ], [ 65.474100004614641, 33.950299994678623 ], [ 65.4741, 33.950299990091466 ], [ 65.485199998669032, 33.937499991619745 ], [ 65.4825, 33.9205 ], [ 65.4527, 33.9127 ], [ 65.425, 33.8861 ], [ 65.4138, 33.8635 ], [ 65.413800003205679, 33.863499996515571 ], [ 65.4138, 33.863499990046968 ], [ 65.420699997279755, 33.855999992999919 ], [ 65.4132, 33.8367 ], [ 65.413200003149498, 33.836699998137895 ], [ 65.4132, 33.83669999003321 ], [ 65.4406, 33.820499990024921 ], [ 65.4456, 33.802799990015842 ], [ 65.4757, 33.793799990011252 ], [ 65.5035, 33.762299989995128 ], [ 65.5051, 33.743899989985721 ], [ 65.5283, 33.736099989981753 ], [ 65.5537, 33.736499989981922 ], [ 65.5838, 33.751899989989795 ], [ 65.6058, 33.730999989979125 ], [ 65.6114, 33.712599989969689 ], [ 65.6363, 33.713199989970001 ], [ 65.658599995603666, 33.697899992978506 ], [ 65.6447, 33.6757 ], [ 65.6239, 33.6717 ], [ 65.6075, 33.6554 ], [ 65.607500005189735, 33.655399995098577 ], [ 65.6075, 33.655399989940484 ], [ 65.6201, 33.643499989934405 ], [ 65.620299999844491, 33.630599999958264 ], [ 65.5931, 33.6233 ], [ 65.566, 33.6044 ], [ 65.5515, 33.587 ], [ 65.5142, 33.5771 ], [ 65.5085, 33.5671 ], [ 65.4836, 33.5515 ], [ 65.4776, 33.5329 ], [ 65.4354, 33.5069 ], [ 65.4231, 33.4918 ], [ 65.4229, 33.4729 ], [ 65.387, 33.4664 ], [ 65.3801, 33.4543 ], [ 65.380100000320027, 33.454299990399157 ], [ 65.3801, 33.454299989837949 ], [ 65.380799999677947, 33.433299999488518 ], [ 65.3723, 33.4198 ], [ 65.3558, 33.4117 ], [ 65.3205, 33.4031 ], [ 65.2934, 33.4027 ], [ 65.2706, 33.3955 ], [ 65.2525, 33.3716 ], [ 65.229, 33.3608 ], [ 65.1964, 33.3647 ], [ 65.1793, 33.3721 ], [ 65.1524, 33.3613 ], [ 65.1376, 33.3391 ], [ 65.121, 33.3286 ], [ 65.1179, 33.3159 ], [ 65.0937, 33.3141 ], [ 65.0632, 33.2999 ], [ 65.0527, 33.3063 ], [ 65.0224, 33.2916 ], [ 65.0081, 33.2912 ], [ 64.9842, 33.268 ], [ 64.9547, 33.2553 ], [ 64.9515, 33.2403 ], [ 64.9153, 33.2469 ], [ 64.9076, 33.2572 ], [ 64.8823, 33.2527 ], [ 64.8629, 33.2368 ], [ 64.8476, 33.2044 ], [ 64.8116, 33.2024 ], [ 64.7907, 33.2527 ], [ 64.7761, 33.2559 ], [ 64.7524, 33.2375 ], [ 64.7243, 33.2413 ], [ 64.7088, 33.2323 ], [ 64.6947, 33.2511 ], [ 64.6787, 33.2529 ], [ 64.6422, 33.2278 ], [ 64.6289, 33.2328 ], [ 64.6088, 33.2143 ], [ 64.5781, 33.2077 ], [ 64.5461, 33.1863 ], [ 64.5117, 33.211 ], [ 64.4817, 33.2118 ], [ 64.456, 33.2054 ], [ 64.431, 33.185 ], [ 64.408, 33.1579 ], [ 64.3916, 33.1281 ], [ 64.371, 33.1372 ], [ 64.3517, 33.137 ], [ 64.3391, 33.1264 ], [ 64.3181, 33.1279 ], [ 64.291, 33.1383 ], [ 64.2658, 33.1659 ], [ 64.2411, 33.1589 ], [ 64.2274, 33.1615 ], [ 64.1975, 33.1901 ], [ 64.1811, 33.2224 ], [ 64.18, 33.2339 ], [ 64.1505, 33.2688 ], [ 64.1288, 33.271 ], [ 64.0994, 33.2878 ], [ 64.1074, 33.3142 ], [ 64.1005, 33.329 ], [ 64.1083, 33.3483 ], [ 64.0809, 33.3742 ], [ 64.0745, 33.4133 ], [ 64.0471, 33.4251 ], [ 64.0507, 33.445 ], [ 64.0343, 33.4496 ], [ 63.9958, 33.4511 ], [ 63.9916, 33.4698 ], [ 63.9753, 33.4864 ], [ 63.9736, 33.5035 ], [ 63.9528, 33.5164 ], [ 63.9426, 33.5113 ], [ 63.9195, 33.5022 ], [ 63.9047, 33.4797 ], [ 63.8687, 33.4711 ], [ 63.8526, 33.435 ], [ 63.8268, 33.4331 ], [ 63.824, 33.411 ], [ 63.7807, 33.4044 ], [ 63.7732, 33.418 ], [ 63.748, 33.4174 ], [ 63.7166, 33.3954 ], [ 63.6863, 33.3945 ], [ 63.6609, 33.3859 ], [ 63.6347, 33.3837 ], [ 63.6159, 33.3958 ], [ 63.5958, 33.4003 ], [ 63.5554, 33.4002 ], [ 63.547, 33.3838 ], [ 63.5669, 33.3653 ], [ 63.5372, 33.3532 ], [ 63.5004, 33.3542 ], [ 63.4892, 33.3365 ], [ 63.4552, 33.3494 ], [ 63.4179, 33.3438 ], [ 63.3906, 33.3616 ], [ 63.3604, 33.3563 ], [ 63.3611, 33.3365 ], [ 63.342, 33.3274 ], [ 63.3381, 33.3163 ], [ 63.2949, 33.3334 ], [ 63.2929, 33.34 ], [ 63.2613, 33.3434 ], [ 63.251, 33.3705 ], [ 63.2685, 33.3991 ], [ 63.284199997076236, 33.448599990781766 ], [ 63.2842, 33.448599989835024 ], [ 63.28419999956472, 33.448599998627628 ], [ 63.2842, 33.4486 ], [ 63.283700000479783, 33.458699990308439 ], [ 63.3004, 33.474999989848484 ], [ 63.300399999075125, 33.474999999097278 ], [ 63.3004, 33.475 ], [ 63.2987, 33.492 ], [ 63.2845, 33.4973 ], [ 63.2618, 33.5234 ], [ 63.2458, 33.5246 ], [ 63.2244, 33.5438 ], [ 63.2214, 33.5541 ], [ 63.198600001666392, 33.571199998750203 ], [ 63.2018, 33.588199989906165 ], [ 63.2238, 33.593399989908811 ], [ 63.2314, 33.614799989919753 ], [ 63.2906, 33.627999989926465 ], [ 63.3244, 33.638499989931866 ], [ 63.3456, 33.636699989930932 ], [ 63.3756, 33.653399989939452 ], [ 63.4038, 33.651699989938614 ], [ 63.43, 33.655299989940445 ], [ 63.4539, 33.647299989936322 ], [ 63.4665, 33.658499989942065 ], [ 63.486, 33.6565999899411 ], [ 63.5016, 33.670799989948314 ], [ 63.5196, 33.704999989965849 ], [ 63.519599997411113, 33.704999995081124 ], [ 63.5196, 33.705 ], [ 63.490600003872295, 33.762299992348879 ], [ 63.5161, 33.777799990003082 ], [ 63.516099995794448, 33.77779999744368 ], [ 63.5161, 33.7778 ], [ 63.503100004768804, 33.800799991562897 ], [ 63.549, 33.815699990022473 ], [ 63.5597, 33.826199990027845 ], [ 63.559699999221813, 33.826199999236358 ], [ 63.5597, 33.8262 ], [ 63.5585, 33.8404 ], [ 63.542600005721482, 33.853199995394029 ], [ 63.5798, 33.887999990059505 ], [ 63.579799995840851, 33.88799999610918 ], [ 63.5798, 33.888 ], [ 63.5743, 33.896 ], [ 63.5298, 33.9032 ], [ 63.4618, 33.9595 ], [ 63.4585, 33.9906 ], [ 63.4389, 34.0079 ], [ 63.4055, 34.0065 ], [ 63.361300002973621, 34.035099998075893 ], [ 63.3701, 34.058599990147016 ], [ 63.3922, 34.081899990159016 ], [ 63.4102, 34.090199990163313 ], [ 63.4134, 34.112699990174839 ], [ 63.4329, 34.106699990171741 ], [ 63.4777, 34.119799990178493 ], [ 63.477699998619535, 34.119799999596331 ], [ 63.4777, 34.1198 ], [ 63.473200001211865, 34.150499991732389 ], [ 63.4862, 34.166999990202747 ], [ 63.486199998467796, 34.166999998055282 ], [ 63.4862, 34.167 ], [ 63.483000001221292, 34.183399993740871 ], [ 63.4921, 34.209699990224721 ], [ 63.506, 34.223699990231914 ], [ 63.5089, 34.245099990242927 ], [ 63.508899998773764, 34.245099990951225 ], [ 63.5089, 34.2451 ], [ 63.481200001637745, 34.261099999054011 ], [ 63.4836, 34.273999990257821 ], [ 63.5391, 34.270999990256279 ], [ 63.5644, 34.278599990260169 ], [ 63.5766, 34.274499990258072 ], [ 63.6168, 34.278799990260296 ], [ 63.6366, 34.276499990259111 ], [ 63.6666, 34.284299990263129 ], [ 63.7092, 34.283799990262878 ], [ 63.7291, 34.274599990258167 ], [ 63.7802, 34.267499990254471 ], [ 63.7939, 34.258699990249937 ], [ 63.8152, 34.232999990236699 ], [ 63.8266, 34.239399990240003 ], [ 63.8461, 34.228899990234595 ], [ 63.861, 34.243099990241888 ], [ 63.8852, 34.24589999024338 ], [ 63.9126, 34.226799990233495 ], [ 63.9398, 34.217899990228936 ], [ 63.9736, 34.226999990233594 ], [ 63.9843, 34.22399999023208 ], [ 63.99, 34.243599990242203 ], [ 64.006, 34.244599990242676 ], [ 64.0258, 34.266199990253796 ], [ 64.0695, 34.272599990257092 ], [ 64.069499999867716, 34.272599999980621 ], [ 64.0695, 34.2726 ], [ 64.069300000132245, 34.287299990279969 ], [ 64.0935, 34.290099990266114 ], [ 64.125, 34.274699990258171 ], [ 64.1426, 34.282099990262012 ], [ 64.142599999103155, 34.282099999622915 ], [ 64.1426, 34.2821 ], [ 64.1394, 34.3155 ], [ 64.132000001070736, 34.328799998075581 ], [ 64.136, 34.35789999030105 ], [ 64.1639, 34.357699990300944 ], [ 64.1941, 34.363099990303709 ], [ 64.194099999072719, 34.363099999834198 ], [ 64.1941, 34.3631 ], [ 64.190500000783103, 34.400099991951393 ], [ 64.2018, 34.423599990334921 ], [ 64.201799997306168, 34.423599994397762 ], [ 64.2018, 34.4236 ], [ 64.1896, 34.442 ], [ 64.186800000939229, 34.469599990741997 ], [ 64.2282, 34.486499990367363 ], [ 64.2388, 34.476799990362331 ], [ 64.2729, 34.470599990359119 ], [ 64.2859, 34.477899990362893 ], [ 64.3032, 34.47269999036024 ], [ 64.3201, 34.495999990372226 ], [ 64.3363, 34.502799990375756 ], [ 64.3585, 34.488199990368209 ], [ 64.3777, 34.491299990369811 ], [ 64.3854, 34.518099990383625 ], [ 64.4048, 34.528999990389288 ], [ 64.4492, 34.524499990386964 ], [ 64.4551, 34.507899990378398 ], [ 64.4783, 34.502399990375572 ], [ 64.478299993908607, 34.50240000144408 ], [ 64.4783, 34.5024 ], [ 64.4701, 34.5173 ], [ 64.442300003902346, 34.543399996336291 ], [ 64.4559, 34.564099990407399 ], [ 64.455899998891724, 34.564099998313132 ], [ 64.4559, 34.5641 ], [ 64.451400000899525, 34.596199993583483 ], [ 64.4594, 34.624299990438452 ], [ 64.4753, 34.645799990449589 ], [ 64.475299997976876, 34.645799997264326 ], [ 64.4753, 34.6458 ], [ 64.467700002398743, 34.671399991919976 ], [ 64.4784, 34.677899990466166 ], [ 64.496, 34.708699990482089 ], [ 64.5232, 34.709899990482704 ], [ 64.552, 34.720699990488292 ], [ 64.6022, 34.709599990482538 ], [ 64.647, 34.686999990470866 ], [ 64.694, 34.704599990479956 ], [ 64.7035, 34.694799990474877 ], [ 64.7435, 34.701399990478286 ], [ 64.7445, 34.707999990481703 ], [ 64.7794, 34.720899990488398 ], [ 64.7869, 34.734399990495362 ], [ 64.8161, 34.742299990499454 ], [ 64.8521, 34.744799990500717 ], [ 64.8613, 34.757999990507585 ], [ 64.8756, 34.748999990502895 ], [ 64.8981, 34.7514999905042 ], [ 64.934, 34.775199990516434 ], [ 64.9587, 34.7586999905079 ], [ 64.9915, 34.76919999051335 ], [ 64.9986, 34.78979999052396 ], [ 65.0217, 34.803099990530846 ], [ 65.044, 34.844799990552396 ], [ 65.043999998280668, 34.844799996784943 ], [ 65.044, 34.8448 ] ] ] } }
]
}
