{
"type": "FeatureCollection",
"name": "linestring_zcmap",
"crs": {"type": "name", "properties": {"name": "urn:ogc:def:crs:OGC:1.3:CRS84"}},
"epm_source": {"generator": "epm/postprocessing/create_geojson.py", "generated_at": "2026-08-19T15:52:49+00:00", "zones": ["Angola", "Botswana", "DRC", "DRC_South", "Eswatini", "Lesotho", "Malawi", "Mozal", "Mozambique", "Namibia", "South_Africa", "Tanzania", "Zambia", "Zimbabwe"], "inputs": {"zcmap": {"path": "epm/input/data_sapp/zcmap.csv", "sha256": "8017b7a9bae1ff8bc343ed131297b2bade13ef9054ecc77825a60a2f5a0f03ce"}, "geojson_to_epm": {"path": "epm/input/data_sapp/geojson_to_epm.csv", "sha256": "a9c69757ceb9ba720396dae8e603eefcf25146a7116074a71255b23cd71cb11f"}, "zone_map": {"path": "epm/resources/postprocess/zones.geojson", "sha256": "73bc09138ba12d6790152df6bd504c9b7e0e10328aeea045138f762089f07b6b"}, "zones_custom": {"path": "epm/resources/postprocess/zones_custom.geojson", "sha256": "9464d31496d7829ef7fc09fbf13c70e6ed1bd4dcaf9918f8e2c43b2a92e76ef8"}}},
"features": [
{"type": "Feature", "properties": {"z_other": "Botswana", "z": "Angola", "country_ini_lat": -12.292315643272223, "country_ini_lon": 17.536984973775947, "lat_linestring": -17.239043982150754, "lon_linestring": 20.66798585329495, "c": "Angola", "c2": "Botswana"}, "geometry": {"type": "LineString", "coordinates": [[17.536984973775947, -12.292315643272223], [23.798986732813958, -22.185772321029283]]}},
{"type": "Feature", "properties": {"z_other": "Lesotho", "z": "Angola", "country_ini_lat": -12.292315643272223, "country_ini_lon": 17.536984973775947, "lat_linestring": -20.93602304375201, "lon_linestring": 22.882803949385206, "c": "Angola", "c2": "Lesotho"}, "geometry": {"type": "LineString", "coordinates": [[17.536984973775947, -12.292315643272223], [28.22862292499447, -29.579730444231792]]}},
{"type": "Feature", "properties": {"z_other": "Mozambique", "z": "Angola", "country_ini_lat": -12.292315643272223, "country_ini_lon": 17.536984973775947, "lat_linestring": -14.781162835067779, "lon_linestring": 26.537545253130197, "c": "Angola", "c2": "Mozambique"}, "geometry": {"type": "LineString", "coordinates": [[17.536984973775947, -12.292315643272223], [35.53810553248445, -17.270010026863336]]}},
{"type": "Feature", "properties": {"z_other": "Malawi", "z": "Angola", "country_ini_lat": -12.292315643272223, "country_ini_lon": 17.536984973775947, "lat_linestring": -12.75477075397918, "lon_linestring": 25.913446388608847, "c": "Angola", "c2": "Malawi"}, "geometry": {"type": "LineString", "coordinates": [[17.536984973775947, -12.292315643272223], [34.28990780344174, -13.217225864686135]]}},
{"type": "Feature", "properties": {"z_other": "Namibia", "z": "Angola", "country_ini_lat": -12.292315643272223, "country_ini_lon": 17.536984973775947, "lat_linestring": -17.21078114096935, "lon_linestring": 17.374059085593075, "c": "Angola", "c2": "Namibia"}, "geometry": {"type": "LineString", "coordinates": [[17.536984973775947, -12.292315643272223], [17.211133197410206, -22.129246638666476]]}},
{"type": "Feature", "properties": {"z_other": "Eswatini", "z": "Angola", "country_ini_lat": -12.292315643272223, "country_ini_lon": 17.536984973775947, "lat_linestring": -19.427114996149882, "lon_linestring": 24.508504538392387, "c": "Angola", "c2": "Eswatini"}, "geometry": {"type": "LineString", "coordinates": [[17.536984973775947, -12.292315643272223], [31.480024103008823, -26.561914349027543]]}},
{"type": "Feature", "properties": {"z_other": "Tanzania", "z": "Angola", "country_ini_lat": -12.292315643272223, "country_ini_lon": 17.536984973775947, "lat_linestring": -9.283706562183006, "lon_linestring": 26.175285697151764, "c": "Angola", "c2": "Tanzania"}, "geometry": {"type": "LineString", "coordinates": [[17.536984973775947, -12.292315643272223], [34.813586420527585, -6.27509748109379]]}},
{"type": "Feature", "properties": {"z_other": "South_Africa", "z": "Angola", "country_ini_lat": -12.292315643272223, "country_ini_lon": 17.536984973775947, "lat_linestring": -20.64667900254175, "lon_linestring": 21.312167765053296, "c": "Angola", "c2": "South_Africa"}, "geometry": {"type": "LineString", "coordinates": [[17.536984973775947, -12.292315643272223], [25.08735055633064, -29.001042361811272]]}},
{"type": "Feature", "properties": {"z_other": "Zambia", "z": "Angola", "country_ini_lat": -12.292315643272223, "country_ini_lon": 17.536984973775947, "lat_linestring": -12.876212830818918, "lon_linestring": 22.65559865428636, "c": "Angola", "c2": "Zambia"}, "geometry": {"type": "LineString", "coordinates": [[17.536984973775947, -12.292315643272223], [27.774212334796776, -13.46011001836561]]}},
{"type": "Feature", "properties": {"z_other": "Zimbabwe", "z": "Angola", "country_ini_lat": -12.292315643272223, "country_ini_lon": 17.536984973775947, "lat_linestring": -15.64742617663707, "lon_linestring": 23.694434797176363, "c": "Angola", "c2": "Zimbabwe"}, "geometry": {"type": "LineString", "coordinates": [[17.536984973775947, -12.292315643272223], [29.851884620576776, -19.002536710001916]]}},
{"type": "Feature", "properties": {"z_other": "DRC", "z": "Angola", "country_ini_lat": -12.292315643272223, "country_ini_lon": 17.536984973775947, "lat_linestring": -6.0039816367568, "lon_linestring": 20.628996054069738, "c": "Angola", "c2": "DRC"}, "geometry": {"type": "LineString", "coordinates": [[17.536984973775947, -12.292315643272223], [23.721007134363532, 0.284352369758625]]}},
{"type": "Feature", "properties": {"z_other": "DRC_South", "z": "Angola", "country_ini_lat": -12.292315643272223, "country_ini_lon": 17.536984973775947, "lat_linestring": -9.722253677744156, "lon_linestring": 20.539811837944004, "c": "Angola", "c2": "DRC"}, "geometry": {"type": "LineString", "coordinates": [[17.536984973775947, -12.292315643272223], [23.54263870211206, -7.152191712216087]]}},
{"type": "Feature", "properties": {"z_other": "Mozal", "z": "Angola", "country_ini_lat": -12.292315643272223, "country_ini_lon": 17.536984973775947, "lat_linestring": -19.12508986437621, "lon_linestring": 25.006618936252117, "c": "Angola", "c2": "Mozambique"}, "geometry": {"type": "LineString", "coordinates": [[17.536984973775947, -12.292315643272223], [32.47625289872829, -25.957864085480196]]}},
{"type": "Feature", "properties": {"z_other": "Angola", "z": "Botswana", "country_ini_lat": -22.185772321029283, "country_ini_lon": 23.798986732813958, "lat_linestring": -17.239043982150754, "lon_linestring": 20.66798585329495, "c": "Botswana", "c2": "Angola"}, "geometry": {"type": "LineString", "coordinates": [[23.798986732813958, -22.185772321029283], [17.536984973775947, -12.292315643272223]]}},
{"type": "Feature", "properties": {"z_other": "Lesotho", "z": "Botswana", "country_ini_lat": -22.185772321029283, "country_ini_lon": 23.798986732813958, "lat_linestring": -25.882751382630538, "lon_linestring": 26.013804828904213, "c": "Botswana", "c2": "Lesotho"}, "geometry": {"type": "LineString", "coordinates": [[23.798986732813958, -22.185772321029283], [28.22862292499447, -29.579730444231792]]}},
{"type": "Feature", "properties": {"z_other": "Mozambique", "z": "Botswana", "country_ini_lat": -22.185772321029283, "country_ini_lon": 23.798986732813958, "lat_linestring": -19.72789117394631, "lon_linestring": 29.668546132649205, "c": "Botswana", "c2": "Mozambique"}, "geometry": {"type": "LineString", "coordinates": [[23.798986732813958, -22.185772321029283], [35.53810553248445, -17.270010026863336]]}},
{"type": "Feature", "properties": {"z_other": "Malawi", "z": "Botswana", "country_ini_lat": -22.185772321029283, "country_ini_lon": 23.798986732813958, "lat_linestring": -17.70149909285771, "lon_linestring": 29.04444726812785, "c": "Botswana", "c2": "Malawi"}, "geometry": {"type": "LineString", "coordinates": [[23.798986732813958, -22.185772321029283], [34.28990780344174, -13.217225864686135]]}},
{"type": "Feature", "properties": {"z_other": "Namibia", "z": "Botswana", "country_ini_lat": -22.185772321029283, "country_ini_lon": 23.798986732813958, "lat_linestring": -22.15750947984788, "lon_linestring": 20.50505996511208, "c": "Botswana", "c2": "Namibia"}, "geometry": {"type": "LineString", "coordinates": [[23.798986732813958, -22.185772321029283], [17.211133197410206, -22.129246638666476]]}},
{"type": "Feature", "properties": {"z_other": "Eswatini", "z": "Botswana", "country_ini_lat": -22.185772321029283, "country_ini_lon": 23.798986732813958, "lat_linestring": -24.37384333502841, "lon_linestring": 27.63950541791139, "c": "Botswana", "c2": "Eswatini"}, "geometry": {"type": "LineString", "coordinates": [[23.798986732813958, -22.185772321029283], [31.480024103008823, -26.561914349027543]]}},
{"type": "Feature", "properties": {"z_other": "Tanzania", "z": "Botswana", "country_ini_lat": -22.185772321029283, "country_ini_lon": 23.798986732813958, "lat_linestring": -14.230434901061537, "lon_linestring": 29.30628657667077, "c": "Botswana", "c2": "Tanzania"}, "geometry": {"type": "LineString", "coordinates": [[23.798986732813958, -22.185772321029283], [34.813586420527585, -6.27509748109379]]}},
{"type": "Feature", "properties": {"z_other": "South_Africa", "z": "Botswana", "country_ini_lat": -22.185772321029283, "country_ini_lon": 23.798986732813958, "lat_linestring": -25.593407341420278, "lon_linestring": 24.4431686445723, "c": "Botswana", "c2": "South_Africa"}, "geometry": {"type": "LineString", "coordinates": [[23.798986732813958, -22.185772321029283], [25.08735055633064, -29.001042361811272]]}},
{"type": "Feature", "properties": {"z_other": "Zambia", "z": "Botswana", "country_ini_lat": -22.185772321029283, "country_ini_lon": 23.798986732813958, "lat_linestring": -17.822941169697447, "lon_linestring": 25.786599533805365, "c": "Botswana", "c2": "Zambia"}, "geometry": {"type": "LineString", "coordinates": [[23.798986732813958, -22.185772321029283], [27.774212334796776, -13.46011001836561]]}},
{"type": "Feature", "properties": {"z_other": "Zimbabwe", "z": "Botswana", "country_ini_lat": -22.185772321029283, "country_ini_lon": 23.798986732813958, "lat_linestring": -20.5941545155156, "lon_linestring": 26.825435676695367, "c": "Botswana", "c2": "Zimbabwe"}, "geometry": {"type": "LineString", "coordinates": [[23.798986732813958, -22.185772321029283], [29.851884620576776, -19.002536710001916]]}},
{"type": "Feature", "properties": {"z_other": "DRC", "z": "Botswana", "country_ini_lat": -22.185772321029283, "country_ini_lon": 23.798986732813958, "lat_linestring": -10.950709975635329, "lon_linestring": 23.75999693358875, "c": "Botswana", "c2": "DRC"}, "geometry": {"type": "LineString", "coordinates": [[23.798986732813958, -22.185772321029283], [23.721007134363532, 0.284352369758625]]}},
{"type": "Feature", "properties": {"z_other": "DRC_South", "z": "Botswana", "country_ini_lat": -22.185772321029283, "country_ini_lon": 23.798986732813958, "lat_linestring": -14.668982016622685, "lon_linestring": 23.670812717463008, "c": "Botswana", "c2": "DRC"}, "geometry": {"type": "LineString", "coordinates": [[23.798986732813958, -22.185772321029283], [23.54263870211206, -7.152191712216087]]}},
{"type": "Feature", "properties": {"z_other": "Mozal", "z": "Botswana", "country_ini_lat": -22.185772321029283, "country_ini_lon": 23.798986732813958, "lat_linestring": -24.07181820325474, "lon_linestring": 28.137619815771124, "c": "Botswana", "c2": "Mozambique"}, "geometry": {"type": "LineString", "coordinates": [[23.798986732813958, -22.185772321029283], [32.47625289872829, -25.957864085480196]]}},
{"type": "Feature", "properties": {"z_other": "Angola", "z": "Lesotho", "country_ini_lat": -29.579730444231792, "country_ini_lon": 28.22862292499447, "lat_linestring": -20.93602304375201, "lon_linestring": 22.882803949385206, "c": "Lesotho", "c2": "Angola"}, "geometry": {"type": "LineString", "coordinates": [[28.22862292499447, -29.579730444231792], [17.536984973775947, -12.292315643272223]]}},
{"type": "Feature", "properties": {"z_other": "Botswana", "z": "Lesotho", "country_ini_lat": -29.579730444231792, "country_ini_lon": 28.22862292499447, "lat_linestring": -25.882751382630538, "lon_linestring": 26.013804828904213, "c": "Lesotho", "c2": "Botswana"}, "geometry": {"type": "LineString", "coordinates": [[28.22862292499447, -29.579730444231792], [23.798986732813958, -22.185772321029283]]}},
{"type": "Feature", "properties": {"z_other": "Mozambique", "z": "Lesotho", "country_ini_lat": -29.579730444231792, "country_ini_lon": 28.22862292499447, "lat_linestring": -23.424870235547562, "lon_linestring": 31.883364228739456, "c": "Lesotho", "c2": "Mozambique"}, "geometry": {"type": "LineString", "coordinates": [[28.22862292499447, -29.579730444231792], [35.53810553248445, -17.270010026863336]]}},
{"type": "Feature", "properties": {"z_other": "Malawi", "z": "Lesotho", "country_ini_lat": -29.579730444231792, "country_ini_lon": 28.22862292499447, "lat_linestring": -21.398478154458964, "lon_linestring": 31.259265364218106, "c": "Lesotho", "c2": "Malawi"}, "geometry": {"type": "LineString", "coordinates": [[28.22862292499447, -29.579730444231792], [34.28990780344174, -13.217225864686135]]}},
{"type": "Feature", "properties": {"z_other": "Namibia", "z": "Lesotho", "country_ini_lat": -29.579730444231792, "country_ini_lon": 28.22862292499447, "lat_linestring": -25.854488541449136, "lon_linestring": 22.719878061202337, "c": "Lesotho", "c2": "Namibia"}, "geometry": {"type": "LineString", "coordinates": [[28.22862292499447, -29.579730444231792], [17.211133197410206, -22.129246638666476]]}},
{"type": "Feature", "properties": {"z_other": "Eswatini", "z": "Lesotho", "country_ini_lat": -29.579730444231792, "country_ini_lon": 28.22862292499447, "lat_linestring": -28.070822396629666, "lon_linestring": 29.854323514001646, "c": "Lesotho", "c2": "Eswatini"}, "geometry": {"type": "LineString", "coordinates": [[28.22862292499447, -29.579730444231792], [31.480024103008823, -26.561914349027543]]}},
{"type": "Feature", "properties": {"z_other": "Tanzania", "z": "Lesotho", "country_ini_lat": -29.579730444231792, "country_ini_lon": 28.22862292499447, "lat_linestring": -17.92741396266279, "lon_linestring": 31.521104672761027, "c": "Lesotho", "c2": "Tanzania"}, "geometry": {"type": "LineString", "coordinates": [[28.22862292499447, -29.579730444231792], [34.813586420527585, -6.27509748109379]]}},
{"type": "Feature", "properties": {"z_other": "South_Africa", "z": "Lesotho", "country_ini_lat": -29.579730444231792, "country_ini_lon": 28.22862292499447, "lat_linestring": -29.290386403021532, "lon_linestring": 26.65798674066255, "c": "Lesotho", "c2": "South_Africa"}, "geometry": {"type": "LineString", "coordinates": [[28.22862292499447, -29.579730444231792], [25.08735055633064, -29.001042361811272]]}},
{"type": "Feature", "properties": {"z_other": "Zambia", "z": "Lesotho", "country_ini_lat": -29.579730444231792, "country_ini_lon": 28.22862292499447, "lat_linestring": -21.519920231298702, "lon_linestring": 28.00141762989562, "c": "Lesotho", "c2": "Zambia"}, "geometry": {"type": "LineString", "coordinates": [[28.22862292499447, -29.579730444231792], [27.774212334796776, -13.46011001836561]]}},
{"type": "Feature", "properties": {"z_other": "Zimbabwe", "z": "Lesotho", "country_ini_lat": -29.579730444231792, "country_ini_lon": 28.22862292499447, "lat_linestring": -24.291133577116856, "lon_linestring": 29.040253772785622, "c": "Lesotho", "c2": "Zimbabwe"}, "geometry": {"type": "LineString", "coordinates": [[28.22862292499447, -29.579730444231792], [29.851884620576776, -19.002536710001916]]}},
{"type": "Feature", "properties": {"z_other": "DRC", "z": "Lesotho", "country_ini_lat": -29.579730444231792, "country_ini_lon": 28.22862292499447, "lat_linestring": -14.647689037236583, "lon_linestring": 25.974815029679, "c": "Lesotho", "c2": "DRC"}, "geometry": {"type": "LineString", "coordinates": [[28.22862292499447, -29.579730444231792], [23.721007134363532, 0.284352369758625]]}},
{"type": "Feature", "properties": {"z_other": "DRC_South", "z": "Lesotho", "country_ini_lat": -29.579730444231792, "country_ini_lon": 28.22862292499447, "lat_linestring": -18.36596107822394, "lon_linestring": 25.885630813553263, "c": "Lesotho", "c2": "DRC"}, "geometry": {"type": "LineString", "coordinates": [[28.22862292499447, -29.579730444231792], [23.54263870211206, -7.152191712216087]]}},
{"type": "Feature", "properties": {"z_other": "Mozal", "z": "Lesotho", "country_ini_lat": -29.579730444231792, "country_ini_lon": 28.22862292499447, "lat_linestring": -27.768797264855998, "lon_linestring": 30.352437911861376, "c": "Lesotho", "c2": "Mozambique"}, "geometry": {"type": "LineString", "coordinates": [[28.22862292499447, -29.579730444231792], [32.47625289872829, -25.957864085480196]]}},
{"type": "Feature", "properties": {"z_other": "Angola", "z": "Mozambique", "country_ini_lat": -17.270010026863336, "country_ini_lon": 35.53810553248445, "lat_linestring": -14.781162835067779, "lon_linestring": 26.537545253130197, "c": "Mozambique", "c2": "Angola"}, "geometry": {"type": "LineString", "coordinates": [[35.53810553248445, -17.270010026863336], [17.536984973775947, -12.292315643272223]]}},
{"type": "Feature", "properties": {"z_other": "Botswana", "z": "Mozambique", "country_ini_lat": -17.270010026863336, "country_ini_lon": 35.53810553248445, "lat_linestring": -19.72789117394631, "lon_linestring": 29.668546132649205, "c": "Mozambique", "c2": "Botswana"}, "geometry": {"type": "LineString", "coordinates": [[35.53810553248445, -17.270010026863336], [23.798986732813958, -22.185772321029283]]}},
{"type": "Feature", "properties": {"z_other": "Lesotho", "z": "Mozambique", "country_ini_lat": -17.270010026863336, "country_ini_lon": 35.53810553248445, "lat_linestring": -23.424870235547562, "lon_linestring": 31.883364228739456, "c": "Mozambique", "c2": "Lesotho"}, "geometry": {"type": "LineString", "coordinates": [[35.53810553248445, -17.270010026863336], [28.22862292499447, -29.579730444231792]]}},
{"type": "Feature", "properties": {"z_other": "Malawi", "z": "Mozambique", "country_ini_lat": -17.270010026863336, "country_ini_lon": 35.53810553248445, "lat_linestring": -15.243617945774735, "lon_linestring": 34.91400666796309, "c": "Mozambique", "c2": "Malawi"}, "geometry": {"type": "LineString", "coordinates": [[35.53810553248445, -17.270010026863336], [34.28990780344174, -13.217225864686135]]}},
{"type": "Feature", "properties": {"z_other": "Namibia", "z": "Mozambique", "country_ini_lat": -17.270010026863336, "country_ini_lon": 35.53810553248445, "lat_linestring": -19.699628332764906, "lon_linestring": 26.37461936494733, "c": "Mozambique", "c2": "Namibia"}, "geometry": {"type": "LineString", "coordinates": [[35.53810553248445, -17.270010026863336], [17.211133197410206, -22.129246638666476]]}},
{"type": "Feature", "properties": {"z_other": "Eswatini", "z": "Mozambique", "country_ini_lat": -17.270010026863336, "country_ini_lon": 35.53810553248445, "lat_linestring": -21.91596218794544, "lon_linestring": 33.50906481774663, "c": "Mozambique", "c2": "Eswatini"}, "geometry": {"type": "LineString", "coordinates": [[35.53810553248445, -17.270010026863336], [31.480024103008823, -26.561914349027543]]}},
{"type": "Feature", "properties": {"z_other": "Tanzania", "z": "Mozambique", "country_ini_lat": -17.270010026863336, "country_ini_lon": 35.53810553248445, "lat_linestring": -11.772553753978565, "lon_linestring": 35.17584597650602, "c": "Mozambique", "c2": "Tanzania"}, "geometry": {"type": "LineString", "coordinates": [[35.53810553248445, -17.270010026863336], [34.813586420527585, -6.27509748109379]]}},
{"type": "Feature", "properties": {"z_other": "South_Africa", "z": "Mozambique", "country_ini_lat": -17.270010026863336, "country_ini_lon": 35.53810553248445, "lat_linestring": -23.135526194337302, "lon_linestring": 30.312728044407546, "c": "Mozambique", "c2": "South_Africa"}, "geometry": {"type": "LineString", "coordinates": [[35.53810553248445, -17.270010026863336], [25.08735055633064, -29.001042361811272]]}},
{"type": "Feature", "properties": {"z_other": "Zambia", "z": "Mozambique", "country_ini_lat": -17.270010026863336, "country_ini_lon": 35.53810553248445, "lat_linestring": -15.36506002261447, "lon_linestring": 31.65615893364061, "c": "Mozambique", "c2": "Zambia"}, "geometry": {"type": "LineString", "coordinates": [[35.53810553248445, -17.270010026863336], [27.774212334796776, -13.46011001836561]]}},
{"type": "Feature", "properties": {"z_other": "Zimbabwe", "z": "Mozambique", "country_ini_lat": -17.270010026863336, "country_ini_lon": 35.53810553248445, "lat_linestring": -18.136273368432626, "lon_linestring": 32.69499507653062, "c": "Mozambique", "c2": "Zimbabwe"}, "geometry": {"type": "LineString", "coordinates": [[35.53810553248445, -17.270010026863336], [29.851884620576776, -19.002536710001916]]}},
{"type": "Feature", "properties": {"z_other": "DRC", "z": "Mozambique", "country_ini_lat": -17.270010026863336, "country_ini_lon": 35.53810553248445, "lat_linestring": -8.492828828552355, "lon_linestring": 29.62955633342399, "c": "Mozambique", "c2": "DRC"}, "geometry": {"type": "LineString", "coordinates": [[35.53810553248445, -17.270010026863336], [23.721007134363532, 0.284352369758625]]}},
{"type": "Feature", "properties": {"z_other": "DRC_South", "z": "Mozambique", "country_ini_lat": -17.270010026863336, "country_ini_lon": 35.53810553248445, "lat_linestring": -12.211100869539711, "lon_linestring": 29.540372117298254, "c": "Mozambique", "c2": "DRC"}, "geometry": {"type": "LineString", "coordinates": [[35.53810553248445, -17.270010026863336], [23.54263870211206, -7.152191712216087]]}},
{"type": "Feature", "properties": {"z_other": "Mozal", "z": "Mozambique", "country_ini_lat": -17.270010026863336, "country_ini_lon": 35.53810553248445, "lat_linestring": -21.613937056171764, "lon_linestring": 34.00717921560637, "c": "Mozambique", "c2": "Mozambique"}, "geometry": {"type": "LineString", "coordinates": [[35.53810553248445, -17.270010026863336], [32.47625289872829, -25.957864085480196]]}},
{"type": "Feature", "properties": {"z_other": "Angola", "z": "Malawi", "country_ini_lat": -13.217225864686135, "country_ini_lon": 34.28990780344174, "lat_linestring": -12.75477075397918, "lon_linestring": 25.913446388608847, "c": "Malawi", "c2": "Angola"}, "geometry": {"type": "LineString", "coordinates": [[34.28990780344174, -13.217225864686135], [17.536984973775947, -12.292315643272223]]}},
{"type": "Feature", "properties": {"z_other": "Botswana", "z": "Malawi", "country_ini_lat": -13.217225864686135, "country_ini_lon": 34.28990780344174, "lat_linestring": -17.70149909285771, "lon_linestring": 29.04444726812785, "c": "Malawi", "c2": "Botswana"}, "geometry": {"type": "LineString", "coordinates": [[34.28990780344174, -13.217225864686135], [23.798986732813958, -22.185772321029283]]}},
{"type": "Feature", "properties": {"z_other": "Lesotho", "z": "Malawi", "country_ini_lat": -13.217225864686135, "country_ini_lon": 34.28990780344174, "lat_linestring": -21.398478154458964, "lon_linestring": 31.259265364218106, "c": "Malawi", "c2": "Lesotho"}, "geometry": {"type": "LineString", "coordinates": [[34.28990780344174, -13.217225864686135], [28.22862292499447, -29.579730444231792]]}},
{"type": "Feature", "properties": {"z_other": "Mozambique", "z": "Malawi", "country_ini_lat": -13.217225864686135, "country_ini_lon": 34.28990780344174, "lat_linestring": -15.243617945774735, "lon_linestring": 34.91400666796309, "c": "Malawi", "c2": "Mozambique"}, "geometry": {"type": "LineString", "coordinates": [[34.28990780344174, -13.217225864686135], [35.53810553248445, -17.270010026863336]]}},
{"type": "Feature", "properties": {"z_other": "Namibia", "z": "Malawi", "country_ini_lat": -13.217225864686135, "country_ini_lon": 34.28990780344174, "lat_linestring": -17.673236251676308, "lon_linestring": 25.750520500425974, "c": "Malawi", "c2": "Namibia"}, "geometry": {"type": "LineString", "coordinates": [[34.28990780344174, -13.217225864686135], [17.211133197410206, -22.129246638666476]]}},
{"type": "Feature", "properties": {"z_other": "Eswatini", "z": "Malawi", "country_ini_lat": -13.217225864686135, "country_ini_lon": 34.28990780344174, "lat_linestring": -19.889570106856837, "lon_linestring": 32.88496595322528, "c": "Malawi", "c2": "Eswatini"}, "geometry": {"type": "LineString", "coordinates": [[34.28990780344174, -13.217225864686135], [31.480024103008823, -26.561914349027543]]}},
{"type": "Feature", "properties": {"z_other": "Tanzania", "z": "Malawi", "country_ini_lat": -13.217225864686135, "country_ini_lon": 34.28990780344174, "lat_linestring": -9.746161672889963, "lon_linestring": 34.55174711198467, "c": "Malawi", "c2": "Tanzania"}, "geometry": {"type": "LineString", "coordinates": [[34.28990780344174, -13.217225864686135], [34.813586420527585, -6.27509748109379]]}},
{"type": "Feature", "properties": {"z_other": "South_Africa", "z": "Malawi", "country_ini_lat": -13.217225864686135, "country_ini_lon": 34.28990780344174, "lat_linestring": -21.109134113248704, "lon_linestring": 29.688629179886192, "c": "Malawi", "c2": "South_Africa"}, "geometry": {"type": "LineString", "coordinates": [[34.28990780344174, -13.217225864686135], [25.08735055633064, -29.001042361811272]]}},
{"type": "Feature", "properties": {"z_other": "Zambia", "z": "Malawi", "country_ini_lat": -13.217225864686135, "country_ini_lon": 34.28990780344174, "lat_linestring": -13.338667941525873, "lon_linestring": 31.03206006911926, "c": "Malawi", "c2": "Zambia"}, "geometry": {"type": "LineString", "coordinates": [[34.28990780344174, -13.217225864686135], [27.774212334796776, -13.46011001836561]]}},
{"type": "Feature", "properties": {"z_other": "Zimbabwe", "z": "Malawi", "country_ini_lat": -13.217225864686135, "country_ini_lon": 34.28990780344174, "lat_linestring": -16.109881287344024, "lon_linestring": 32.07089621200926, "c": "Malawi", "c2": "Zimbabwe"}, "geometry": {"type": "LineString", "coordinates": [[34.28990780344174, -13.217225864686135], [29.851884620576776, -19.002536710001916]]}},
{"type": "Feature", "properties": {"z_other": "DRC", "z": "Malawi", "country_ini_lat": -13.217225864686135, "country_ini_lon": 34.28990780344174, "lat_linestring": -6.466436747463756, "lon_linestring": 29.005457468902637, "c": "Malawi", "c2": "DRC"}, "geometry": {"type": "LineString", "coordinates": [[34.28990780344174, -13.217225864686135], [23.721007134363532, 0.284352369758625]]}},
{"type": "Feature", "properties": {"z_other": "DRC_South", "z": "Malawi", "country_ini_lat": -13.217225864686135, "country_ini_lon": 34.28990780344174, "lat_linestring": -10.184708788451111, "lon_linestring": 28.916273252776904, "c": "Malawi", "c2": "DRC"}, "geometry": {"type": "LineString", "coordinates": [[34.28990780344174, -13.217225864686135], [23.54263870211206, -7.152191712216087]]}},
{"type": "Feature", "properties": {"z_other": "Mozal", "z": "Malawi", "country_ini_lat": -13.217225864686135, "country_ini_lon": 34.28990780344174, "lat_linestring": -19.587544975083166, "lon_linestring": 33.38308035108501, "c": "Malawi", "c2": "Mozambique"}, "geometry": {"type": "LineString", "coordinates": [[34.28990780344174, -13.217225864686135], [32.47625289872829, -25.957864085480196]]}},
{"type": "Feature", "properties": {"z_other": "Angola", "z": "Namibia", "country_ini_lat": -22.129246638666476, "country_ini_lon": 17.211133197410206, "lat_linestring": -17.21078114096935, "lon_linestring": 17.374059085593075, "c": "Namibia", "c2": "Angola"}, "geometry": {"type": "LineString", "coordinates": [[17.211133197410206, -22.129246638666476], [17.536984973775947, -12.292315643272223]]}},
{"type": "Feature", "properties": {"z_other": "Botswana", "z": "Namibia", "country_ini_lat": -22.129246638666476, "country_ini_lon": 17.211133197410206, "lat_linestring": -22.15750947984788, "lon_linestring": 20.50505996511208, "c": "Namibia", "c2": "Botswana"}, "geometry": {"type": "LineString", "coordinates": [[17.211133197410206, -22.129246638666476], [23.798986732813958, -22.185772321029283]]}},
{"type": "Feature", "properties": {"z_other": "Lesotho", "z": "Namibia", "country_ini_lat": -22.129246638666476, "country_ini_lon": 17.211133197410206, "lat_linestring": -25.854488541449136, "lon_linestring": 22.719878061202337, "c": "Namibia", "c2": "Lesotho"}, "geometry": {"type": "LineString", "coordinates": [[17.211133197410206, -22.129246638666476], [28.22862292499447, -29.579730444231792]]}},
{"type": "Feature", "properties": {"z_other": "Mozambique", "z": "Namibia", "country_ini_lat": -22.129246638666476, "country_ini_lon": 17.211133197410206, "lat_linestring": -19.699628332764906, "lon_linestring": 26.37461936494733, "c": "Namibia", "c2": "Mozambique"}, "geometry": {"type": "LineString", "coordinates": [[17.211133197410206, -22.129246638666476], [35.53810553248445, -17.270010026863336]]}},
{"type": "Feature", "properties": {"z_other": "Malawi", "z": "Namibia", "country_ini_lat": -22.129246638666476, "country_ini_lon": 17.211133197410206, "lat_linestring": -17.673236251676308, "lon_linestring": 25.750520500425974, "c": "Namibia", "c2": "Malawi"}, "geometry": {"type": "LineString", "coordinates": [[17.211133197410206, -22.129246638666476], [34.28990780344174, -13.217225864686135]]}},
{"type": "Feature", "properties": {"z_other": "Eswatini", "z": "Namibia", "country_ini_lat": -22.129246638666476, "country_ini_lon": 17.211133197410206, "lat_linestring": -24.34558049384701, "lon_linestring": 24.345578650209514, "c": "Namibia", "c2": "Eswatini"}, "geometry": {"type": "LineString", "coordinates": [[17.211133197410206, -22.129246638666476], [31.480024103008823, -26.561914349027543]]}},
{"type": "Feature", "properties": {"z_other": "Tanzania", "z": "Namibia", "country_ini_lat": -22.129246638666476, "country_ini_lon": 17.211133197410206, "lat_linestring": -14.202172059880134, "lon_linestring": 26.012359808968895, "c": "Namibia", "c2": "Tanzania"}, "geometry": {"type": "LineString", "coordinates": [[17.211133197410206, -22.129246638666476], [34.813586420527585, -6.27509748109379]]}},
{"type": "Feature", "properties": {"z_other": "South_Africa", "z": "Namibia", "country_ini_lat": -22.129246638666476, "country_ini_lon": 17.211133197410206, "lat_linestring": -25.56514450023887, "lon_linestring": 21.149241876870423, "c": "Namibia", "c2": "South_Africa"}, "geometry": {"type": "LineString", "coordinates": [[17.211133197410206, -22.129246638666476], [25.08735055633064, -29.001042361811272]]}},
{"type": "Feature", "properties": {"z_other": "Zambia", "z": "Namibia", "country_ini_lat": -22.129246638666476, "country_ini_lon": 17.211133197410206, "lat_linestring": -17.794678328516042, "lon_linestring": 22.49267276610349, "c": "Namibia", "c2": "Zambia"}, "geometry": {"type": "LineString", "coordinates": [[17.211133197410206, -22.129246638666476], [27.774212334796776, -13.46011001836561]]}},
{"type": "Feature", "properties": {"z_other": "Zimbabwe", "z": "Namibia", "country_ini_lat": -22.129246638666476, "country_ini_lon": 17.211133197410206, "lat_linestring": -20.565891674334196, "lon_linestring": 23.531508908993487, "c": "Namibia", "c2": "Zimbabwe"}, "geometry": {"type": "LineString", "coordinates": [[17.211133197410206, -22.129246638666476], [29.851884620576776, -19.002536710001916]]}},
{"type": "Feature", "properties": {"z_other": "DRC", "z": "Namibia", "country_ini_lat": -22.129246638666476, "country_ini_lon": 17.211133197410206, "lat_linestring": -10.922447134453925, "lon_linestring": 20.46607016588687, "c": "Namibia", "c2": "DRC"}, "geometry": {"type": "LineString", "coordinates": [[17.211133197410206, -22.129246638666476], [23.721007134363532, 0.284352369758625]]}},
{"type": "Feature", "properties": {"z_other": "DRC_South", "z": "Namibia", "country_ini_lat": -22.129246638666476, "country_ini_lon": 17.211133197410206, "lat_linestring": -14.640719175441282, "lon_linestring": 20.37688594976113, "c": "Namibia", "c2": "DRC"}, "geometry": {"type": "LineString", "coordinates": [[17.211133197410206, -22.129246638666476], [23.54263870211206, -7.152191712216087]]}},
{"type": "Feature", "properties": {"z_other": "Mozal", "z": "Namibia", "country_ini_lat": -22.129246638666476, "country_ini_lon": 17.211133197410206, "lat_linestring": -24.043555362073334, "lon_linestring": 24.843693048069248, "c": "Namibia", "c2": "Mozambique"}, "geometry": {"type": "LineString", "coordinates": [[17.211133197410206, -22.129246638666476], [32.47625289872829, -25.957864085480196]]}},
{"type": "Feature", "properties": {"z_other": "Angola", "z": "Eswatini", "country_ini_lat": -26.561914349027543, "country_ini_lon": 31.480024103008823, "lat_linestring": -19.427114996149882, "lon_linestring": 24.508504538392387, "c": "Eswatini", "c2": "Angola"}, "geometry": {"type": "LineString", "coordinates": [[31.480024103008823, -26.561914349027543], [17.536984973775947, -12.292315643272223]]}},
{"type": "Feature", "properties": {"z_other": "Botswana", "z": "Eswatini", "country_ini_lat": -26.561914349027543, "country_ini_lon": 31.480024103008823, "lat_linestring": -24.37384333502841, "lon_linestring": 27.63950541791139, "c": "Eswatini", "c2": "Botswana"}, "geometry": {"type": "LineString", "coordinates": [[31.480024103008823, -26.561914349027543], [23.798986732813958, -22.185772321029283]]}},
{"type": "Feature", "properties": {"z_other": "Lesotho", "z": "Eswatini", "country_ini_lat": -26.561914349027543, "country_ini_lon": 31.480024103008823, "lat_linestring": -28.070822396629666, "lon_linestring": 29.854323514001646, "c": "Eswatini", "c2": "Lesotho"}, "geometry": {"type": "LineString", "coordinates": [[31.480024103008823, -26.561914349027543], [28.22862292499447, -29.579730444231792]]}},
{"type": "Feature", "properties": {"z_other": "Mozambique", "z": "Eswatini", "country_ini_lat": -26.561914349027543, "country_ini_lon": 31.480024103008823, "lat_linestring": -21.91596218794544, "lon_linestring": 33.50906481774663, "c": "Eswatini", "c2": "Mozambique"}, "geometry": {"type": "LineString", "coordinates": [[31.480024103008823, -26.561914349027543], [35.53810553248445, -17.270010026863336]]}},
{"type": "Feature", "properties": {"z_other": "Malawi", "z": "Eswatini", "country_ini_lat": -26.561914349027543, "country_ini_lon": 31.480024103008823, "lat_linestring": -19.889570106856837, "lon_linestring": 32.88496595322528, "c": "Eswatini", "c2": "Malawi"}, "geometry": {"type": "LineString", "coordinates": [[31.480024103008823, -26.561914349027543], [34.28990780344174, -13.217225864686135]]}},
{"type": "Feature", "properties": {"z_other": "Namibia", "z": "Eswatini", "country_ini_lat": -26.561914349027543, "country_ini_lon": 31.480024103008823, "lat_linestring": -24.34558049384701, "lon_linestring": 24.345578650209514, "c": "Eswatini", "c2": "Namibia"}, "geometry": {"type": "LineString", "coordinates": [[31.480024103008823, -26.561914349027543], [17.211133197410206, -22.129246638666476]]}},
{"type": "Feature", "properties": {"z_other": "Tanzania", "z": "Eswatini", "country_ini_lat": -26.561914349027543, "country_ini_lon": 31.480024103008823, "lat_linestring": -16.418505915060667, "lon_linestring": 33.14680526176821, "c": "Eswatini", "c2": "Tanzania"}, "geometry": {"type": "LineString", "coordinates": [[31.480024103008823, -26.561914349027543], [34.813586420527585, -6.27509748109379]]}},
{"type": "Feature", "properties": {"z_other": "South_Africa", "z": "Eswatini", "country_ini_lat": -26.561914349027543, "country_ini_lon": 31.480024103008823, "lat_linestring": -27.781478355419406, "lon_linestring": 28.283687329669732, "c": "Eswatini", "c2": "South_Africa"}, "geometry": {"type": "LineString", "coordinates": [[31.480024103008823, -26.561914349027543], [25.08735055633064, -29.001042361811272]]}},
{"type": "Feature", "properties": {"z_other": "Zambia", "z": "Eswatini", "country_ini_lat": -26.561914349027543, "country_ini_lon": 31.480024103008823, "lat_linestring": -20.011012183696575, "lon_linestring": 29.6271182189028, "c": "Eswatini", "c2": "Zambia"}, "geometry": {"type": "LineString", "coordinates": [[31.480024103008823, -26.561914349027543], [27.774212334796776, -13.46011001836561]]}},
{"type": "Feature", "properties": {"z_other": "Zimbabwe", "z": "Eswatini", "country_ini_lat": -26.561914349027543, "country_ini_lon": 31.480024103008823, "lat_linestring": -22.78222552951473, "lon_linestring": 30.6659543617928, "c": "Eswatini", "c2": "Zimbabwe"}, "geometry": {"type": "LineString", "coordinates": [[31.480024103008823, -26.561914349027543], [29.851884620576776, -19.002536710001916]]}},
{"type": "Feature", "properties": {"z_other": "DRC", "z": "Eswatini", "country_ini_lat": -26.561914349027543, "country_ini_lon": 31.480024103008823, "lat_linestring": -13.138780989634459, "lon_linestring": 27.600515618686178, "c": "Eswatini", "c2": "DRC"}, "geometry": {"type": "LineString", "coordinates": [[31.480024103008823, -26.561914349027543], [23.721007134363532, 0.284352369758625]]}},
{"type": "Feature", "properties": {"z_other": "DRC_South", "z": "Eswatini", "country_ini_lat": -26.561914349027543, "country_ini_lon": 31.480024103008823, "lat_linestring": -16.857053030621813, "lon_linestring": 27.511331402560447, "c": "Eswatini", "c2": "DRC"}, "geometry": {"type": "LineString", "coordinates": [[31.480024103008823, -26.561914349027543], [23.54263870211206, -7.152191712216087]]}},
{"type": "Feature", "properties": {"z_other": "Mozal", "z": "Eswatini", "country_ini_lat": -26.561914349027543, "country_ini_lon": 31.480024103008823, "lat_linestring": -26.25988921725387, "lon_linestring": 31.978138500868557, "c": "Eswatini", "c2": "Mozambique"}, "geometry": {"type": "LineString", "coordinates": [[31.480024103008823, -26.561914349027543], [32.47625289872829, -25.957864085480196]]}},
{"type": "Feature", "properties": {"z_other": "Angola", "z": "Tanzania", "country_ini_lat": -6.27509748109379, "country_ini_lon": 34.813586420527585, "lat_linestring": -9.283706562183006, "lon_linestring": 26.175285697151764, "c": "Tanzania", "c2": "Angola"}, "geometry": {"type": "LineString", "coordinates": [[34.813586420527585, -6.27509748109379], [17.536984973775947, -12.292315643272223]]}},
{"type": "Feature", "properties": {"z_other": "Botswana", "z": "Tanzania", "country_ini_lat": -6.27509748109379, "country_ini_lon": 34.813586420527585, "lat_linestring": -14.230434901061537, "lon_linestring": 29.30628657667077, "c": "Tanzania", "c2": "Botswana"}, "geometry": {"type": "LineString", "coordinates": [[34.813586420527585, -6.27509748109379], [23.798986732813958, -22.185772321029283]]}},
{"type": "Feature", "properties": {"z_other": "Lesotho", "z": "Tanzania", "country_ini_lat": -6.27509748109379, "country_ini_lon": 34.813586420527585, "lat_linestring": -17.92741396266279, "lon_linestring": 31.521104672761027, "c": "Tanzania", "c2": "Lesotho"}, "geometry": {"type": "LineString", "coordinates": [[34.813586420527585, -6.27509748109379], [28.22862292499447, -29.579730444231792]]}},
{"type": "Feature", "properties": {"z_other": "Mozambique", "z": "Tanzania", "country_ini_lat": -6.27509748109379, "country_ini_lon": 34.813586420527585, "lat_linestring": -11.772553753978565, "lon_linestring": 35.17584597650602, "c": "Tanzania", "c2": "Mozambique"}, "geometry": {"type": "LineString", "coordinates": [[34.813586420527585, -6.27509748109379], [35.53810553248445, -17.270010026863336]]}},
{"type": "Feature", "properties": {"z_other": "Malawi", "z": "Tanzania", "country_ini_lat": -6.27509748109379, "country_ini_lon": 34.813586420527585, "lat_linestring": -9.746161672889963, "lon_linestring": 34.55174711198467, "c": "Tanzania", "c2": "Malawi"}, "geometry": {"type": "LineString", "coordinates": [[34.813586420527585, -6.27509748109379], [34.28990780344174, -13.217225864686135]]}},
{"type": "Feature", "properties": {"z_other": "Namibia", "z": "Tanzania", "country_ini_lat": -6.27509748109379, "country_ini_lon": 34.813586420527585, "lat_linestring": -14.202172059880134, "lon_linestring": 26.012359808968895, "c": "Tanzania", "c2": "Namibia"}, "geometry": {"type": "LineString", "coordinates": [[34.813586420527585, -6.27509748109379], [17.211133197410206, -22.129246638666476]]}},
{"type": "Feature", "properties": {"z_other": "Eswatini", "z": "Tanzania", "country_ini_lat": -6.27509748109379, "country_ini_lon": 34.813586420527585, "lat_linestring": -16.418505915060667, "lon_linestring": 33.14680526176821, "c": "Tanzania", "c2": "Eswatini"}, "geometry": {"type": "LineString", "coordinates": [[34.813586420527585, -6.27509748109379], [31.480024103008823, -26.561914349027543]]}},
{"type": "Feature", "properties": {"z_other": "South_Africa", "z": "Tanzania", "country_ini_lat": -6.27509748109379, "country_ini_lon": 34.813586420527585, "lat_linestring": -17.63806992145253, "lon_linestring": 29.950468488429113, "c": "Tanzania", "c2": "South_Africa"}, "geometry": {"type": "LineString", "coordinates": [[34.813586420527585, -6.27509748109379], [25.08735055633064, -29.001042361811272]]}},
{"type": "Feature", "properties": {"z_other": "Zambia", "z": "Tanzania", "country_ini_lat": -6.27509748109379, "country_ini_lon": 34.813586420527585, "lat_linestring": -9.8676037497297, "lon_linestring": 31.29389937766218, "c": "Tanzania", "c2": "Zambia"}, "geometry": {"type": "LineString", "coordinates": [[34.813586420527585, -6.27509748109379], [27.774212334796776, -13.46011001836561]]}},
{"type": "Feature", "properties": {"z_other": "Zimbabwe", "z": "Tanzania", "country_ini_lat": -6.27509748109379, "country_ini_lon": 34.813586420527585, "lat_linestring": -12.638817095547854, "lon_linestring": 32.33273552055218, "c": "Tanzania", "c2": "Zimbabwe"}, "geometry": {"type": "LineString", "coordinates": [[34.813586420527585, -6.27509748109379], [29.851884620576776, -19.002536710001916]]}},
{"type": "Feature", "properties": {"z_other": "DRC", "z": "Tanzania", "country_ini_lat": -6.27509748109379, "country_ini_lon": 34.813586420527585, "lat_linestring": -2.9953725556675828, "lon_linestring": 29.26729677744556, "c": "Tanzania", "c2": "DRC"}, "geometry": {"type": "LineString", "coordinates": [[34.813586420527585, -6.27509748109379], [23.721007134363532, 0.284352369758625]]}},
{"type": "Feature", "properties": {"z_other": "DRC_South", "z": "Tanzania", "country_ini_lat": -6.27509748109379, "country_ini_lon": 34.813586420527585, "lat_linestring": -6.71364459665494, "lon_linestring": 29.17811256131982, "c": "Tanzania", "c2": "DRC"}, "geometry": {"type": "LineString", "coordinates": [[34.813586420527585, -6.27509748109379], [23.54263870211206, -7.152191712216087]]}},
{"type": "Feature", "properties": {"z_other": "Mozal", "z": "Tanzania", "country_ini_lat": -6.27509748109379, "country_ini_lon": 34.813586420527585, "lat_linestring": -16.116480783286992, "lon_linestring": 33.64491965962794, "c": "Tanzania", "c2": "Mozambique"}, "geometry": {"type": "LineString", "coordinates": [[34.813586420527585, -6.27509748109379], [32.47625289872829, -25.957864085480196]]}},
{"type": "Feature", "properties": {"z_other": "Angola", "z": "South_Africa", "country_ini_lat": -29.001042361811272, "country_ini_lon": 25.08735055633064, "lat_linestring": -20.64667900254175, "lon_linestring": 21.312167765053296, "c": "South_Africa", "c2": "Angola"}, "geometry": {"type": "LineString", "coordinates": [[25.08735055633064, -29.001042361811272], [17.536984973775947, -12.292315643272223]]}},
{"type": "Feature", "properties": {"z_other": "Botswana", "z": "South_Africa", "country_ini_lat": -29.001042361811272, "country_ini_lon": 25.08735055633064, "lat_linestring": -25.593407341420278, "lon_linestring": 24.4431686445723, "c": "South_Africa", "c2": "Botswana"}, "geometry": {"type": "LineString", "coordinates": [[25.08735055633064, -29.001042361811272], [23.798986732813958, -22.185772321029283]]}},
{"type": "Feature", "properties": {"z_other": "Lesotho", "z": "South_Africa", "country_ini_lat": -29.001042361811272, "country_ini_lon": 25.08735055633064, "lat_linestring": -29.290386403021532, "lon_linestring": 26.65798674066255, "c": "South_Africa", "c2": "Lesotho"}, "geometry": {"type": "LineString", "coordinates": [[25.08735055633064, -29.001042361811272], [28.22862292499447, -29.579730444231792]]}},
{"type": "Feature", "properties": {"z_other": "Mozambique", "z": "South_Africa", "country_ini_lat": -29.001042361811272, "country_ini_lon": 25.08735055633064, "lat_linestring": -23.135526194337302, "lon_linestring": 30.312728044407546, "c": "South_Africa", "c2": "Mozambique"}, "geometry": {"type": "LineString", "coordinates": [[25.08735055633064, -29.001042361811272], [35.53810553248445, -17.270010026863336]]}},
{"type": "Feature", "properties": {"z_other": "Malawi", "z": "South_Africa", "country_ini_lat": -29.001042361811272, "country_ini_lon": 25.08735055633064, "lat_linestring": -21.109134113248704, "lon_linestring": 29.688629179886192, "c": "South_Africa", "c2": "Malawi"}, "geometry": {"type": "LineString", "coordinates": [[25.08735055633064, -29.001042361811272], [34.28990780344174, -13.217225864686135]]}},
{"type": "Feature", "properties": {"z_other": "Namibia", "z": "South_Africa", "country_ini_lat": -29.001042361811272, "country_ini_lon": 25.08735055633064, "lat_linestring": -25.56514450023887, "lon_linestring": 21.149241876870423, "c": "South_Africa", "c2": "Namibia"}, "geometry": {"type": "LineString", "coordinates": [[25.08735055633064, -29.001042361811272], [17.211133197410206, -22.129246638666476]]}},
{"type": "Feature", "properties": {"z_other": "Eswatini", "z": "South_Africa", "country_ini_lat": -29.001042361811272, "country_ini_lon": 25.08735055633064, "lat_linestring": -27.781478355419406, "lon_linestring": 28.283687329669732, "c": "South_Africa", "c2": "Eswatini"}, "geometry": {"type": "LineString", "coordinates": [[25.08735055633064, -29.001042361811272], [31.480024103008823, -26.561914349027543]]}},
{"type": "Feature", "properties": {"z_other": "Tanzania", "z": "South_Africa", "country_ini_lat": -29.001042361811272, "country_ini_lon": 25.08735055633064, "lat_linestring": -17.63806992145253, "lon_linestring": 29.950468488429113, "c": "South_Africa", "c2": "Tanzania"}, "geometry": {"type": "LineString", "coordinates": [[25.08735055633064, -29.001042361811272], [34.813586420527585, -6.27509748109379]]}},
{"type": "Feature", "properties": {"z_other": "Zambia", "z": "South_Africa", "country_ini_lat": -29.001042361811272, "country_ini_lon": 25.08735055633064, "lat_linestring": -21.230576190088442, "lon_linestring": 26.43078144556371, "c": "South_Africa", "c2": "Zambia"}, "geometry": {"type": "LineString", "coordinates": [[25.08735055633064, -29.001042361811272], [27.774212334796776, -13.46011001836561]]}},
{"type": "Feature", "properties": {"z_other": "Zimbabwe", "z": "South_Africa", "country_ini_lat": -29.001042361811272, "country_ini_lon": 25.08735055633064, "lat_linestring": -24.0017895359066, "lon_linestring": 27.469617588453712, "c": "South_Africa", "c2": "Zimbabwe"}, "geometry": {"type": "LineString", "coordinates": [[25.08735055633064, -29.001042361811272], [29.851884620576776, -19.002536710001916]]}},
{"type": "Feature", "properties": {"z_other": "DRC", "z": "South_Africa", "country_ini_lat": -29.001042361811272, "country_ini_lon": 25.08735055633064, "lat_linestring": -14.358344996026325, "lon_linestring": 24.404178845347086, "c": "South_Africa", "c2": "DRC"}, "geometry": {"type": "LineString", "coordinates": [[25.08735055633064, -29.001042361811272], [23.721007134363532, 0.284352369758625]]}},
{"type": "Feature", "properties": {"z_other": "DRC_South", "z": "South_Africa", "country_ini_lat": -29.001042361811272, "country_ini_lon": 25.08735055633064, "lat_linestring": -18.07661703701368, "lon_linestring": 24.314994629221353, "c": "South_Africa", "c2": "DRC"}, "geometry": {"type": "LineString", "coordinates": [[25.08735055633064, -29.001042361811272], [23.54263870211206, -7.152191712216087]]}},
{"type": "Feature", "properties": {"z_other": "Mozal", "z": "South_Africa", "country_ini_lat": -29.001042361811272, "country_ini_lon": 25.08735055633064, "lat_linestring": -27.479453223645734, "lon_linestring": 28.781801727529466, "c": "South_Africa", "c2": "Mozambique"}, "geometry": {"type": "LineString", "coordinates": [[25.08735055633064, -29.001042361811272], [32.47625289872829, -25.957864085480196]]}},
{"type": "Feature", "properties": {"z_other": "Angola", "z": "Zambia", "country_ini_lat": -13.46011001836561, "country_ini_lon": 27.774212334796776, "lat_linestring": -12.876212830818918, "lon_linestring": 22.65559865428636, "c": "Zambia", "c2": "Angola"}, "geometry": {"type": "LineString", "coordinates": [[27.774212334796776, -13.46011001836561], [17.536984973775947, -12.292315643272223]]}},
{"type": "Feature", "properties": {"z_other": "Botswana", "z": "Zambia", "country_ini_lat": -13.46011001836561, "country_ini_lon": 27.774212334796776, "lat_linestring": -17.822941169697447, "lon_linestring": 25.786599533805365, "c": "Zambia", "c2": "Botswana"}, "geometry": {"type": "LineString", "coordinates": [[27.774212334796776, -13.46011001836561], [23.798986732813958, -22.185772321029283]]}},
{"type": "Feature", "properties": {"z_other": "Lesotho", "z": "Zambia", "country_ini_lat": -13.46011001836561, "country_ini_lon": 27.774212334796776, "lat_linestring": -21.519920231298702, "lon_linestring": 28.00141762989562, "c": "Zambia", "c2": "Lesotho"}, "geometry": {"type": "LineString", "coordinates": [[27.774212334796776, -13.46011001836561], [28.22862292499447, -29.579730444231792]]}},
{"type": "Feature", "properties": {"z_other": "Mozambique", "z": "Zambia", "country_ini_lat": -13.46011001836561, "country_ini_lon": 27.774212334796776, "lat_linestring": -15.36506002261447, "lon_linestring": 31.65615893364061, "c": "Zambia", "c2": "Mozambique"}, "geometry": {"type": "LineString", "coordinates": [[27.774212334796776, -13.46011001836561], [35.53810553248445, -17.270010026863336]]}},
{"type": "Feature", "properties": {"z_other": "Malawi", "z": "Zambia", "country_ini_lat": -13.46011001836561, "country_ini_lon": 27.774212334796776, "lat_linestring": -13.338667941525873, "lon_linestring": 31.03206006911926, "c": "Zambia", "c2": "Malawi"}, "geometry": {"type": "LineString", "coordinates": [[27.774212334796776, -13.46011001836561], [34.28990780344174, -13.217225864686135]]}},
{"type": "Feature", "properties": {"z_other": "Namibia", "z": "Zambia", "country_ini_lat": -13.46011001836561, "country_ini_lon": 27.774212334796776, "lat_linestring": -17.794678328516042, "lon_linestring": 22.49267276610349, "c": "Zambia", "c2": "Namibia"}, "geometry": {"type": "LineString", "coordinates": [[27.774212334796776, -13.46011001836561], [17.211133197410206, -22.129246638666476]]}},
{"type": "Feature", "properties": {"z_other": "Eswatini", "z": "Zambia", "country_ini_lat": -13.46011001836561, "country_ini_lon": 27.774212334796776, "lat_linestring": -20.011012183696575, "lon_linestring": 29.6271182189028, "c": "Zambia", "c2": "Eswatini"}, "geometry": {"type": "LineString", "coordinates": [[27.774212334796776, -13.46011001836561], [31.480024103008823, -26.561914349027543]]}},
{"type": "Feature", "properties": {"z_other": "Tanzania", "z": "Zambia", "country_ini_lat": -13.46011001836561, "country_ini_lon": 27.774212334796776, "lat_linestring": -9.8676037497297, "lon_linestring": 31.29389937766218, "c": "Zambia", "c2": "Tanzania"}, "geometry": {"type": "LineString", "coordinates": [[27.774212334796776, -13.46011001836561], [34.813586420527585, -6.27509748109379]]}},
{"type": "Feature", "properties": {"z_other": "South_Africa", "z": "Zambia", "country_ini_lat": -13.46011001836561, "country_ini_lon": 27.774212334796776, "lat_linestring": -21.230576190088442, "lon_linestring": 26.43078144556371, "c": "Zambia", "c2": "South_Africa"}, "geometry": {"type": "LineString", "coordinates": [[27.774212334796776, -13.46011001836561], [25.08735055633064, -29.001042361811272]]}},
{"type": "Feature", "properties": {"z_other": "Zimbabwe", "z": "Zambia", "country_ini_lat": -13.46011001836561, "country_ini_lon": 27.774212334796776, "lat_linestring": -16.231323364183762, "lon_linestring": 28.813048477686774, "c": "Zambia", "c2": "Zimbabwe"}, "geometry": {"type": "LineString", "coordinates": [[27.774212334796776, -13.46011001836561], [29.851884620576776, -19.002536710001916]]}},
{"type": "Feature", "properties": {"z_other": "DRC", "z": "Zambia", "country_ini_lat": -13.46011001836561, "country_ini_lon": 27.774212334796776, "lat_linestring": -6.587878824303493, "lon_linestring": 25.747609734580152, "c": "Zambia", "c2": "DRC"}, "geometry": {"type": "LineString", "coordinates": [[27.774212334796776, -13.46011001836561], [23.721007134363532, 0.284352369758625]]}},
{"type": "Feature", "properties": {"z_other": "DRC_South", "z": "Zambia", "country_ini_lat": -13.46011001836561, "country_ini_lon": 27.774212334796776, "lat_linestring": -10.30615086529085, "lon_linestring": 25.65842551845442, "c": "Zambia", "c2": "DRC"}, "geometry": {"type": "LineString", "coordinates": [[27.774212334796776, -13.46011001836561], [23.54263870211206, -7.152191712216087]]}},
{"type": "Feature", "properties": {"z_other": "Mozal", "z": "Zambia", "country_ini_lat": -13.46011001836561, "country_ini_lon": 27.774212334796776, "lat_linestring": -19.7089870519229, "lon_linestring": 30.12523261676253, "c": "Zambia", "c2": "Mozambique"}, "geometry": {"type": "LineString", "coordinates": [[27.774212334796776, -13.46011001836561], [32.47625289872829, -25.957864085480196]]}},
{"type": "Feature", "properties": {"z_other": "Angola", "z": "Zimbabwe", "country_ini_lat": -19.002536710001916, "country_ini_lon": 29.851884620576776, "lat_linestring": -15.64742617663707, "lon_linestring": 23.694434797176363, "c": "Zimbabwe", "c2": "Angola"}, "geometry": {"type": "LineString", "coordinates": [[29.851884620576776, -19.002536710001916], [17.536984973775947, -12.292315643272223]]}},
{"type": "Feature", "properties": {"z_other": "Botswana", "z": "Zimbabwe", "country_ini_lat": -19.002536710001916, "country_ini_lon": 29.851884620576776, "lat_linestring": -20.5941545155156, "lon_linestring": 26.825435676695367, "c": "Zimbabwe", "c2": "Botswana"}, "geometry": {"type": "LineString", "coordinates": [[29.851884620576776, -19.002536710001916], [23.798986732813958, -22.185772321029283]]}},
{"type": "Feature", "properties": {"z_other": "Lesotho", "z": "Zimbabwe", "country_ini_lat": -19.002536710001916, "country_ini_lon": 29.851884620576776, "lat_linestring": -24.291133577116856, "lon_linestring": 29.040253772785622, "c": "Zimbabwe", "c2": "Lesotho"}, "geometry": {"type": "LineString", "coordinates": [[29.851884620576776, -19.002536710001916], [28.22862292499447, -29.579730444231792]]}},
{"type": "Feature", "properties": {"z_other": "Mozambique", "z": "Zimbabwe", "country_ini_lat": -19.002536710001916, "country_ini_lon": 29.851884620576776, "lat_linestring": -18.136273368432626, "lon_linestring": 32.69499507653062, "c": "Zimbabwe", "c2": "Mozambique"}, "geometry": {"type": "LineString", "coordinates": [[29.851884620576776, -19.002536710001916], [35.53810553248445, -17.270010026863336]]}},
{"type": "Feature", "properties": {"z_other": "Malawi", "z": "Zimbabwe", "country_ini_lat": -19.002536710001916, "country_ini_lon": 29.851884620576776, "lat_linestring": -16.109881287344024, "lon_linestring": 32.07089621200926, "c": "Zimbabwe", "c2": "Malawi"}, "geometry": {"type": "LineString", "coordinates": [[29.851884620576776, -19.002536710001916], [34.28990780344174, -13.217225864686135]]}},
{"type": "Feature", "properties": {"z_other": "Namibia", "z": "Zimbabwe", "country_ini_lat": -19.002536710001916, "country_ini_lon": 29.851884620576776, "lat_linestring": -20.565891674334196, "lon_linestring": 23.531508908993487, "c": "Zimbabwe", "c2": "Namibia"}, "geometry": {"type": "LineString", "coordinates": [[29.851884620576776, -19.002536710001916], [17.211133197410206, -22.129246638666476]]}},
{"type": "Feature", "properties": {"z_other": "Eswatini", "z": "Zimbabwe", "country_ini_lat": -19.002536710001916, "country_ini_lon": 29.851884620576776, "lat_linestring": -22.78222552951473, "lon_linestring": 30.6659543617928, "c": "Zimbabwe", "c2": "Eswatini"}, "geometry": {"type": "LineString", "coordinates": [[29.851884620576776, -19.002536710001916], [31.480024103008823, -26.561914349027543]]}},
{"type": "Feature", "properties": {"z_other": "Tanzania", "z": "Zimbabwe", "country_ini_lat": -19.002536710001916, "country_ini_lon": 29.851884620576776, "lat_linestring": -12.638817095547854, "lon_linestring": 32.33273552055218, "c": "Zimbabwe", "c2": "Tanzania"}, "geometry": {"type": "LineString", "coordinates": [[29.851884620576776, -19.002536710001916], [34.813586420527585, -6.27509748109379]]}},
{"type": "Feature", "properties": {"z_other": "South_Africa", "z": "Zimbabwe", "country_ini_lat": -19.002536710001916, "country_ini_lon": 29.851884620576776, "lat_linestring": -24.0017895359066, "lon_linestring": 27.469617588453712, "c": "Zimbabwe", "c2": "South_Africa"}, "geometry": {"type": "LineString", "coordinates": [[29.851884620576776, -19.002536710001916], [25.08735055633064, -29.001042361811272]]}},
{"type": "Feature", "properties": {"z_other": "Zambia", "z": "Zimbabwe", "country_ini_lat": -19.002536710001916, "country_ini_lon": 29.851884620576776, "lat_linestring": -16.231323364183762, "lon_linestring": 28.813048477686774, "c": "Zimbabwe", "c2": "Zambia"}, "geometry": {"type": "LineString", "coordinates": [[29.851884620576776, -19.002536710001916], [27.774212334796776, -13.46011001836561]]}},
{"type": "Feature", "properties": {"z_other": "DRC", "z": "Zimbabwe", "country_ini_lat": -19.002536710001916, "country_ini_lon": 29.851884620576776, "lat_linestring": -9.359092170121645, "lon_linestring": 26.786445877470157, "c": "Zimbabwe", "c2": "DRC"}, "geometry": {"type": "LineString", "coordinates": [[29.851884620576776, -19.002536710001916], [23.721007134363532, 0.284352369758625]]}},
{"type": "Feature", "properties": {"z_other": "DRC_South", "z": "Zimbabwe", "country_ini_lat": -19.002536710001916, "country_ini_lon": 29.851884620576776, "lat_linestring": -13.077364211109002, "lon_linestring": 26.69726166134442, "c": "Zimbabwe", "c2": "DRC"}, "geometry": {"type": "LineString", "coordinates": [[29.851884620576776, -19.002536710001916], [23.54263870211206, -7.152191712216087]]}},
{"type": "Feature", "properties": {"z_other": "Mozal", "z": "Zimbabwe", "country_ini_lat": -19.002536710001916, "country_ini_lon": 29.851884620576776, "lat_linestring": -22.480200397741058, "lon_linestring": 31.164068759652533, "c": "Zimbabwe", "c2": "Mozambique"}, "geometry": {"type": "LineString", "coordinates": [[29.851884620576776, -19.002536710001916], [32.47625289872829, -25.957864085480196]]}},
{"type": "Feature", "properties": {"z_other": "Angola", "z": "DRC", "country_ini_lat": 0.28435236975862466, "country_ini_lon": 23.721007134363532, "lat_linestring": -6.0039816367568, "lon_linestring": 20.628996054069738, "c": "DRC", "c2": "Angola"}, "geometry": {"type": "LineString", "coordinates": [[23.721007134363532, 0.284352369758625], [17.536984973775947, -12.292315643272223]]}},
{"type": "Feature", "properties": {"z_other": "Botswana", "z": "DRC", "country_ini_lat": 0.28435236975862466, "country_ini_lon": 23.721007134363532, "lat_linestring": -10.950709975635329, "lon_linestring": 23.75999693358875, "c": "DRC", "c2": "Botswana"}, "geometry": {"type": "LineString", "coordinates": [[23.721007134363532, 0.284352369758625], [23.798986732813958, -22.185772321029283]]}},
{"type": "Feature", "properties": {"z_other": "Lesotho", "z": "DRC", "country_ini_lat": 0.28435236975862466, "country_ini_lon": 23.721007134363532, "lat_linestring": -14.647689037236583, "lon_linestring": 25.974815029679, "c": "DRC", "c2": "Lesotho"}, "geometry": {"type": "LineString", "coordinates": [[23.721007134363532, 0.284352369758625], [28.22862292499447, -29.579730444231792]]}},
{"type": "Feature", "properties": {"z_other": "Mozambique", "z": "DRC", "country_ini_lat": 0.28435236975862466, "country_ini_lon": 23.721007134363532, "lat_linestring": -8.492828828552355, "lon_linestring": 29.62955633342399, "c": "DRC", "c2": "Mozambique"}, "geometry": {"type": "LineString", "coordinates": [[23.721007134363532, 0.284352369758625], [35.53810553248445, -17.270010026863336]]}},
{"type": "Feature", "properties": {"z_other": "Malawi", "z": "DRC", "country_ini_lat": 0.28435236975862466, "country_ini_lon": 23.721007134363532, "lat_linestring": -6.466436747463756, "lon_linestring": 29.005457468902637, "c": "DRC", "c2": "Malawi"}, "geometry": {"type": "LineString", "coordinates": [[23.721007134363532, 0.284352369758625], [34.28990780344174, -13.217225864686135]]}},
{"type": "Feature", "properties": {"z_other": "Namibia", "z": "DRC", "country_ini_lat": 0.28435236975862466, "country_ini_lon": 23.721007134363532, "lat_linestring": -10.922447134453925, "lon_linestring": 20.46607016588687, "c": "DRC", "c2": "Namibia"}, "geometry": {"type": "LineString", "coordinates": [[23.721007134363532, 0.284352369758625], [17.211133197410206, -22.129246638666476]]}},
{"type": "Feature", "properties": {"z_other": "Eswatini", "z": "DRC", "country_ini_lat": 0.28435236975862466, "country_ini_lon": 23.721007134363532, "lat_linestring": -13.138780989634459, "lon_linestring": 27.600515618686178, "c": "DRC", "c2": "Eswatini"}, "geometry": {"type": "LineString", "coordinates": [[23.721007134363532, 0.284352369758625], [31.480024103008823, -26.561914349027543]]}},
{"type": "Feature", "properties": {"z_other": "Tanzania", "z": "DRC", "country_ini_lat": 0.28435236975862466, "country_ini_lon": 23.721007134363532, "lat_linestring": -2.9953725556675828, "lon_linestring": 29.26729677744556, "c": "DRC", "c2": "Tanzania"}, "geometry": {"type": "LineString", "coordinates": [[23.721007134363532, 0.284352369758625], [34.813586420527585, -6.27509748109379]]}},
{"type": "Feature", "properties": {"z_other": "South_Africa", "z": "DRC", "country_ini_lat": 0.28435236975862466, "country_ini_lon": 23.721007134363532, "lat_linestring": -14.358344996026325, "lon_linestring": 24.404178845347086, "c": "DRC", "c2": "South_Africa"}, "geometry": {"type": "LineString", "coordinates": [[23.721007134363532, 0.284352369758625], [25.08735055633064, -29.001042361811272]]}},
{"type": "Feature", "properties": {"z_other": "Zambia", "z": "DRC", "country_ini_lat": 0.28435236975862466, "country_ini_lon": 23.721007134363532, "lat_linestring": -6.587878824303493, "lon_linestring": 25.747609734580152, "c": "DRC", "c2": "Zambia"}, "geometry": {"type": "LineString", "coordinates": [[23.721007134363532, 0.284352369758625], [27.774212334796776, -13.46011001836561]]}},
{"type": "Feature", "properties": {"z_other": "Zimbabwe", "z": "DRC", "country_ini_lat": 0.28435236975862466, "country_ini_lon": 23.721007134363532, "lat_linestring": -9.359092170121645, "lon_linestring": 26.786445877470157, "c": "DRC", "c2": "Zimbabwe"}, "geometry": {"type": "LineString", "coordinates": [[23.721007134363532, 0.284352369758625], [29.851884620576776, -19.002536710001916]]}},
{"type": "Feature", "properties": {"z_other": "DRC_South", "z": "DRC", "country_ini_lat": 0.28435236975862466, "country_ini_lon": 23.721007134363532, "lat_linestring": -3.433919671228731, "lon_linestring": 23.631822918237795, "c": "DRC", "c2": "DRC"}, "geometry": {"type": "LineString", "coordinates": [[23.721007134363532, 0.284352369758625], [23.54263870211206, -7.152191712216087]]}},
{"type": "Feature", "properties": {"z_other": "Mozal", "z": "DRC", "country_ini_lat": 0.28435236975862466, "country_ini_lon": 23.721007134363532, "lat_linestring": -12.836755857860785, "lon_linestring": 28.09863001654591, "c": "DRC", "c2": "Mozambique"}, "geometry": {"type": "LineString", "coordinates": [[23.721007134363532, 0.284352369758625], [32.47625289872829, -25.957864085480196]]}},
{"type": "Feature", "properties": {"z_other": "Angola", "z": "DRC_South", "country_ini_lat": -7.152191712216087, "country_ini_lon": 23.54263870211206, "lat_linestring": -9.722253677744156, "lon_linestring": 20.539811837944004, "c": "DRC", "c2": "Angola"}, "geometry": {"type": "LineString", "coordinates": [[23.54263870211206, -7.152191712216087], [17.536984973775947, -12.292315643272223]]}},
{"type": "Feature", "properties": {"z_other": "Botswana", "z": "DRC_South", "country_ini_lat": -7.152191712216087, "country_ini_lon": 23.54263870211206, "lat_linestring": -14.668982016622685, "lon_linestring": 23.670812717463008, "c": "DRC", "c2": "Botswana"}, "geometry": {"type": "LineString", "coordinates": [[23.54263870211206, -7.152191712216087], [23.798986732813958, -22.185772321029283]]}},
{"type": "Feature", "properties": {"z_other": "Lesotho", "z": "DRC_South", "country_ini_lat": -7.152191712216087, "country_ini_lon": 23.54263870211206, "lat_linestring": -18.36596107822394, "lon_linestring": 25.885630813553263, "c": "DRC", "c2": "Lesotho"}, "geometry": {"type": "LineString", "coordinates": [[23.54263870211206, -7.152191712216087], [28.22862292499447, -29.579730444231792]]}},
{"type": "Feature", "properties": {"z_other": "Mozambique", "z": "DRC_South", "country_ini_lat": -7.152191712216087, "country_ini_lon": 23.54263870211206, "lat_linestring": -12.211100869539711, "lon_linestring": 29.540372117298254, "c": "DRC", "c2": "Mozambique"}, "geometry": {"type": "LineString", "coordinates": [[23.54263870211206, -7.152191712216087], [35.53810553248445, -17.270010026863336]]}},
{"type": "Feature", "properties": {"z_other": "Malawi", "z": "DRC_South", "country_ini_lat": -7.152191712216087, "country_ini_lon": 23.54263870211206, "lat_linestring": -10.184708788451111, "lon_linestring": 28.916273252776904, "c": "DRC", "c2": "Malawi"}, "geometry": {"type": "LineString", "coordinates": [[23.54263870211206, -7.152191712216087], [34.28990780344174, -13.217225864686135]]}},
{"type": "Feature", "properties": {"z_other": "Namibia", "z": "DRC_South", "country_ini_lat": -7.152191712216087, "country_ini_lon": 23.54263870211206, "lat_linestring": -14.640719175441282, "lon_linestring": 20.37688594976113, "c": "DRC", "c2": "Namibia"}, "geometry": {"type": "LineString", "coordinates": [[23.54263870211206, -7.152191712216087], [17.211133197410206, -22.129246638666476]]}},
{"type": "Feature", "properties": {"z_other": "Eswatini", "z": "DRC_South", "country_ini_lat": -7.152191712216087, "country_ini_lon": 23.54263870211206, "lat_linestring": -16.857053030621813, "lon_linestring": 27.511331402560447, "c": "DRC", "c2": "Eswatini"}, "geometry": {"type": "LineString", "coordinates": [[23.54263870211206, -7.152191712216087], [31.480024103008823, -26.561914349027543]]}},
{"type": "Feature", "properties": {"z_other": "Tanzania", "z": "DRC_South", "country_ini_lat": -7.152191712216087, "country_ini_lon": 23.54263870211206, "lat_linestring": -6.71364459665494, "lon_linestring": 29.17811256131982, "c": "DRC", "c2": "Tanzania"}, "geometry": {"type": "LineString", "coordinates": [[23.54263870211206, -7.152191712216087], [34.813586420527585, -6.27509748109379]]}},
{"type": "Feature", "properties": {"z_other": "South_Africa", "z": "DRC_South", "country_ini_lat": -7.152191712216087, "country_ini_lon": 23.54263870211206, "lat_linestring": -18.07661703701368, "lon_linestring": 24.314994629221353, "c": "DRC", "c2": "South_Africa"}, "geometry": {"type": "LineString", "coordinates": [[23.54263870211206, -7.152191712216087], [25.08735055633064, -29.001042361811272]]}},
{"type": "Feature", "properties": {"z_other": "Zambia", "z": "DRC_South", "country_ini_lat": -7.152191712216087, "country_ini_lon": 23.54263870211206, "lat_linestring": -10.30615086529085, "lon_linestring": 25.65842551845442, "c": "DRC", "c2": "Zambia"}, "geometry": {"type": "LineString", "coordinates": [[23.54263870211206, -7.152191712216087], [27.774212334796776, -13.46011001836561]]}},
{"type": "Feature", "properties": {"z_other": "Zimbabwe", "z": "DRC_South", "country_ini_lat": -7.152191712216087, "country_ini_lon": 23.54263870211206, "lat_linestring": -13.077364211109002, "lon_linestring": 26.69726166134442, "c": "DRC", "c2": "Zimbabwe"}, "geometry": {"type": "LineString", "coordinates": [[23.54263870211206, -7.152191712216087], [29.851884620576776, -19.002536710001916]]}},
{"type": "Feature", "properties": {"z_other": "DRC", "z": "DRC_South", "country_ini_lat": -7.152191712216087, "country_ini_lon": 23.54263870211206, "lat_linestring": -3.433919671228731, "lon_linestring": 23.631822918237795, "c": "DRC", "c2": "DRC"}, "geometry": {"type": "LineString", "coordinates": [[23.54263870211206, -7.152191712216087], [23.721007134363532, 0.284352369758625]]}},
{"type": "Feature", "properties": {"z_other": "Mozal", "z": "DRC_South", "country_ini_lat": -7.152191712216087, "country_ini_lon": 23.54263870211206, "lat_linestring": -16.55502789884814, "lon_linestring": 28.00944580042017, "c": "DRC", "c2": "Mozambique"}, "geometry": {"type": "LineString", "coordinates": [[23.54263870211206, -7.152191712216087], [32.47625289872829, -25.957864085480196]]}},
{"type": "Feature", "properties": {"z_other": "Angola", "z": "Mozal", "country_ini_lat": -25.957864085480196, "country_ini_lon": 32.47625289872829, "lat_linestring": -19.12508986437621, "lon_linestring": 25.006618936252117, "c": "Mozambique", "c2": "Angola"}, "geometry": {"type": "LineString", "coordinates": [[32.47625289872829, -25.957864085480196], [17.536984973775947, -12.292315643272223]]}},
{"type": "Feature", "properties": {"z_other": "Botswana", "z": "Mozal", "country_ini_lat": -25.957864085480196, "country_ini_lon": 32.47625289872829, "lat_linestring": -24.07181820325474, "lon_linestring": 28.137619815771124, "c": "Mozambique", "c2": "Botswana"}, "geometry": {"type": "LineString", "coordinates": [[32.47625289872829, -25.957864085480196], [23.798986732813958, -22.185772321029283]]}},
{"type": "Feature", "properties": {"z_other": "Lesotho", "z": "Mozal", "country_ini_lat": -25.957864085480196, "country_ini_lon": 32.47625289872829, "lat_linestring": -27.768797264855998, "lon_linestring": 30.352437911861376, "c": "Mozambique", "c2": "Lesotho"}, "geometry": {"type": "LineString", "coordinates": [[32.47625289872829, -25.957864085480196], [28.22862292499447, -29.579730444231792]]}},
{"type": "Feature", "properties": {"z_other": "Mozambique", "z": "Mozal", "country_ini_lat": -25.957864085480196, "country_ini_lon": 32.47625289872829, "lat_linestring": -21.613937056171764, "lon_linestring": 34.00717921560637, "c": "Mozambique", "c2": "Mozambique"}, "geometry": {"type": "LineString", "coordinates": [[32.47625289872829, -25.957864085480196], [35.53810553248445, -17.270010026863336]]}},
{"type": "Feature", "properties": {"z_other": "Malawi", "z": "Mozal", "country_ini_lat": -25.957864085480196, "country_ini_lon": 32.47625289872829, "lat_linestring": -19.587544975083166, "lon_linestring": 33.38308035108501, "c": "Mozambique", "c2": "Malawi"}, "geometry": {"type": "LineString", "coordinates": [[32.47625289872829, -25.957864085480196], [34.28990780344174, -13.217225864686135]]}},
{"type": "Feature", "properties": {"z_other": "Namibia", "z": "Mozal", "country_ini_lat": -25.957864085480196, "country_ini_lon": 32.47625289872829, "lat_linestring": -24.043555362073334, "lon_linestring": 24.843693048069248, "c": "Mozambique", "c2": "Namibia"}, "geometry": {"type": "LineString", "coordinates": [[32.47625289872829, -25.957864085480196], [17.211133197410206, -22.129246638666476]]}},
{"type": "Feature", "properties": {"z_other": "Eswatini", "z": "Mozal", "country_ini_lat": -25.957864085480196, "country_ini_lon": 32.47625289872829, "lat_linestring": -26.25988921725387, "lon_linestring": 31.978138500868557, "c": "Mozambique", "c2": "Eswatini"}, "geometry": {"type": "LineString", "coordinates": [[32.47625289872829, -25.957864085480196], [31.480024103008823, -26.561914349027543]]}},
{"type": "Feature", "properties": {"z_other": "Tanzania", "z": "Mozal", "country_ini_lat": -25.957864085480196, "country_ini_lon": 32.47625289872829, "lat_linestring": -16.116480783286992, "lon_linestring": 33.64491965962794, "c": "Mozambique", "c2": "Tanzania"}, "geometry": {"type": "LineString", "coordinates": [[32.47625289872829, -25.957864085480196], [34.813586420527585, -6.27509748109379]]}},
{"type": "Feature", "properties": {"z_other": "South_Africa", "z": "Mozal", "country_ini_lat": -25.957864085480196, "country_ini_lon": 32.47625289872829, "lat_linestring": -27.479453223645734, "lon_linestring": 28.781801727529466, "c": "Mozambique", "c2": "South_Africa"}, "geometry": {"type": "LineString", "coordinates": [[32.47625289872829, -25.957864085480196], [25.08735055633064, -29.001042361811272]]}},
{"type": "Feature", "properties": {"z_other": "Zambia", "z": "Mozal", "country_ini_lat": -25.957864085480196, "country_ini_lon": 32.47625289872829, "lat_linestring": -19.7089870519229, "lon_linestring": 30.12523261676253, "c": "Mozambique", "c2": "Zambia"}, "geometry": {"type": "LineString", "coordinates": [[32.47625289872829, -25.957864085480196], [27.774212334796776, -13.46011001836561]]}},
{"type": "Feature", "properties": {"z_other": "Zimbabwe", "z": "Mozal", "country_ini_lat": -25.957864085480196, "country_ini_lon": 32.47625289872829, "lat_linestring": -22.480200397741058, "lon_linestring": 31.164068759652533, "c": "Mozambique", "c2": "Zimbabwe"}, "geometry": {"type": "LineString", "coordinates": [[32.47625289872829, -25.957864085480196], [29.851884620576776, -19.002536710001916]]}},
{"type": "Feature", "properties": {"z_other": "DRC", "z": "Mozal", "country_ini_lat": -25.957864085480196, "country_ini_lon": 32.47625289872829, "lat_linestring": -12.836755857860785, "lon_linestring": 28.09863001654591, "c": "Mozambique", "c2": "DRC"}, "geometry": {"type": "LineString", "coordinates": [[32.47625289872829, -25.957864085480196], [23.721007134363532, 0.284352369758625]]}},
{"type": "Feature", "properties": {"z_other": "DRC_South", "z": "Mozal", "country_ini_lat": -25.957864085480196, "country_ini_lon": 32.47625289872829, "lat_linestring": -16.55502789884814, "lon_linestring": 28.00944580042017, "c": "Mozambique", "c2": "DRC"}, "geometry": {"type": "LineString", "coordinates": [[32.47625289872829, -25.957864085480196], [23.54263870211206, -7.152191712216087]]}}
]
}
