{
"type": "FeatureCollection",
"name": "linestring_zcmap_alt",
"crs": {"type": "name", "properties": {"name": "urn:ogc:def:crs:OGC:1.3:CRS84"}},
"epm_source": {"generator": "epm/postprocessing/create_geojson.py", "generated_at": "2026-08-19T15:52:59+00:00", "zones": ["Angola", "DRC", "DRC_South", "Mozal", "Mozambique", "Namibia", "South_Africa", "Tanzania", "Zambia"], "inputs": {"zcmap": {"path": "epm/input/data_sapp/zcmap_alt.csv", "sha256": "af644659389da08d8eeacf61f0c843c8e194ac4c2150aa52a62f169babde72ac"}, "geojson_to_epm": {"path": "epm/input/data_sapp/geojson_to_epm.csv", "sha256": "a9c69757ceb9ba720396dae8e603eefcf25146a7116074a71255b23cd71cb11f"}, "zone_map": {"path": "epm/resources/postprocess/zones.geojson", "sha256": "73bc09138ba12d6790152df6bd504c9b7e0e10328aeea045138f762089f07b6b"}, "zones_custom": {"path": "epm/resources/postprocess/zones_custom.geojson", "sha256": "9464d31496d7829ef7fc09fbf13c70e6ed1bd4dcaf9918f8e2c43b2a92e76ef8"}}},
"features": [
{"type": "Feature", "properties": {"z_other": "Mozambique", "z": "Angola", "country_ini_lat": -12.292315643272223, "country_ini_lon": 17.536984973775947, "lat_linestring": -14.781162835067779, "lon_linestring": 26.537545253130197, "c": "Angola", "c2": "Mozambique"}, "geometry": {"type": "LineString", "coordinates": [[17.536984973775947, -12.292315643272223], [35.53810553248445, -17.270010026863336]]}},
{"type": "Feature", "properties": {"z_other": "Namibia", "z": "Angola", "country_ini_lat": -12.292315643272223, "country_ini_lon": 17.536984973775947, "lat_linestring": -17.21078114096935, "lon_linestring": 17.374059085593075, "c": "Angola", "c2": "Namibia"}, "geometry": {"type": "LineString", "coordinates": [[17.536984973775947, -12.292315643272223], [17.211133197410206, -22.129246638666476]]}},
{"type": "Feature", "properties": {"z_other": "Tanzania", "z": "Angola", "country_ini_lat": -12.292315643272223, "country_ini_lon": 17.536984973775947, "lat_linestring": -9.283706562183006, "lon_linestring": 26.175285697151764, "c": "Angola", "c2": "Tanzania"}, "geometry": {"type": "LineString", "coordinates": [[17.536984973775947, -12.292315643272223], [34.813586420527585, -6.27509748109379]]}},
{"type": "Feature", "properties": {"z_other": "South_Africa", "z": "Angola", "country_ini_lat": -12.292315643272223, "country_ini_lon": 17.536984973775947, "lat_linestring": -20.64667900254175, "lon_linestring": 21.312167765053296, "c": "Angola", "c2": "South_Africa"}, "geometry": {"type": "LineString", "coordinates": [[17.536984973775947, -12.292315643272223], [25.08735055633064, -29.001042361811272]]}},
{"type": "Feature", "properties": {"z_other": "Zambia", "z": "Angola", "country_ini_lat": -12.292315643272223, "country_ini_lon": 17.536984973775947, "lat_linestring": -12.876212830818918, "lon_linestring": 22.65559865428636, "c": "Angola", "c2": "Zambia"}, "geometry": {"type": "LineString", "coordinates": [[17.536984973775947, -12.292315643272223], [27.774212334796776, -13.46011001836561]]}},
{"type": "Feature", "properties": {"z_other": "DRC", "z": "Angola", "country_ini_lat": -12.292315643272223, "country_ini_lon": 17.536984973775947, "lat_linestring": -6.0039816367568, "lon_linestring": 20.628996054069738, "c": "Angola", "c2": null}, "geometry": {"type": "LineString", "coordinates": [[17.536984973775947, -12.292315643272223], [23.721007134363532, 0.284352369758625]]}},
{"type": "Feature", "properties": {"z_other": "DRC_South", "z": "Angola", "country_ini_lat": -12.292315643272223, "country_ini_lon": 17.536984973775947, "lat_linestring": -9.722253677744156, "lon_linestring": 20.539811837944004, "c": "Angola", "c2": null}, "geometry": {"type": "LineString", "coordinates": [[17.536984973775947, -12.292315643272223], [23.54263870211206, -7.152191712216087]]}},
{"type": "Feature", "properties": {"z_other": "Mozal", "z": "Angola", "country_ini_lat": -12.292315643272223, "country_ini_lon": 17.536984973775947, "lat_linestring": -19.12508986437621, "lon_linestring": 25.006618936252117, "c": "Angola", "c2": "Mozambique"}, "geometry": {"type": "LineString", "coordinates": [[17.536984973775947, -12.292315643272223], [32.47625289872829, -25.957864085480196]]}},
{"type": "Feature", "properties": {"z_other": "Angola", "z": "Mozambique", "country_ini_lat": -17.270010026863336, "country_ini_lon": 35.53810553248445, "lat_linestring": -14.781162835067779, "lon_linestring": 26.537545253130197, "c": "Mozambique", "c2": "Angola"}, "geometry": {"type": "LineString", "coordinates": [[35.53810553248445, -17.270010026863336], [17.536984973775947, -12.292315643272223]]}},
{"type": "Feature", "properties": {"z_other": "Namibia", "z": "Mozambique", "country_ini_lat": -17.270010026863336, "country_ini_lon": 35.53810553248445, "lat_linestring": -19.699628332764906, "lon_linestring": 26.37461936494733, "c": "Mozambique", "c2": "Namibia"}, "geometry": {"type": "LineString", "coordinates": [[35.53810553248445, -17.270010026863336], [17.211133197410206, -22.129246638666476]]}},
{"type": "Feature", "properties": {"z_other": "Tanzania", "z": "Mozambique", "country_ini_lat": -17.270010026863336, "country_ini_lon": 35.53810553248445, "lat_linestring": -11.772553753978565, "lon_linestring": 35.17584597650602, "c": "Mozambique", "c2": "Tanzania"}, "geometry": {"type": "LineString", "coordinates": [[35.53810553248445, -17.270010026863336], [34.813586420527585, -6.27509748109379]]}},
{"type": "Feature", "properties": {"z_other": "South_Africa", "z": "Mozambique", "country_ini_lat": -17.270010026863336, "country_ini_lon": 35.53810553248445, "lat_linestring": -23.135526194337302, "lon_linestring": 30.312728044407546, "c": "Mozambique", "c2": "South_Africa"}, "geometry": {"type": "LineString", "coordinates": [[35.53810553248445, -17.270010026863336], [25.08735055633064, -29.001042361811272]]}},
{"type": "Feature", "properties": {"z_other": "Zambia", "z": "Mozambique", "country_ini_lat": -17.270010026863336, "country_ini_lon": 35.53810553248445, "lat_linestring": -15.36506002261447, "lon_linestring": 31.65615893364061, "c": "Mozambique", "c2": "Zambia"}, "geometry": {"type": "LineString", "coordinates": [[35.53810553248445, -17.270010026863336], [27.774212334796776, -13.46011001836561]]}},
{"type": "Feature", "properties": {"z_other": "DRC", "z": "Mozambique", "country_ini_lat": -17.270010026863336, "country_ini_lon": 35.53810553248445, "lat_linestring": -8.492828828552355, "lon_linestring": 29.62955633342399, "c": "Mozambique", "c2": null}, "geometry": {"type": "LineString", "coordinates": [[35.53810553248445, -17.270010026863336], [23.721007134363532, 0.284352369758625]]}},
{"type": "Feature", "properties": {"z_other": "DRC_South", "z": "Mozambique", "country_ini_lat": -17.270010026863336, "country_ini_lon": 35.53810553248445, "lat_linestring": -12.211100869539711, "lon_linestring": 29.540372117298254, "c": "Mozambique", "c2": null}, "geometry": {"type": "LineString", "coordinates": [[35.53810553248445, -17.270010026863336], [23.54263870211206, -7.152191712216087]]}},
{"type": "Feature", "properties": {"z_other": "Mozal", "z": "Mozambique", "country_ini_lat": -17.270010026863336, "country_ini_lon": 35.53810553248445, "lat_linestring": -21.613937056171764, "lon_linestring": 34.00717921560637, "c": "Mozambique", "c2": "Mozambique"}, "geometry": {"type": "LineString", "coordinates": [[35.53810553248445, -17.270010026863336], [32.47625289872829, -25.957864085480196]]}},
{"type": "Feature", "properties": {"z_other": "Angola", "z": "Namibia", "country_ini_lat": -22.129246638666476, "country_ini_lon": 17.211133197410206, "lat_linestring": -17.21078114096935, "lon_linestring": 17.374059085593075, "c": "Namibia", "c2": "Angola"}, "geometry": {"type": "LineString", "coordinates": [[17.211133197410206, -22.129246638666476], [17.536984973775947, -12.292315643272223]]}},
{"type": "Feature", "properties": {"z_other": "Mozambique", "z": "Namibia", "country_ini_lat": -22.129246638666476, "country_ini_lon": 17.211133197410206, "lat_linestring": -19.699628332764906, "lon_linestring": 26.37461936494733, "c": "Namibia", "c2": "Mozambique"}, "geometry": {"type": "LineString", "coordinates": [[17.211133197410206, -22.129246638666476], [35.53810553248445, -17.270010026863336]]}},
{"type": "Feature", "properties": {"z_other": "Tanzania", "z": "Namibia", "country_ini_lat": -22.129246638666476, "country_ini_lon": 17.211133197410206, "lat_linestring": -14.202172059880134, "lon_linestring": 26.012359808968895, "c": "Namibia", "c2": "Tanzania"}, "geometry": {"type": "LineString", "coordinates": [[17.211133197410206, -22.129246638666476], [34.813586420527585, -6.27509748109379]]}},
{"type": "Feature", "properties": {"z_other": "South_Africa", "z": "Namibia", "country_ini_lat": -22.129246638666476, "country_ini_lon": 17.211133197410206, "lat_linestring": -25.56514450023887, "lon_linestring": 21.149241876870423, "c": "Namibia", "c2": "South_Africa"}, "geometry": {"type": "LineString", "coordinates": [[17.211133197410206, -22.129246638666476], [25.08735055633064, -29.001042361811272]]}},
{"type": "Feature", "properties": {"z_other": "Zambia", "z": "Namibia", "country_ini_lat": -22.129246638666476, "country_ini_lon": 17.211133197410206, "lat_linestring": -17.794678328516042, "lon_linestring": 22.49267276610349, "c": "Namibia", "c2": "Zambia"}, "geometry": {"type": "LineString", "coordinates": [[17.211133197410206, -22.129246638666476], [27.774212334796776, -13.46011001836561]]}},
{"type": "Feature", "properties": {"z_other": "DRC", "z": "Namibia", "country_ini_lat": -22.129246638666476, "country_ini_lon": 17.211133197410206, "lat_linestring": -10.922447134453925, "lon_linestring": 20.46607016588687, "c": "Namibia", "c2": null}, "geometry": {"type": "LineString", "coordinates": [[17.211133197410206, -22.129246638666476], [23.721007134363532, 0.284352369758625]]}},
{"type": "Feature", "properties": {"z_other": "DRC_South", "z": "Namibia", "country_ini_lat": -22.129246638666476, "country_ini_lon": 17.211133197410206, "lat_linestring": -14.640719175441282, "lon_linestring": 20.37688594976113, "c": "Namibia", "c2": null}, "geometry": {"type": "LineString", "coordinates": [[17.211133197410206, -22.129246638666476], [23.54263870211206, -7.152191712216087]]}},
{"type": "Feature", "properties": {"z_other": "Mozal", "z": "Namibia", "country_ini_lat": -22.129246638666476, "country_ini_lon": 17.211133197410206, "lat_linestring": -24.043555362073334, "lon_linestring": 24.843693048069248, "c": "Namibia", "c2": "Mozambique"}, "geometry": {"type": "LineString", "coordinates": [[17.211133197410206, -22.129246638666476], [32.47625289872829, -25.957864085480196]]}},
{"type": "Feature", "properties": {"z_other": "Angola", "z": "Tanzania", "country_ini_lat": -6.27509748109379, "country_ini_lon": 34.813586420527585, "lat_linestring": -9.283706562183006, "lon_linestring": 26.175285697151764, "c": "Tanzania", "c2": "Angola"}, "geometry": {"type": "LineString", "coordinates": [[34.813586420527585, -6.27509748109379], [17.536984973775947, -12.292315643272223]]}},
{"type": "Feature", "properties": {"z_other": "Mozambique", "z": "Tanzania", "country_ini_lat": -6.27509748109379, "country_ini_lon": 34.813586420527585, "lat_linestring": -11.772553753978565, "lon_linestring": 35.17584597650602, "c": "Tanzania", "c2": "Mozambique"}, "geometry": {"type": "LineString", "coordinates": [[34.813586420527585, -6.27509748109379], [35.53810553248445, -17.270010026863336]]}},
{"type": "Feature", "properties": {"z_other": "Namibia", "z": "Tanzania", "country_ini_lat": -6.27509748109379, "country_ini_lon": 34.813586420527585, "lat_linestring": -14.202172059880134, "lon_linestring": 26.012359808968895, "c": "Tanzania", "c2": "Namibia"}, "geometry": {"type": "LineString", "coordinates": [[34.813586420527585, -6.27509748109379], [17.211133197410206, -22.129246638666476]]}},
{"type": "Feature", "properties": {"z_other": "South_Africa", "z": "Tanzania", "country_ini_lat": -6.27509748109379, "country_ini_lon": 34.813586420527585, "lat_linestring": -17.63806992145253, "lon_linestring": 29.950468488429113, "c": "Tanzania", "c2": "South_Africa"}, "geometry": {"type": "LineString", "coordinates": [[34.813586420527585, -6.27509748109379], [25.08735055633064, -29.001042361811272]]}},
{"type": "Feature", "properties": {"z_other": "Zambia", "z": "Tanzania", "country_ini_lat": -6.27509748109379, "country_ini_lon": 34.813586420527585, "lat_linestring": -9.8676037497297, "lon_linestring": 31.29389937766218, "c": "Tanzania", "c2": "Zambia"}, "geometry": {"type": "LineString", "coordinates": [[34.813586420527585, -6.27509748109379], [27.774212334796776, -13.46011001836561]]}},
{"type": "Feature", "properties": {"z_other": "DRC", "z": "Tanzania", "country_ini_lat": -6.27509748109379, "country_ini_lon": 34.813586420527585, "lat_linestring": -2.9953725556675828, "lon_linestring": 29.26729677744556, "c": "Tanzania", "c2": null}, "geometry": {"type": "LineString", "coordinates": [[34.813586420527585, -6.27509748109379], [23.721007134363532, 0.284352369758625]]}},
{"type": "Feature", "properties": {"z_other": "DRC_South", "z": "Tanzania", "country_ini_lat": -6.27509748109379, "country_ini_lon": 34.813586420527585, "lat_linestring": -6.71364459665494, "lon_linestring": 29.17811256131982, "c": "Tanzania", "c2": null}, "geometry": {"type": "LineString", "coordinates": [[34.813586420527585, -6.27509748109379], [23.54263870211206, -7.152191712216087]]}},
{"type": "Feature", "properties": {"z_other": "Mozal", "z": "Tanzania", "country_ini_lat": -6.27509748109379, "country_ini_lon": 34.813586420527585, "lat_linestring": -16.116480783286992, "lon_linestring": 33.64491965962794, "c": "Tanzania", "c2": "Mozambique"}, "geometry": {"type": "LineString", "coordinates": [[34.813586420527585, -6.27509748109379], [32.47625289872829, -25.957864085480196]]}},
{"type": "Feature", "properties": {"z_other": "Angola", "z": "South_Africa", "country_ini_lat": -29.001042361811272, "country_ini_lon": 25.08735055633064, "lat_linestring": -20.64667900254175, "lon_linestring": 21.312167765053296, "c": "South_Africa", "c2": "Angola"}, "geometry": {"type": "LineString", "coordinates": [[25.08735055633064, -29.001042361811272], [17.536984973775947, -12.292315643272223]]}},
{"type": "Feature", "properties": {"z_other": "Mozambique", "z": "South_Africa", "country_ini_lat": -29.001042361811272, "country_ini_lon": 25.08735055633064, "lat_linestring": -23.135526194337302, "lon_linestring": 30.312728044407546, "c": "South_Africa", "c2": "Mozambique"}, "geometry": {"type": "LineString", "coordinates": [[25.08735055633064, -29.001042361811272], [35.53810553248445, -17.270010026863336]]}},
{"type": "Feature", "properties": {"z_other": "Namibia", "z": "South_Africa", "country_ini_lat": -29.001042361811272, "country_ini_lon": 25.08735055633064, "lat_linestring": -25.56514450023887, "lon_linestring": 21.149241876870423, "c": "South_Africa", "c2": "Namibia"}, "geometry": {"type": "LineString", "coordinates": [[25.08735055633064, -29.001042361811272], [17.211133197410206, -22.129246638666476]]}},
{"type": "Feature", "properties": {"z_other": "Tanzania", "z": "South_Africa", "country_ini_lat": -29.001042361811272, "country_ini_lon": 25.08735055633064, "lat_linestring": -17.63806992145253, "lon_linestring": 29.950468488429113, "c": "South_Africa", "c2": "Tanzania"}, "geometry": {"type": "LineString", "coordinates": [[25.08735055633064, -29.001042361811272], [34.813586420527585, -6.27509748109379]]}},
{"type": "Feature", "properties": {"z_other": "Zambia", "z": "South_Africa", "country_ini_lat": -29.001042361811272, "country_ini_lon": 25.08735055633064, "lat_linestring": -21.230576190088442, "lon_linestring": 26.43078144556371, "c": "South_Africa", "c2": "Zambia"}, "geometry": {"type": "LineString", "coordinates": [[25.08735055633064, -29.001042361811272], [27.774212334796776, -13.46011001836561]]}},
{"type": "Feature", "properties": {"z_other": "DRC", "z": "South_Africa", "country_ini_lat": -29.001042361811272, "country_ini_lon": 25.08735055633064, "lat_linestring": -14.358344996026325, "lon_linestring": 24.404178845347086, "c": "South_Africa", "c2": null}, "geometry": {"type": "LineString", "coordinates": [[25.08735055633064, -29.001042361811272], [23.721007134363532, 0.284352369758625]]}},
{"type": "Feature", "properties": {"z_other": "DRC_South", "z": "South_Africa", "country_ini_lat": -29.001042361811272, "country_ini_lon": 25.08735055633064, "lat_linestring": -18.07661703701368, "lon_linestring": 24.314994629221353, "c": "South_Africa", "c2": null}, "geometry": {"type": "LineString", "coordinates": [[25.08735055633064, -29.001042361811272], [23.54263870211206, -7.152191712216087]]}},
{"type": "Feature", "properties": {"z_other": "Mozal", "z": "South_Africa", "country_ini_lat": -29.001042361811272, "country_ini_lon": 25.08735055633064, "lat_linestring": -27.479453223645734, "lon_linestring": 28.781801727529466, "c": "South_Africa", "c2": "Mozambique"}, "geometry": {"type": "LineString", "coordinates": [[25.08735055633064, -29.001042361811272], [32.47625289872829, -25.957864085480196]]}},
{"type": "Feature", "properties": {"z_other": "Angola", "z": "Zambia", "country_ini_lat": -13.46011001836561, "country_ini_lon": 27.774212334796776, "lat_linestring": -12.876212830818918, "lon_linestring": 22.65559865428636, "c": "Zambia", "c2": "Angola"}, "geometry": {"type": "LineString", "coordinates": [[27.774212334796776, -13.46011001836561], [17.536984973775947, -12.292315643272223]]}},
{"type": "Feature", "properties": {"z_other": "Mozambique", "z": "Zambia", "country_ini_lat": -13.46011001836561, "country_ini_lon": 27.774212334796776, "lat_linestring": -15.36506002261447, "lon_linestring": 31.65615893364061, "c": "Zambia", "c2": "Mozambique"}, "geometry": {"type": "LineString", "coordinates": [[27.774212334796776, -13.46011001836561], [35.53810553248445, -17.270010026863336]]}},
{"type": "Feature", "properties": {"z_other": "Namibia", "z": "Zambia", "country_ini_lat": -13.46011001836561, "country_ini_lon": 27.774212334796776, "lat_linestring": -17.794678328516042, "lon_linestring": 22.49267276610349, "c": "Zambia", "c2": "Namibia"}, "geometry": {"type": "LineString", "coordinates": [[27.774212334796776, -13.46011001836561], [17.211133197410206, -22.129246638666476]]}},
{"type": "Feature", "properties": {"z_other": "Tanzania", "z": "Zambia", "country_ini_lat": -13.46011001836561, "country_ini_lon": 27.774212334796776, "lat_linestring": -9.8676037497297, "lon_linestring": 31.29389937766218, "c": "Zambia", "c2": "Tanzania"}, "geometry": {"type": "LineString", "coordinates": [[27.774212334796776, -13.46011001836561], [34.813586420527585, -6.27509748109379]]}},
{"type": "Feature", "properties": {"z_other": "South_Africa", "z": "Zambia", "country_ini_lat": -13.46011001836561, "country_ini_lon": 27.774212334796776, "lat_linestring": -21.230576190088442, "lon_linestring": 26.43078144556371, "c": "Zambia", "c2": "South_Africa"}, "geometry": {"type": "LineString", "coordinates": [[27.774212334796776, -13.46011001836561], [25.08735055633064, -29.001042361811272]]}},
{"type": "Feature", "properties": {"z_other": "DRC", "z": "Zambia", "country_ini_lat": -13.46011001836561, "country_ini_lon": 27.774212334796776, "lat_linestring": -6.587878824303493, "lon_linestring": 25.747609734580152, "c": "Zambia", "c2": null}, "geometry": {"type": "LineString", "coordinates": [[27.774212334796776, -13.46011001836561], [23.721007134363532, 0.284352369758625]]}},
{"type": "Feature", "properties": {"z_other": "DRC_South", "z": "Zambia", "country_ini_lat": -13.46011001836561, "country_ini_lon": 27.774212334796776, "lat_linestring": -10.30615086529085, "lon_linestring": 25.65842551845442, "c": "Zambia", "c2": null}, "geometry": {"type": "LineString", "coordinates": [[27.774212334796776, -13.46011001836561], [23.54263870211206, -7.152191712216087]]}},
{"type": "Feature", "properties": {"z_other": "Mozal", "z": "Zambia", "country_ini_lat": -13.46011001836561, "country_ini_lon": 27.774212334796776, "lat_linestring": -19.7089870519229, "lon_linestring": 30.12523261676253, "c": "Zambia", "c2": "Mozambique"}, "geometry": {"type": "LineString", "coordinates": [[27.774212334796776, -13.46011001836561], [32.47625289872829, -25.957864085480196]]}},
{"type": "Feature", "properties": {"z_other": "Angola", "z": "DRC", "country_ini_lat": 0.28435236975862466, "country_ini_lon": 23.721007134363532, "lat_linestring": -6.0039816367568, "lon_linestring": 20.628996054069738, "c": null, "c2": "Angola"}, "geometry": {"type": "LineString", "coordinates": [[23.721007134363532, 0.284352369758625], [17.536984973775947, -12.292315643272223]]}},
{"type": "Feature", "properties": {"z_other": "Mozambique", "z": "DRC", "country_ini_lat": 0.28435236975862466, "country_ini_lon": 23.721007134363532, "lat_linestring": -8.492828828552355, "lon_linestring": 29.62955633342399, "c": null, "c2": "Mozambique"}, "geometry": {"type": "LineString", "coordinates": [[23.721007134363532, 0.284352369758625], [35.53810553248445, -17.270010026863336]]}},
{"type": "Feature", "properties": {"z_other": "Namibia", "z": "DRC", "country_ini_lat": 0.28435236975862466, "country_ini_lon": 23.721007134363532, "lat_linestring": -10.922447134453925, "lon_linestring": 20.46607016588687, "c": null, "c2": "Namibia"}, "geometry": {"type": "LineString", "coordinates": [[23.721007134363532, 0.284352369758625], [17.211133197410206, -22.129246638666476]]}},
{"type": "Feature", "properties": {"z_other": "Tanzania", "z": "DRC", "country_ini_lat": 0.28435236975862466, "country_ini_lon": 23.721007134363532, "lat_linestring": -2.9953725556675828, "lon_linestring": 29.26729677744556, "c": null, "c2": "Tanzania"}, "geometry": {"type": "LineString", "coordinates": [[23.721007134363532, 0.284352369758625], [34.813586420527585, -6.27509748109379]]}},
{"type": "Feature", "properties": {"z_other": "South_Africa", "z": "DRC", "country_ini_lat": 0.28435236975862466, "country_ini_lon": 23.721007134363532, "lat_linestring": -14.358344996026325, "lon_linestring": 24.404178845347086, "c": null, "c2": "South_Africa"}, "geometry": {"type": "LineString", "coordinates": [[23.721007134363532, 0.284352369758625], [25.08735055633064, -29.001042361811272]]}},
{"type": "Feature", "properties": {"z_other": "Zambia", "z": "DRC", "country_ini_lat": 0.28435236975862466, "country_ini_lon": 23.721007134363532, "lat_linestring": -6.587878824303493, "lon_linestring": 25.747609734580152, "c": null, "c2": "Zambia"}, "geometry": {"type": "LineString", "coordinates": [[23.721007134363532, 0.284352369758625], [27.774212334796776, -13.46011001836561]]}},
{"type": "Feature", "properties": {"z_other": "DRC_South", "z": "DRC", "country_ini_lat": 0.28435236975862466, "country_ini_lon": 23.721007134363532, "lat_linestring": -3.433919671228731, "lon_linestring": 23.631822918237795, "c": null, "c2": null}, "geometry": {"type": "LineString", "coordinates": [[23.721007134363532, 0.284352369758625], [23.54263870211206, -7.152191712216087]]}},
{"type": "Feature", "properties": {"z_other": "Mozal", "z": "DRC", "country_ini_lat": 0.28435236975862466, "country_ini_lon": 23.721007134363532, "lat_linestring": -12.836755857860785, "lon_linestring": 28.09863001654591, "c": null, "c2": "Mozambique"}, "geometry": {"type": "LineString", "coordinates": [[23.721007134363532, 0.284352369758625], [32.47625289872829, -25.957864085480196]]}},
{"type": "Feature", "properties": {"z_other": "Angola", "z": "DRC_South", "country_ini_lat": -7.152191712216087, "country_ini_lon": 23.54263870211206, "lat_linestring": -9.722253677744156, "lon_linestring": 20.539811837944004, "c": null, "c2": "Angola"}, "geometry": {"type": "LineString", "coordinates": [[23.54263870211206, -7.152191712216087], [17.536984973775947, -12.292315643272223]]}},
{"type": "Feature", "properties": {"z_other": "Mozambique", "z": "DRC_South", "country_ini_lat": -7.152191712216087, "country_ini_lon": 23.54263870211206, "lat_linestring": -12.211100869539711, "lon_linestring": 29.540372117298254, "c": null, "c2": "Mozambique"}, "geometry": {"type": "LineString", "coordinates": [[23.54263870211206, -7.152191712216087], [35.53810553248445, -17.270010026863336]]}},
{"type": "Feature", "properties": {"z_other": "Namibia", "z": "DRC_South", "country_ini_lat": -7.152191712216087, "country_ini_lon": 23.54263870211206, "lat_linestring": -14.640719175441282, "lon_linestring": 20.37688594976113, "c": null, "c2": "Namibia"}, "geometry": {"type": "LineString", "coordinates": [[23.54263870211206, -7.152191712216087], [17.211133197410206, -22.129246638666476]]}},
{"type": "Feature", "properties": {"z_other": "Tanzania", "z": "DRC_South", "country_ini_lat": -7.152191712216087, "country_ini_lon": 23.54263870211206, "lat_linestring": -6.71364459665494, "lon_linestring": 29.17811256131982, "c": null, "c2": "Tanzania"}, "geometry": {"type": "LineString", "coordinates": [[23.54263870211206, -7.152191712216087], [34.813586420527585, -6.27509748109379]]}},
{"type": "Feature", "properties": {"z_other": "South_Africa", "z": "DRC_South", "country_ini_lat": -7.152191712216087, "country_ini_lon": 23.54263870211206, "lat_linestring": -18.07661703701368, "lon_linestring": 24.314994629221353, "c": null, "c2": "South_Africa"}, "geometry": {"type": "LineString", "coordinates": [[23.54263870211206, -7.152191712216087], [25.08735055633064, -29.001042361811272]]}},
{"type": "Feature", "properties": {"z_other": "Zambia", "z": "DRC_South", "country_ini_lat": -7.152191712216087, "country_ini_lon": 23.54263870211206, "lat_linestring": -10.30615086529085, "lon_linestring": 25.65842551845442, "c": null, "c2": "Zambia"}, "geometry": {"type": "LineString", "coordinates": [[23.54263870211206, -7.152191712216087], [27.774212334796776, -13.46011001836561]]}},
{"type": "Feature", "properties": {"z_other": "DRC", "z": "DRC_South", "country_ini_lat": -7.152191712216087, "country_ini_lon": 23.54263870211206, "lat_linestring": -3.433919671228731, "lon_linestring": 23.631822918237795, "c": null, "c2": null}, "geometry": {"type": "LineString", "coordinates": [[23.54263870211206, -7.152191712216087], [23.721007134363532, 0.284352369758625]]}},
{"type": "Feature", "properties": {"z_other": "Mozal", "z": "DRC_South", "country_ini_lat": -7.152191712216087, "country_ini_lon": 23.54263870211206, "lat_linestring": -16.55502789884814, "lon_linestring": 28.00944580042017, "c": null, "c2": "Mozambique"}, "geometry": {"type": "LineString", "coordinates": [[23.54263870211206, -7.152191712216087], [32.47625289872829, -25.957864085480196]]}},
{"type": "Feature", "properties": {"z_other": "Angola", "z": "Mozal", "country_ini_lat": -25.957864085480196, "country_ini_lon": 32.47625289872829, "lat_linestring": -19.12508986437621, "lon_linestring": 25.006618936252117, "c": "Mozambique", "c2": "Angola"}, "geometry": {"type": "LineString", "coordinates": [[32.47625289872829, -25.957864085480196], [17.536984973775947, -12.292315643272223]]}},
{"type": "Feature", "properties": {"z_other": "Mozambique", "z": "Mozal", "country_ini_lat": -25.957864085480196, "country_ini_lon": 32.47625289872829, "lat_linestring": -21.613937056171764, "lon_linestring": 34.00717921560637, "c": "Mozambique", "c2": "Mozambique"}, "geometry": {"type": "LineString", "coordinates": [[32.47625289872829, -25.957864085480196], [35.53810553248445, -17.270010026863336]]}},
{"type": "Feature", "properties": {"z_other": "Namibia", "z": "Mozal", "country_ini_lat": -25.957864085480196, "country_ini_lon": 32.47625289872829, "lat_linestring": -24.043555362073334, "lon_linestring": 24.843693048069248, "c": "Mozambique", "c2": "Namibia"}, "geometry": {"type": "LineString", "coordinates": [[32.47625289872829, -25.957864085480196], [17.211133197410206, -22.129246638666476]]}},
{"type": "Feature", "properties": {"z_other": "Tanzania", "z": "Mozal", "country_ini_lat": -25.957864085480196, "country_ini_lon": 32.47625289872829, "lat_linestring": -16.116480783286992, "lon_linestring": 33.64491965962794, "c": "Mozambique", "c2": "Tanzania"}, "geometry": {"type": "LineString", "coordinates": [[32.47625289872829, -25.957864085480196], [34.813586420527585, -6.27509748109379]]}},
{"type": "Feature", "properties": {"z_other": "South_Africa", "z": "Mozal", "country_ini_lat": -25.957864085480196, "country_ini_lon": 32.47625289872829, "lat_linestring": -27.479453223645734, "lon_linestring": 28.781801727529466, "c": "Mozambique", "c2": "South_Africa"}, "geometry": {"type": "LineString", "coordinates": [[32.47625289872829, -25.957864085480196], [25.08735055633064, -29.001042361811272]]}},
{"type": "Feature", "properties": {"z_other": "Zambia", "z": "Mozal", "country_ini_lat": -25.957864085480196, "country_ini_lon": 32.47625289872829, "lat_linestring": -19.7089870519229, "lon_linestring": 30.12523261676253, "c": "Mozambique", "c2": "Zambia"}, "geometry": {"type": "LineString", "coordinates": [[32.47625289872829, -25.957864085480196], [27.774212334796776, -13.46011001836561]]}},
{"type": "Feature", "properties": {"z_other": "DRC", "z": "Mozal", "country_ini_lat": -25.957864085480196, "country_ini_lon": 32.47625289872829, "lat_linestring": -12.836755857860785, "lon_linestring": 28.09863001654591, "c": "Mozambique", "c2": null}, "geometry": {"type": "LineString", "coordinates": [[32.47625289872829, -25.957864085480196], [23.721007134363532, 0.284352369758625]]}},
{"type": "Feature", "properties": {"z_other": "DRC_South", "z": "Mozal", "country_ini_lat": -25.957864085480196, "country_ini_lon": 32.47625289872829, "lat_linestring": -16.55502789884814, "lon_linestring": 28.00944580042017, "c": "Mozambique", "c2": null}, "geometry": {"type": "LineString", "coordinates": [[32.47625289872829, -25.957864085480196], [23.54263870211206, -7.152191712216087]]}}
]
}
