{
"type": "FeatureCollection",
"name": "linestring_countries",
"crs": {"type": "name", "properties": {"name": "urn:ogc:def:crs:OGC:1.3:CRS84"}},
"epm_source": {"generator": "epm/postprocessing/create_geojson.py", "generated_at": "2026-08-20T11:57:20+00:00", "zones": ["KAZ_N", "KAZ_S", "KGZ_N", "KGZ_S", "NEPS_AFG", "NEPS_HERAT", "NEPS_TAJ", "NEPS_TKM", "NEPS_UZB", "PAK_KAR", "PAK_N", "PAK_S", "TAJ_N", "TAJ_S", "TUR", "UZB"], "inputs": {"zcmap": {"path": "epm/input/data_casa_2020/zcmap.csv", "sha256": "15510b9817dc3f7c29fbfa60c76a144f9f8519900309ef5198a69708cef5e4b6"}, "geojson_to_epm": {"path": "epm/resources/postprocess/geojson_to_epm.csv", "sha256": "c4512c2f02246caf5142ab8a57d5dd6772e2a6f8b4cbdba0132553ad38cb9dd3"}, "zone_map": {"path": "epm/resources/postprocess/zones.geojson", "sha256": "ebd573b6eb0a683aeaa15730ab6e3857c3392ba59260aafc54cdfd8af3d7caeb"}, "zones_custom": {"path": "epm/resources/postprocess/zones_custom.geojson", "sha256": "d61c3bc1bfc1d5ca4ce8ba42dde5fc51562ecc1d4d5f41638c9b69d732496e43"}}},
"features": [
{"type": "Feature", "properties": {"z_other": "NEPS_TAJ", "z": "PAK_KAR", "country_ini_lat": 25.09628639693205, "country_ini_lon": 67.22723073359668, "lat_linestring": 30.927940807664445, "lon_linestring": 68.30016515728045, "c": "PAK", "c2": "AFG"}, "geometry": {"type": "LineString", "coordinates": [[67.22723073359668, 25.09628639693205], [69.3730995809642, 36.75959521839683]]}},
{"type": "Feature", "properties": {"z_other": "TAJ_N", "z": "PAK_KAR", "country_ini_lat": 25.09628639693205, "country_ini_lon": 67.22723073359668, "lat_linestring": 32.44995478306598, "lon_linestring": 68.22554285505126, "c": "PAK", "c2": "TAJ"}, "geometry": {"type": "LineString", "coordinates": [[67.22723073359668, 25.09628639693205], [69.22385497650583, 39.80362316919991]]}},
{"type": "Feature", "properties": {"z_other": "NEPS_UZB", "z": "PAK_KAR", "country_ini_lat": 25.09628639693205, "country_ini_lon": 67.22723073359668, "lat_linestring": 30.62270224520099, "lon_linestring": 67.0839667429391, "c": "PAK", "c2": "AFG"}, "geometry": {"type": "LineString", "coordinates": [[67.22723073359668, 25.09628639693205], [66.94070275228151, 36.14911809346994]]}},
{"type": "Feature", "properties": {"z_other": "NEPS_TKM", "z": "PAK_KAR", "country_ini_lat": 25.09628639693205, "country_ini_lon": 67.22723073359668, "lat_linestring": 30.483176322068296, "lon_linestring": 65.93064998520973, "c": "PAK", "c2": "AFG"}, "geometry": {"type": "LineString", "coordinates": [[67.22723073359668, 25.09628639693205], [64.63406923682278, 35.87006624720454]]}},
{"type": "Feature", "properties": {"z_other": "NEPS_HERAT", "z": "PAK_KAR", "country_ini_lat": 25.09628639693205, "country_ini_lon": 67.22723073359668, "lat_linestring": 29.645999166480433, "lon_linestring": 64.6739704205246, "c": "PAK", "c2": "AFG"}, "geometry": {"type": "LineString", "coordinates": [[67.22723073359668, 25.09628639693205], [62.1207101074525, 34.195711936028815]]}},
{"type": "Feature", "properties": {"z_other": "KGZ_S", "z": "PAK_KAR", "country_ini_lat": 25.09628639693205, "country_ini_lon": 67.22723073359668, "lat_linestring": 32.89485678759768, "lon_linestring": 69.8112804820543, "c": "PAK", "c2": "KGZ"}, "geometry": {"type": "LineString", "coordinates": [[67.22723073359668, 25.09628639693205], [72.39533023051192, 40.69342717826331]]}},
{"type": "Feature", "properties": {"z_other": "TAJ_S", "z": "PAK_KAR", "country_ini_lat": 25.09628639693205, "country_ini_lon": 67.22723073359668, "lat_linestring": 31.671049488690322, "lon_linestring": 69.32133528251507, "c": "PAK", "c2": "TAJ"}, "geometry": {"type": "LineString", "coordinates": [[67.22723073359668, 25.09628639693205], [71.41543983143345, 38.24581258044859]]}},
{"type": "Feature", "properties": {"z_other": "KGZ_N", "z": "PAK_KAR", "country_ini_lat": 25.09628639693205, "country_ini_lon": 67.22723073359668, "lat_linestring": 33.52927695821469, "lon_linestring": 71.58324772220763, "c": "PAK", "c2": "KGZ"}, "geometry": {"type": "LineString", "coordinates": [[67.22723073359668, 25.09628639693205], [75.93926471081859, 41.962267519497324]]}},
{"type": "Feature", "properties": {"z_other": "NEPS_AFG", "z": "PAK_KAR", "country_ini_lat": 25.09628639693205, "country_ini_lon": 67.22723073359668, "lat_linestring": 28.9991635990547, "lon_linestring": 67.1232780233095, "c": "PAK", "c2": "AFG"}, "geometry": {"type": "LineString", "coordinates": [[67.22723073359668, 25.09628639693205], [67.01932531302229, 32.90204080117735]]}},
{"type": "Feature", "properties": {"z_other": "PAK_N", "z": "PAK_KAR", "country_ini_lat": 25.09628639693205, "country_ini_lon": 67.22723073359668, "lat_linestring": 28.89908723421294, "lon_linestring": 69.88645919075736, "c": "PAK", "c2": "PAK"}, "geometry": {"type": "LineString", "coordinates": [[67.22723073359668, 25.09628639693205], [72.54568764791806, 32.701888071493826]]}},
{"type": "Feature", "properties": {"z_other": "PAK_S", "z": "PAK_KAR", "country_ini_lat": 25.09628639693205, "country_ini_lon": 67.22723073359668, "lat_linestring": 26.395039680891117, "lon_linestring": 66.95798331873404, "c": "PAK", "c2": "PAK"}, "geometry": {"type": "LineString", "coordinates": [[67.22723073359668, 25.09628639693205], [66.68873590387139, 27.69379296485018]]}},
{"type": "Feature", "properties": {"z_other": "UZB", "z": "PAK_KAR", "country_ini_lat": 25.09628639693205, "country_ini_lon": 67.22723073359668, "lat_linestring": 33.426120539646504, "lon_linestring": 65.18363595703975, "c": "PAK", "c2": "UZB"}, "geometry": {"type": "LineString", "coordinates": [[67.22723073359668, 25.09628639693205], [63.140041180482825, 41.75595468236096]]}},
{"type": "Feature", "properties": {"z_other": "TUR", "z": "PAK_KAR", "country_ini_lat": 25.09628639693205, "country_ini_lon": 67.22723073359668, "lat_linestring": 32.106100352171325, "lon_linestring": 63.30159247776949, "c": "PAK", "c2": "TUR"}, "geometry": {"type": "LineString", "coordinates": [[67.22723073359668, 25.09628639693205], [59.37595422194229, 39.11591430741059]]}},
{"type": "Feature", "properties": {"z_other": "KAZ_S", "z": "PAK_KAR", "country_ini_lat": 25.09628639693205, "country_ini_lon": 67.22723073359668, "lat_linestring": 34.862778291093235, "lon_linestring": 68.91618616377312, "c": "PAK", "c2": "KAZ"}, "geometry": {"type": "LineString", "coordinates": [[67.22723073359668, 25.09628639693205], [70.60514159394957, 44.62927018525443]]}},
{"type": "Feature", "properties": {"z_other": "KAZ_N", "z": "PAK_KAR", "country_ini_lat": 25.09628639693205, "country_ini_lon": 67.22723073359668, "lat_linestring": 37.48104704010241, "lon_linestring": 68.5286020130203, "c": "PAK", "c2": "KAZ"}, "geometry": {"type": "LineString", "coordinates": [[67.22723073359668, 25.09628639693205], [69.82997329244392, 49.86580768327276]]}},
{"type": "Feature", "properties": {"z_other": "PAK_KAR", "z": "NEPS_TAJ", "country_ini_lat": 36.75959521839683, "country_ini_lon": 69.3730995809642, "lat_linestring": 30.927940807664445, "lon_linestring": 68.30016515728045, "c": "AFG", "c2": "PAK"}, "geometry": {"type": "LineString", "coordinates": [[69.3730995809642, 36.75959521839683], [67.22723073359668, 25.09628639693205]]}},
{"type": "Feature", "properties": {"z_other": "TAJ_N", "z": "NEPS_TAJ", "country_ini_lat": 36.75959521839683, "country_ini_lon": 69.3730995809642, "lat_linestring": 38.281609193798374, "lon_linestring": 69.29847727873502, "c": "AFG", "c2": "TAJ"}, "geometry": {"type": "LineString", "coordinates": [[69.3730995809642, 36.75959521839683], [69.22385497650583, 39.80362316919991]]}},
{"type": "Feature", "properties": {"z_other": "NEPS_UZB", "z": "NEPS_TAJ", "country_ini_lat": 36.75959521839683, "country_ini_lon": 69.3730995809642, "lat_linestring": 36.45435665593338, "lon_linestring": 68.15690116662284, "c": "AFG", "c2": "AFG"}, "geometry": {"type": "LineString", "coordinates": [[69.3730995809642, 36.75959521839683], [66.94070275228151, 36.14911809346994]]}},
{"type": "Feature", "properties": {"z_other": "NEPS_TKM", "z": "NEPS_TAJ", "country_ini_lat": 36.75959521839683, "country_ini_lon": 69.3730995809642, "lat_linestring": 36.31483073280069, "lon_linestring": 67.00358440889349, "c": "AFG", "c2": "AFG"}, "geometry": {"type": "LineString", "coordinates": [[69.3730995809642, 36.75959521839683], [64.63406923682278, 35.87006624720454]]}},
{"type": "Feature", "properties": {"z_other": "NEPS_HERAT", "z": "NEPS_TAJ", "country_ini_lat": 36.75959521839683, "country_ini_lon": 69.3730995809642, "lat_linestring": 35.47765357721282, "lon_linestring": 65.74690484420834, "c": "AFG", "c2": "AFG"}, "geometry": {"type": "LineString", "coordinates": [[69.3730995809642, 36.75959521839683], [62.1207101074525, 34.195711936028815]]}},
{"type": "Feature", "properties": {"z_other": "KGZ_S", "z": "NEPS_TAJ", "country_ini_lat": 36.75959521839683, "country_ini_lon": 69.3730995809642, "lat_linestring": 38.72651119833007, "lon_linestring": 70.88421490573805, "c": "AFG", "c2": "KGZ"}, "geometry": {"type": "LineString", "coordinates": [[69.3730995809642, 36.75959521839683], [72.39533023051192, 40.69342717826331]]}},
{"type": "Feature", "properties": {"z_other": "TAJ_S", "z": "NEPS_TAJ", "country_ini_lat": 36.75959521839683, "country_ini_lon": 69.3730995809642, "lat_linestring": 37.50270389942271, "lon_linestring": 70.39426970619883, "c": "AFG", "c2": "TAJ"}, "geometry": {"type": "LineString", "coordinates": [[69.3730995809642, 36.75959521839683], [71.41543983143345, 38.24581258044859]]}},
{"type": "Feature", "properties": {"z_other": "KGZ_N", "z": "NEPS_TAJ", "country_ini_lat": 36.75959521839683, "country_ini_lon": 69.3730995809642, "lat_linestring": 39.36093136894708, "lon_linestring": 72.65618214589139, "c": "AFG", "c2": "KGZ"}, "geometry": {"type": "LineString", "coordinates": [[69.3730995809642, 36.75959521839683], [75.93926471081859, 41.962267519497324]]}},
{"type": "Feature", "properties": {"z_other": "NEPS_AFG", "z": "NEPS_TAJ", "country_ini_lat": 36.75959521839683, "country_ini_lon": 69.3730995809642, "lat_linestring": 34.830818009787095, "lon_linestring": 68.19621244699324, "c": "AFG", "c2": "AFG"}, "geometry": {"type": "LineString", "coordinates": [[69.3730995809642, 36.75959521839683], [67.01932531302229, 32.90204080117735]]}},
{"type": "Feature", "properties": {"z_other": "PAK_N", "z": "NEPS_TAJ", "country_ini_lat": 36.75959521839683, "country_ini_lon": 69.3730995809642, "lat_linestring": 34.730741644945326, "lon_linestring": 70.95939361444113, "c": "AFG", "c2": "PAK"}, "geometry": {"type": "LineString", "coordinates": [[69.3730995809642, 36.75959521839683], [72.54568764791806, 32.701888071493826]]}},
{"type": "Feature", "properties": {"z_other": "PAK_S", "z": "NEPS_TAJ", "country_ini_lat": 36.75959521839683, "country_ini_lon": 69.3730995809642, "lat_linestring": 32.22669409162351, "lon_linestring": 68.03091774241778, "c": "AFG", "c2": "PAK"}, "geometry": {"type": "LineString", "coordinates": [[69.3730995809642, 36.75959521839683], [66.68873590387139, 27.69379296485018]]}},
{"type": "Feature", "properties": {"z_other": "UZB", "z": "NEPS_TAJ", "country_ini_lat": 36.75959521839683, "country_ini_lon": 69.3730995809642, "lat_linestring": 39.257774950378895, "lon_linestring": 66.2565703807235, "c": "AFG", "c2": "UZB"}, "geometry": {"type": "LineString", "coordinates": [[69.3730995809642, 36.75959521839683], [63.140041180482825, 41.75595468236096]]}},
{"type": "Feature", "properties": {"z_other": "TUR", "z": "NEPS_TAJ", "country_ini_lat": 36.75959521839683, "country_ini_lon": 69.3730995809642, "lat_linestring": 37.93775476290371, "lon_linestring": 64.37452690145324, "c": "AFG", "c2": "TUR"}, "geometry": {"type": "LineString", "coordinates": [[69.3730995809642, 36.75959521839683], [59.37595422194229, 39.11591430741059]]}},
{"type": "Feature", "properties": {"z_other": "KAZ_S", "z": "NEPS_TAJ", "country_ini_lat": 36.75959521839683, "country_ini_lon": 69.3730995809642, "lat_linestring": 40.69443270182563, "lon_linestring": 69.98912058745688, "c": "AFG", "c2": "KAZ"}, "geometry": {"type": "LineString", "coordinates": [[69.3730995809642, 36.75959521839683], [70.60514159394957, 44.62927018525443]]}},
{"type": "Feature", "properties": {"z_other": "KAZ_N", "z": "NEPS_TAJ", "country_ini_lat": 36.75959521839683, "country_ini_lon": 69.3730995809642, "lat_linestring": 43.312701450834794, "lon_linestring": 69.60153643670407, "c": "AFG", "c2": "KAZ"}, "geometry": {"type": "LineString", "coordinates": [[69.3730995809642, 36.75959521839683], [69.82997329244392, 49.86580768327276]]}},
{"type": "Feature", "properties": {"z_other": "PAK_KAR", "z": "TAJ_N", "country_ini_lat": 39.80362316919991, "country_ini_lon": 69.22385497650583, "lat_linestring": 32.44995478306598, "lon_linestring": 68.22554285505126, "c": "TAJ", "c2": "PAK"}, "geometry": {"type": "LineString", "coordinates": [[69.22385497650583, 39.80362316919991], [67.22723073359668, 25.09628639693205]]}},
{"type": "Feature", "properties": {"z_other": "NEPS_TAJ", "z": "TAJ_N", "country_ini_lat": 39.80362316919991, "country_ini_lon": 69.22385497650583, "lat_linestring": 38.281609193798374, "lon_linestring": 69.29847727873502, "c": "TAJ", "c2": "AFG"}, "geometry": {"type": "LineString", "coordinates": [[69.22385497650583, 39.80362316919991], [69.3730995809642, 36.75959521839683]]}},
{"type": "Feature", "properties": {"z_other": "NEPS_UZB", "z": "TAJ_N", "country_ini_lat": 39.80362316919991, "country_ini_lon": 69.22385497650583, "lat_linestring": 37.97637063133492, "lon_linestring": 68.08227886439367, "c": "TAJ", "c2": "AFG"}, "geometry": {"type": "LineString", "coordinates": [[69.22385497650583, 39.80362316919991], [66.94070275228151, 36.14911809346994]]}},
{"type": "Feature", "properties": {"z_other": "NEPS_TKM", "z": "TAJ_N", "country_ini_lat": 39.80362316919991, "country_ini_lon": 69.22385497650583, "lat_linestring": 37.83684470820222, "lon_linestring": 66.9289621066643, "c": "TAJ", "c2": "AFG"}, "geometry": {"type": "LineString", "coordinates": [[69.22385497650583, 39.80362316919991], [64.63406923682278, 35.87006624720454]]}},
{"type": "Feature", "properties": {"z_other": "NEPS_HERAT", "z": "TAJ_N", "country_ini_lat": 39.80362316919991, "country_ini_lon": 69.22385497650583, "lat_linestring": 36.99966755261436, "lon_linestring": 65.67228254197917, "c": "TAJ", "c2": "AFG"}, "geometry": {"type": "LineString", "coordinates": [[69.22385497650583, 39.80362316919991], [62.1207101074525, 34.195711936028815]]}},
{"type": "Feature", "properties": {"z_other": "KGZ_S", "z": "TAJ_N", "country_ini_lat": 39.80362316919991, "country_ini_lon": 69.22385497650583, "lat_linestring": 40.24852517373161, "lon_linestring": 70.80959260350888, "c": "TAJ", "c2": "KGZ"}, "geometry": {"type": "LineString", "coordinates": [[69.22385497650583, 39.80362316919991], [72.39533023051192, 40.69342717826331]]}},
{"type": "Feature", "properties": {"z_other": "TAJ_S", "z": "TAJ_N", "country_ini_lat": 39.80362316919991, "country_ini_lon": 69.22385497650583, "lat_linestring": 39.02471787482425, "lon_linestring": 70.31964740396964, "c": "TAJ", "c2": "TAJ"}, "geometry": {"type": "LineString", "coordinates": [[69.22385497650583, 39.80362316919991], [71.41543983143345, 38.24581258044859]]}},
{"type": "Feature", "properties": {"z_other": "KGZ_N", "z": "TAJ_N", "country_ini_lat": 39.80362316919991, "country_ini_lon": 69.22385497650583, "lat_linestring": 40.88294534434861, "lon_linestring": 72.5815598436622, "c": "TAJ", "c2": "KGZ"}, "geometry": {"type": "LineString", "coordinates": [[69.22385497650583, 39.80362316919991], [75.93926471081859, 41.962267519497324]]}},
{"type": "Feature", "properties": {"z_other": "NEPS_AFG", "z": "TAJ_N", "country_ini_lat": 39.80362316919991, "country_ini_lon": 69.22385497650583, "lat_linestring": 36.35283198518863, "lon_linestring": 68.12159014476407, "c": "TAJ", "c2": "AFG"}, "geometry": {"type": "LineString", "coordinates": [[69.22385497650583, 39.80362316919991], [67.01932531302229, 32.90204080117735]]}},
{"type": "Feature", "properties": {"z_other": "PAK_N", "z": "TAJ_N", "country_ini_lat": 39.80362316919991, "country_ini_lon": 69.22385497650583, "lat_linestring": 36.25275562034687, "lon_linestring": 70.88477131221194, "c": "TAJ", "c2": "PAK"}, "geometry": {"type": "LineString", "coordinates": [[69.22385497650583, 39.80362316919991], [72.54568764791806, 32.701888071493826]]}},
{"type": "Feature", "properties": {"z_other": "PAK_S", "z": "TAJ_N", "country_ini_lat": 39.80362316919991, "country_ini_lon": 69.22385497650583, "lat_linestring": 33.74870806702504, "lon_linestring": 67.95629544018861, "c": "TAJ", "c2": "PAK"}, "geometry": {"type": "LineString", "coordinates": [[69.22385497650583, 39.80362316919991], [66.68873590387139, 27.69379296485018]]}},
{"type": "Feature", "properties": {"z_other": "UZB", "z": "TAJ_N", "country_ini_lat": 39.80362316919991, "country_ini_lon": 69.22385497650583, "lat_linestring": 40.779788925780444, "lon_linestring": 66.18194807849433, "c": "TAJ", "c2": "UZB"}, "geometry": {"type": "LineString", "coordinates": [[69.22385497650583, 39.80362316919991], [63.140041180482825, 41.75595468236096]]}},
{"type": "Feature", "properties": {"z_other": "TUR", "z": "TAJ_N", "country_ini_lat": 39.80362316919991, "country_ini_lon": 69.22385497650583, "lat_linestring": 39.45976873830525, "lon_linestring": 64.29990459922406, "c": "TAJ", "c2": "TUR"}, "geometry": {"type": "LineString", "coordinates": [[69.22385497650583, 39.80362316919991], [59.37595422194229, 39.11591430741059]]}},
{"type": "Feature", "properties": {"z_other": "KAZ_S", "z": "TAJ_N", "country_ini_lat": 39.80362316919991, "country_ini_lon": 69.22385497650583, "lat_linestring": 42.21644667722717, "lon_linestring": 69.9144982852277, "c": "TAJ", "c2": "KAZ"}, "geometry": {"type": "LineString", "coordinates": [[69.22385497650583, 39.80362316919991], [70.60514159394957, 44.62927018525443]]}},
{"type": "Feature", "properties": {"z_other": "KAZ_N", "z": "TAJ_N", "country_ini_lat": 39.80362316919991, "country_ini_lon": 69.22385497650583, "lat_linestring": 44.834715426236336, "lon_linestring": 69.52691413447488, "c": "TAJ", "c2": "KAZ"}, "geometry": {"type": "LineString", "coordinates": [[69.22385497650583, 39.80362316919991], [69.82997329244392, 49.86580768327276]]}},
{"type": "Feature", "properties": {"z_other": "PAK_KAR", "z": "NEPS_UZB", "country_ini_lat": 36.14911809346994, "country_ini_lon": 66.94070275228151, "lat_linestring": 30.62270224520099, "lon_linestring": 67.0839667429391, "c": "AFG", "c2": "PAK"}, "geometry": {"type": "LineString", "coordinates": [[66.94070275228151, 36.14911809346994], [67.22723073359668, 25.09628639693205]]}},
{"type": "Feature", "properties": {"z_other": "NEPS_TAJ", "z": "NEPS_UZB", "country_ini_lat": 36.14911809346994, "country_ini_lon": 66.94070275228151, "lat_linestring": 36.45435665593338, "lon_linestring": 68.15690116662284, "c": "AFG", "c2": "AFG"}, "geometry": {"type": "LineString", "coordinates": [[66.94070275228151, 36.14911809346994], [69.3730995809642, 36.75959521839683]]}},
{"type": "Feature", "properties": {"z_other": "TAJ_N", "z": "NEPS_UZB", "country_ini_lat": 36.14911809346994, "country_ini_lon": 66.94070275228151, "lat_linestring": 37.97637063133492, "lon_linestring": 68.08227886439367, "c": "AFG", "c2": "TAJ"}, "geometry": {"type": "LineString", "coordinates": [[66.94070275228151, 36.14911809346994], [69.22385497650583, 39.80362316919991]]}},
{"type": "Feature", "properties": {"z_other": "NEPS_TKM", "z": "NEPS_UZB", "country_ini_lat": 36.14911809346994, "country_ini_lon": 66.94070275228151, "lat_linestring": 36.00959217033724, "lon_linestring": 65.78738599455215, "c": "AFG", "c2": "AFG"}, "geometry": {"type": "LineString", "coordinates": [[66.94070275228151, 36.14911809346994], [64.63406923682278, 35.87006624720454]]}},
{"type": "Feature", "properties": {"z_other": "NEPS_HERAT", "z": "NEPS_UZB", "country_ini_lat": 36.14911809346994, "country_ini_lon": 66.94070275228151, "lat_linestring": 35.172415014749376, "lon_linestring": 64.53070642986701, "c": "AFG", "c2": "AFG"}, "geometry": {"type": "LineString", "coordinates": [[66.94070275228151, 36.14911809346994], [62.1207101074525, 34.195711936028815]]}},
{"type": "Feature", "properties": {"z_other": "KGZ_S", "z": "NEPS_UZB", "country_ini_lat": 36.14911809346994, "country_ini_lon": 66.94070275228151, "lat_linestring": 38.42127263586663, "lon_linestring": 69.66801649139671, "c": "AFG", "c2": "KGZ"}, "geometry": {"type": "LineString", "coordinates": [[66.94070275228151, 36.14911809346994], [72.39533023051192, 40.69342717826331]]}},
{"type": "Feature", "properties": {"z_other": "TAJ_S", "z": "NEPS_UZB", "country_ini_lat": 36.14911809346994, "country_ini_lon": 66.94070275228151, "lat_linestring": 37.19746533695927, "lon_linestring": 69.17807129185748, "c": "AFG", "c2": "TAJ"}, "geometry": {"type": "LineString", "coordinates": [[66.94070275228151, 36.14911809346994], [71.41543983143345, 38.24581258044859]]}},
{"type": "Feature", "properties": {"z_other": "KGZ_N", "z": "NEPS_UZB", "country_ini_lat": 36.14911809346994, "country_ini_lon": 66.94070275228151, "lat_linestring": 39.055692806483634, "lon_linestring": 71.43998373155006, "c": "AFG", "c2": "KGZ"}, "geometry": {"type": "LineString", "coordinates": [[66.94070275228151, 36.14911809346994], [75.93926471081859, 41.962267519497324]]}},
{"type": "Feature", "properties": {"z_other": "NEPS_AFG", "z": "NEPS_UZB", "country_ini_lat": 36.14911809346994, "country_ini_lon": 66.94070275228151, "lat_linestring": 34.52557944732364, "lon_linestring": 66.9800140326519, "c": "AFG", "c2": "AFG"}, "geometry": {"type": "LineString", "coordinates": [[66.94070275228151, 36.14911809346994], [67.01932531302229, 32.90204080117735]]}},
{"type": "Feature", "properties": {"z_other": "PAK_N", "z": "NEPS_UZB", "country_ini_lat": 36.14911809346994, "country_ini_lon": 66.94070275228151, "lat_linestring": 34.42550308248188, "lon_linestring": 69.74319520009979, "c": "AFG", "c2": "PAK"}, "geometry": {"type": "LineString", "coordinates": [[66.94070275228151, 36.14911809346994], [72.54568764791806, 32.701888071493826]]}},
{"type": "Feature", "properties": {"z_other": "PAK_S", "z": "NEPS_UZB", "country_ini_lat": 36.14911809346994, "country_ini_lon": 66.94070275228151, "lat_linestring": 31.921455529160056, "lon_linestring": 66.81471932807645, "c": "AFG", "c2": "PAK"}, "geometry": {"type": "LineString", "coordinates": [[66.94070275228151, 36.14911809346994], [66.68873590387139, 27.69379296485018]]}},
{"type": "Feature", "properties": {"z_other": "UZB", "z": "NEPS_UZB", "country_ini_lat": 36.14911809346994, "country_ini_lon": 66.94070275228151, "lat_linestring": 38.952536387915444, "lon_linestring": 65.04037196638217, "c": "AFG", "c2": "UZB"}, "geometry": {"type": "LineString", "coordinates": [[66.94070275228151, 36.14911809346994], [63.140041180482825, 41.75595468236096]]}},
{"type": "Feature", "properties": {"z_other": "TUR", "z": "NEPS_UZB", "country_ini_lat": 36.14911809346994, "country_ini_lon": 66.94070275228151, "lat_linestring": 37.632516200440264, "lon_linestring": 63.1583284871119, "c": "AFG", "c2": "TUR"}, "geometry": {"type": "LineString", "coordinates": [[66.94070275228151, 36.14911809346994], [59.37595422194229, 39.11591430741059]]}},
{"type": "Feature", "properties": {"z_other": "KAZ_S", "z": "NEPS_UZB", "country_ini_lat": 36.14911809346994, "country_ini_lon": 66.94070275228151, "lat_linestring": 40.38919413936218, "lon_linestring": 68.77292217311555, "c": "AFG", "c2": "KAZ"}, "geometry": {"type": "LineString", "coordinates": [[66.94070275228151, 36.14911809346994], [70.60514159394957, 44.62927018525443]]}},
{"type": "Feature", "properties": {"z_other": "KAZ_N", "z": "NEPS_UZB", "country_ini_lat": 36.14911809346994, "country_ini_lon": 66.94070275228151, "lat_linestring": 43.00746288837135, "lon_linestring": 68.38533802236272, "c": "AFG", "c2": "KAZ"}, "geometry": {"type": "LineString", "coordinates": [[66.94070275228151, 36.14911809346994], [69.82997329244392, 49.86580768327276]]}},
{"type": "Feature", "properties": {"z_other": "PAK_KAR", "z": "NEPS_TKM", "country_ini_lat": 35.87006624720454, "country_ini_lon": 64.63406923682278, "lat_linestring": 30.483176322068296, "lon_linestring": 65.93064998520973, "c": "AFG", "c2": "PAK"}, "geometry": {"type": "LineString", "coordinates": [[64.63406923682278, 35.87006624720454], [67.22723073359668, 25.09628639693205]]}},
{"type": "Feature", "properties": {"z_other": "NEPS_TAJ", "z": "NEPS_TKM", "country_ini_lat": 35.87006624720454, "country_ini_lon": 64.63406923682278, "lat_linestring": 36.31483073280069, "lon_linestring": 67.00358440889349, "c": "AFG", "c2": "AFG"}, "geometry": {"type": "LineString", "coordinates": [[64.63406923682278, 35.87006624720454], [69.3730995809642, 36.75959521839683]]}},
{"type": "Feature", "properties": {"z_other": "TAJ_N", "z": "NEPS_TKM", "country_ini_lat": 35.87006624720454, "country_ini_lon": 64.63406923682278, "lat_linestring": 37.83684470820222, "lon_linestring": 66.9289621066643, "c": "AFG", "c2": "TAJ"}, "geometry": {"type": "LineString", "coordinates": [[64.63406923682278, 35.87006624720454], [69.22385497650583, 39.80362316919991]]}},
{"type": "Feature", "properties": {"z_other": "NEPS_UZB", "z": "NEPS_TKM", "country_ini_lat": 35.87006624720454, "country_ini_lon": 64.63406923682278, "lat_linestring": 36.00959217033724, "lon_linestring": 65.78738599455215, "c": "AFG", "c2": "AFG"}, "geometry": {"type": "LineString", "coordinates": [[64.63406923682278, 35.87006624720454], [66.94070275228151, 36.14911809346994]]}},
{"type": "Feature", "properties": {"z_other": "NEPS_HERAT", "z": "NEPS_TKM", "country_ini_lat": 35.87006624720454, "country_ini_lon": 64.63406923682278, "lat_linestring": 35.03288909161668, "lon_linestring": 63.37738967213763, "c": "AFG", "c2": "AFG"}, "geometry": {"type": "LineString", "coordinates": [[64.63406923682278, 35.87006624720454], [62.1207101074525, 34.195711936028815]]}},
{"type": "Feature", "properties": {"z_other": "KGZ_S", "z": "NEPS_TKM", "country_ini_lat": 35.87006624720454, "country_ini_lon": 64.63406923682278, "lat_linestring": 38.28174671273393, "lon_linestring": 68.51469973366736, "c": "AFG", "c2": "KGZ"}, "geometry": {"type": "LineString", "coordinates": [[64.63406923682278, 35.87006624720454], [72.39533023051192, 40.69342717826331]]}},
{"type": "Feature", "properties": {"z_other": "TAJ_S", "z": "NEPS_TKM", "country_ini_lat": 35.87006624720454, "country_ini_lon": 64.63406923682278, "lat_linestring": 37.05793941382657, "lon_linestring": 68.0247545341281, "c": "AFG", "c2": "TAJ"}, "geometry": {"type": "LineString", "coordinates": [[64.63406923682278, 35.87006624720454], [71.41543983143345, 38.24581258044859]]}},
{"type": "Feature", "properties": {"z_other": "KGZ_N", "z": "NEPS_TKM", "country_ini_lat": 35.87006624720454, "country_ini_lon": 64.63406923682278, "lat_linestring": 38.91616688335093, "lon_linestring": 70.28666697382069, "c": "AFG", "c2": "KGZ"}, "geometry": {"type": "LineString", "coordinates": [[64.63406923682278, 35.87006624720454], [75.93926471081859, 41.962267519497324]]}},
{"type": "Feature", "properties": {"z_other": "NEPS_AFG", "z": "NEPS_TKM", "country_ini_lat": 35.87006624720454, "country_ini_lon": 64.63406923682278, "lat_linestring": 34.38605352419094, "lon_linestring": 65.82669727492254, "c": "AFG", "c2": "AFG"}, "geometry": {"type": "LineString", "coordinates": [[64.63406923682278, 35.87006624720454], [67.01932531302229, 32.90204080117735]]}},
{"type": "Feature", "properties": {"z_other": "PAK_N", "z": "NEPS_TKM", "country_ini_lat": 35.87006624720454, "country_ini_lon": 64.63406923682278, "lat_linestring": 34.28597715934919, "lon_linestring": 68.58987844237042, "c": "AFG", "c2": "PAK"}, "geometry": {"type": "LineString", "coordinates": [[64.63406923682278, 35.87006624720454], [72.54568764791806, 32.701888071493826]]}},
{"type": "Feature", "properties": {"z_other": "PAK_S", "z": "NEPS_TKM", "country_ini_lat": 35.87006624720454, "country_ini_lon": 64.63406923682278, "lat_linestring": 31.781929606027358, "lon_linestring": 65.6614025703471, "c": "AFG", "c2": "PAK"}, "geometry": {"type": "LineString", "coordinates": [[64.63406923682278, 35.87006624720454], [66.68873590387139, 27.69379296485018]]}},
{"type": "Feature", "properties": {"z_other": "UZB", "z": "NEPS_TKM", "country_ini_lat": 35.87006624720454, "country_ini_lon": 64.63406923682278, "lat_linestring": 38.81301046478275, "lon_linestring": 63.887055208652804, "c": "AFG", "c2": "UZB"}, "geometry": {"type": "LineString", "coordinates": [[64.63406923682278, 35.87006624720454], [63.140041180482825, 41.75595468236096]]}},
{"type": "Feature", "properties": {"z_other": "TUR", "z": "NEPS_TKM", "country_ini_lat": 35.87006624720454, "country_ini_lon": 64.63406923682278, "lat_linestring": 37.49299027730757, "lon_linestring": 62.00501172938253, "c": "AFG", "c2": "TUR"}, "geometry": {"type": "LineString", "coordinates": [[64.63406923682278, 35.87006624720454], [59.37595422194229, 39.11591430741059]]}},
{"type": "Feature", "properties": {"z_other": "KAZ_S", "z": "NEPS_TKM", "country_ini_lat": 35.87006624720454, "country_ini_lon": 64.63406923682278, "lat_linestring": 40.24966821622948, "lon_linestring": 67.61960541538618, "c": "AFG", "c2": "KAZ"}, "geometry": {"type": "LineString", "coordinates": [[64.63406923682278, 35.87006624720454], [70.60514159394957, 44.62927018525443]]}},
{"type": "Feature", "properties": {"z_other": "KAZ_N", "z": "NEPS_TKM", "country_ini_lat": 35.87006624720454, "country_ini_lon": 64.63406923682278, "lat_linestring": 42.867936965238655, "lon_linestring": 67.23202126463335, "c": "AFG", "c2": "KAZ"}, "geometry": {"type": "LineString", "coordinates": [[64.63406923682278, 35.87006624720454], [69.82997329244392, 49.86580768327276]]}},
{"type": "Feature", "properties": {"z_other": "PAK_KAR", "z": "NEPS_HERAT", "country_ini_lat": 34.195711936028815, "country_ini_lon": 62.1207101074525, "lat_linestring": 29.645999166480433, "lon_linestring": 64.6739704205246, "c": "AFG", "c2": "PAK"}, "geometry": {"type": "LineString", "coordinates": [[62.1207101074525, 34.195711936028815], [67.22723073359668, 25.09628639693205]]}},
{"type": "Feature", "properties": {"z_other": "NEPS_TAJ", "z": "NEPS_HERAT", "country_ini_lat": 34.195711936028815, "country_ini_lon": 62.1207101074525, "lat_linestring": 35.47765357721282, "lon_linestring": 65.74690484420834, "c": "AFG", "c2": "AFG"}, "geometry": {"type": "LineString", "coordinates": [[62.1207101074525, 34.195711936028815], [69.3730995809642, 36.75959521839683]]}},
{"type": "Feature", "properties": {"z_other": "TAJ_N", "z": "NEPS_HERAT", "country_ini_lat": 34.195711936028815, "country_ini_lon": 62.1207101074525, "lat_linestring": 36.99966755261436, "lon_linestring": 65.67228254197917, "c": "AFG", "c2": "TAJ"}, "geometry": {"type": "LineString", "coordinates": [[62.1207101074525, 34.195711936028815], [69.22385497650583, 39.80362316919991]]}},
{"type": "Feature", "properties": {"z_other": "NEPS_UZB", "z": "NEPS_HERAT", "country_ini_lat": 34.195711936028815, "country_ini_lon": 62.1207101074525, "lat_linestring": 35.172415014749376, "lon_linestring": 64.53070642986701, "c": "AFG", "c2": "AFG"}, "geometry": {"type": "LineString", "coordinates": [[62.1207101074525, 34.195711936028815], [66.94070275228151, 36.14911809346994]]}},
{"type": "Feature", "properties": {"z_other": "NEPS_TKM", "z": "NEPS_HERAT", "country_ini_lat": 34.195711936028815, "country_ini_lon": 62.1207101074525, "lat_linestring": 35.03288909161668, "lon_linestring": 63.37738967213763, "c": "AFG", "c2": "AFG"}, "geometry": {"type": "LineString", "coordinates": [[62.1207101074525, 34.195711936028815], [64.63406923682278, 35.87006624720454]]}},
{"type": "Feature", "properties": {"z_other": "KGZ_S", "z": "NEPS_HERAT", "country_ini_lat": 34.195711936028815, "country_ini_lon": 62.1207101074525, "lat_linestring": 37.44456955714607, "lon_linestring": 67.25802016898221, "c": "AFG", "c2": "KGZ"}, "geometry": {"type": "LineString", "coordinates": [[62.1207101074525, 34.195711936028815], [72.39533023051192, 40.69342717826331]]}},
{"type": "Feature", "properties": {"z_other": "TAJ_S", "z": "NEPS_HERAT", "country_ini_lat": 34.195711936028815, "country_ini_lon": 62.1207101074525, "lat_linestring": 36.22076225823871, "lon_linestring": 66.76807496944298, "c": "AFG", "c2": "TAJ"}, "geometry": {"type": "LineString", "coordinates": [[62.1207101074525, 34.195711936028815], [71.41543983143345, 38.24581258044859]]}},
{"type": "Feature", "properties": {"z_other": "KGZ_N", "z": "NEPS_HERAT", "country_ini_lat": 34.195711936028815, "country_ini_lon": 62.1207101074525, "lat_linestring": 38.07898972776307, "lon_linestring": 69.02998740913554, "c": "AFG", "c2": "KGZ"}, "geometry": {"type": "LineString", "coordinates": [[62.1207101074525, 34.195711936028815], [75.93926471081859, 41.962267519497324]]}},
{"type": "Feature", "properties": {"z_other": "NEPS_AFG", "z": "NEPS_HERAT", "country_ini_lat": 34.195711936028815, "country_ini_lon": 62.1207101074525, "lat_linestring": 33.54887636860308, "lon_linestring": 64.5700177102374, "c": "AFG", "c2": "AFG"}, "geometry": {"type": "LineString", "coordinates": [[62.1207101074525, 34.195711936028815], [67.01932531302229, 32.90204080117735]]}},
{"type": "Feature", "properties": {"z_other": "PAK_N", "z": "NEPS_HERAT", "country_ini_lat": 34.195711936028815, "country_ini_lon": 62.1207101074525, "lat_linestring": 33.44880000376132, "lon_linestring": 67.33319887768528, "c": "AFG", "c2": "PAK"}, "geometry": {"type": "LineString", "coordinates": [[62.1207101074525, 34.195711936028815], [72.54568764791806, 32.701888071493826]]}},
{"type": "Feature", "properties": {"z_other": "PAK_S", "z": "NEPS_HERAT", "country_ini_lat": 34.195711936028815, "country_ini_lon": 62.1207101074525, "lat_linestring": 30.944752450439495, "lon_linestring": 64.40472300566195, "c": "AFG", "c2": "PAK"}, "geometry": {"type": "LineString", "coordinates": [[62.1207101074525, 34.195711936028815], [66.68873590387139, 27.69379296485018]]}},
{"type": "Feature", "properties": {"z_other": "UZB", "z": "NEPS_HERAT", "country_ini_lat": 34.195711936028815, "country_ini_lon": 62.1207101074525, "lat_linestring": 37.97583330919488, "lon_linestring": 62.63037564396767, "c": "AFG", "c2": "UZB"}, "geometry": {"type": "LineString", "coordinates": [[62.1207101074525, 34.195711936028815], [63.140041180482825, 41.75595468236096]]}},
{"type": "Feature", "properties": {"z_other": "TUR", "z": "NEPS_HERAT", "country_ini_lat": 34.195711936028815, "country_ini_lon": 62.1207101074525, "lat_linestring": 36.6558131217197, "lon_linestring": 60.74833216469739, "c": "AFG", "c2": "TUR"}, "geometry": {"type": "LineString", "coordinates": [[62.1207101074525, 34.195711936028815], [59.37595422194229, 39.11591430741059]]}},
{"type": "Feature", "properties": {"z_other": "KAZ_S", "z": "NEPS_HERAT", "country_ini_lat": 34.195711936028815, "country_ini_lon": 62.1207101074525, "lat_linestring": 39.41249106064162, "lon_linestring": 66.36292585070103, "c": "AFG", "c2": "KAZ"}, "geometry": {"type": "LineString", "coordinates": [[62.1207101074525, 34.195711936028815], [70.60514159394957, 44.62927018525443]]}},
{"type": "Feature", "properties": {"z_other": "KAZ_N", "z": "NEPS_HERAT", "country_ini_lat": 34.195711936028815, "country_ini_lon": 62.1207101074525, "lat_linestring": 42.03075980965079, "lon_linestring": 65.97534169994822, "c": "AFG", "c2": "KAZ"}, "geometry": {"type": "LineString", "coordinates": [[62.1207101074525, 34.195711936028815], [69.82997329244392, 49.86580768327276]]}},
{"type": "Feature", "properties": {"z_other": "PAK_KAR", "z": "KGZ_S", "country_ini_lat": 40.69342717826331, "country_ini_lon": 72.39533023051192, "lat_linestring": 32.89485678759768, "lon_linestring": 69.8112804820543, "c": "KGZ", "c2": "PAK"}, "geometry": {"type": "LineString", "coordinates": [[72.39533023051192, 40.69342717826331], [67.22723073359668, 25.09628639693205]]}},
{"type": "Feature", "properties": {"z_other": "NEPS_TAJ", "z": "KGZ_S", "country_ini_lat": 40.69342717826331, "country_ini_lon": 72.39533023051192, "lat_linestring": 38.72651119833007, "lon_linestring": 70.88421490573805, "c": "KGZ", "c2": "AFG"}, "geometry": {"type": "LineString", "coordinates": [[72.39533023051192, 40.69342717826331], [69.3730995809642, 36.75959521839683]]}},
{"type": "Feature", "properties": {"z_other": "TAJ_N", "z": "KGZ_S", "country_ini_lat": 40.69342717826331, "country_ini_lon": 72.39533023051192, "lat_linestring": 40.24852517373161, "lon_linestring": 70.80959260350888, "c": "KGZ", "c2": "TAJ"}, "geometry": {"type": "LineString", "coordinates": [[72.39533023051192, 40.69342717826331], [69.22385497650583, 39.80362316919991]]}},
{"type": "Feature", "properties": {"z_other": "NEPS_UZB", "z": "KGZ_S", "country_ini_lat": 40.69342717826331, "country_ini_lon": 72.39533023051192, "lat_linestring": 38.42127263586663, "lon_linestring": 69.66801649139671, "c": "KGZ", "c2": "AFG"}, "geometry": {"type": "LineString", "coordinates": [[72.39533023051192, 40.69342717826331], [66.94070275228151, 36.14911809346994]]}},
{"type": "Feature", "properties": {"z_other": "NEPS_TKM", "z": "KGZ_S", "country_ini_lat": 40.69342717826331, "country_ini_lon": 72.39533023051192, "lat_linestring": 38.28174671273393, "lon_linestring": 68.51469973366736, "c": "KGZ", "c2": "AFG"}, "geometry": {"type": "LineString", "coordinates": [[72.39533023051192, 40.69342717826331], [64.63406923682278, 35.87006624720454]]}},
{"type": "Feature", "properties": {"z_other": "NEPS_HERAT", "z": "KGZ_S", "country_ini_lat": 40.69342717826331, "country_ini_lon": 72.39533023051192, "lat_linestring": 37.44456955714607, "lon_linestring": 67.25802016898221, "c": "KGZ", "c2": "AFG"}, "geometry": {"type": "LineString", "coordinates": [[72.39533023051192, 40.69342717826331], [62.1207101074525, 34.195711936028815]]}},
{"type": "Feature", "properties": {"z_other": "TAJ_S", "z": "KGZ_S", "country_ini_lat": 40.69342717826331, "country_ini_lon": 72.39533023051192, "lat_linestring": 39.46961987935595, "lon_linestring": 71.90538503097268, "c": "KGZ", "c2": "TAJ"}, "geometry": {"type": "LineString", "coordinates": [[72.39533023051192, 40.69342717826331], [71.41543983143345, 38.24581258044859]]}},
{"type": "Feature", "properties": {"z_other": "KGZ_N", "z": "KGZ_S", "country_ini_lat": 40.69342717826331, "country_ini_lon": 72.39533023051192, "lat_linestring": 41.32784734888032, "lon_linestring": 74.16729747066525, "c": "KGZ", "c2": "KGZ"}, "geometry": {"type": "LineString", "coordinates": [[72.39533023051192, 40.69342717826331], [75.93926471081859, 41.962267519497324]]}},
{"type": "Feature", "properties": {"z_other": "NEPS_AFG", "z": "KGZ_S", "country_ini_lat": 40.69342717826331, "country_ini_lon": 72.39533023051192, "lat_linestring": 36.79773398972033, "lon_linestring": 69.7073277717671, "c": "KGZ", "c2": "AFG"}, "geometry": {"type": "LineString", "coordinates": [[72.39533023051192, 40.69342717826331], [67.01932531302229, 32.90204080117735]]}},
{"type": "Feature", "properties": {"z_other": "PAK_N", "z": "KGZ_S", "country_ini_lat": 40.69342717826331, "country_ini_lon": 72.39533023051192, "lat_linestring": 36.69765762487857, "lon_linestring": 72.470508939215, "c": "KGZ", "c2": "PAK"}, "geometry": {"type": "LineString", "coordinates": [[72.39533023051192, 40.69342717826331], [72.54568764791806, 32.701888071493826]]}},
{"type": "Feature", "properties": {"z_other": "PAK_S", "z": "KGZ_S", "country_ini_lat": 40.69342717826331, "country_ini_lon": 72.39533023051192, "lat_linestring": 34.19361007155675, "lon_linestring": 69.54203306719165, "c": "KGZ", "c2": "PAK"}, "geometry": {"type": "LineString", "coordinates": [[72.39533023051192, 40.69342717826331], [66.68873590387139, 27.69379296485018]]}},
{"type": "Feature", "properties": {"z_other": "UZB", "z": "KGZ_S", "country_ini_lat": 40.69342717826331, "country_ini_lon": 72.39533023051192, "lat_linestring": 41.224690930312136, "lon_linestring": 67.76768570549737, "c": "KGZ", "c2": "UZB"}, "geometry": {"type": "LineString", "coordinates": [[72.39533023051192, 40.69342717826331], [63.140041180482825, 41.75595468236096]]}},
{"type": "Feature", "properties": {"z_other": "TUR", "z": "KGZ_S", "country_ini_lat": 40.69342717826331, "country_ini_lon": 72.39533023051192, "lat_linestring": 39.904670742836956, "lon_linestring": 65.8856422262271, "c": "KGZ", "c2": "TUR"}, "geometry": {"type": "LineString", "coordinates": [[72.39533023051192, 40.69342717826331], [59.37595422194229, 39.11591430741059]]}},
{"type": "Feature", "properties": {"z_other": "KAZ_S", "z": "KGZ_S", "country_ini_lat": 40.69342717826331, "country_ini_lon": 72.39533023051192, "lat_linestring": 42.66134868175887, "lon_linestring": 71.50023591223075, "c": "KGZ", "c2": "KAZ"}, "geometry": {"type": "LineString", "coordinates": [[72.39533023051192, 40.69342717826331], [70.60514159394957, 44.62927018525443]]}},
{"type": "Feature", "properties": {"z_other": "KAZ_N", "z": "KGZ_S", "country_ini_lat": 40.69342717826331, "country_ini_lon": 72.39533023051192, "lat_linestring": 45.27961743076804, "lon_linestring": 71.11265176147792, "c": "KGZ", "c2": "KAZ"}, "geometry": {"type": "LineString", "coordinates": [[72.39533023051192, 40.69342717826331], [69.82997329244392, 49.86580768327276]]}},
{"type": "Feature", "properties": {"z_other": "PAK_KAR", "z": "TAJ_S", "country_ini_lat": 38.24581258044859, "country_ini_lon": 71.41543983143345, "lat_linestring": 31.671049488690322, "lon_linestring": 69.32133528251507, "c": "TAJ", "c2": "PAK"}, "geometry": {"type": "LineString", "coordinates": [[71.41543983143345, 38.24581258044859], [67.22723073359668, 25.09628639693205]]}},
{"type": "Feature", "properties": {"z_other": "NEPS_TAJ", "z": "TAJ_S", "country_ini_lat": 38.24581258044859, "country_ini_lon": 71.41543983143345, "lat_linestring": 37.50270389942271, "lon_linestring": 70.39426970619883, "c": "TAJ", "c2": "AFG"}, "geometry": {"type": "LineString", "coordinates": [[71.41543983143345, 38.24581258044859], [69.3730995809642, 36.75959521839683]]}},
{"type": "Feature", "properties": {"z_other": "TAJ_N", "z": "TAJ_S", "country_ini_lat": 38.24581258044859, "country_ini_lon": 71.41543983143345, "lat_linestring": 39.02471787482425, "lon_linestring": 70.31964740396964, "c": "TAJ", "c2": "TAJ"}, "geometry": {"type": "LineString", "coordinates": [[71.41543983143345, 38.24581258044859], [69.22385497650583, 39.80362316919991]]}},
{"type": "Feature", "properties": {"z_other": "NEPS_UZB", "z": "TAJ_S", "country_ini_lat": 38.24581258044859, "country_ini_lon": 71.41543983143345, "lat_linestring": 37.19746533695927, "lon_linestring": 69.17807129185748, "c": "TAJ", "c2": "AFG"}, "geometry": {"type": "LineString", "coordinates": [[71.41543983143345, 38.24581258044859], [66.94070275228151, 36.14911809346994]]}},
{"type": "Feature", "properties": {"z_other": "NEPS_TKM", "z": "TAJ_S", "country_ini_lat": 38.24581258044859, "country_ini_lon": 71.41543983143345, "lat_linestring": 37.05793941382657, "lon_linestring": 68.0247545341281, "c": "TAJ", "c2": "AFG"}, "geometry": {"type": "LineString", "coordinates": [[71.41543983143345, 38.24581258044859], [64.63406923682278, 35.87006624720454]]}},
{"type": "Feature", "properties": {"z_other": "NEPS_HERAT", "z": "TAJ_S", "country_ini_lat": 38.24581258044859, "country_ini_lon": 71.41543983143345, "lat_linestring": 36.22076225823871, "lon_linestring": 66.76807496944298, "c": "TAJ", "c2": "AFG"}, "geometry": {"type": "LineString", "coordinates": [[71.41543983143345, 38.24581258044859], [62.1207101074525, 34.195711936028815]]}},
{"type": "Feature", "properties": {"z_other": "KGZ_S", "z": "TAJ_S", "country_ini_lat": 38.24581258044859, "country_ini_lon": 71.41543983143345, "lat_linestring": 39.46961987935595, "lon_linestring": 71.90538503097268, "c": "TAJ", "c2": "KGZ"}, "geometry": {"type": "LineString", "coordinates": [[71.41543983143345, 38.24581258044859], [72.39533023051192, 40.69342717826331]]}},
{"type": "Feature", "properties": {"z_other": "KGZ_N", "z": "TAJ_S", "country_ini_lat": 38.24581258044859, "country_ini_lon": 71.41543983143345, "lat_linestring": 40.10404004997296, "lon_linestring": 73.67735227112601, "c": "TAJ", "c2": "KGZ"}, "geometry": {"type": "LineString", "coordinates": [[71.41543983143345, 38.24581258044859], [75.93926471081859, 41.962267519497324]]}},
{"type": "Feature", "properties": {"z_other": "NEPS_AFG", "z": "TAJ_S", "country_ini_lat": 38.24581258044859, "country_ini_lon": 71.41543983143345, "lat_linestring": 35.57392669081297, "lon_linestring": 69.21738257222788, "c": "TAJ", "c2": "AFG"}, "geometry": {"type": "LineString", "coordinates": [[71.41543983143345, 38.24581258044859], [67.01932531302229, 32.90204080117735]]}},
{"type": "Feature", "properties": {"z_other": "PAK_N", "z": "TAJ_S", "country_ini_lat": 38.24581258044859, "country_ini_lon": 71.41543983143345, "lat_linestring": 35.47385032597121, "lon_linestring": 71.98056373967574, "c": "TAJ", "c2": "PAK"}, "geometry": {"type": "LineString", "coordinates": [[71.41543983143345, 38.24581258044859], [72.54568764791806, 32.701888071493826]]}},
{"type": "Feature", "properties": {"z_other": "PAK_S", "z": "TAJ_S", "country_ini_lat": 38.24581258044859, "country_ini_lon": 71.41543983143345, "lat_linestring": 32.96980277264939, "lon_linestring": 69.05208786765242, "c": "TAJ", "c2": "PAK"}, "geometry": {"type": "LineString", "coordinates": [[71.41543983143345, 38.24581258044859], [66.68873590387139, 27.69379296485018]]}},
{"type": "Feature", "properties": {"z_other": "UZB", "z": "TAJ_S", "country_ini_lat": 38.24581258044859, "country_ini_lon": 71.41543983143345, "lat_linestring": 40.000883631404776, "lon_linestring": 67.27774050595814, "c": "TAJ", "c2": "UZB"}, "geometry": {"type": "LineString", "coordinates": [[71.41543983143345, 38.24581258044859], [63.140041180482825, 41.75595468236096]]}},
{"type": "Feature", "properties": {"z_other": "TUR", "z": "TAJ_S", "country_ini_lat": 38.24581258044859, "country_ini_lon": 71.41543983143345, "lat_linestring": 38.680863443929596, "lon_linestring": 65.39569702668787, "c": "TAJ", "c2": "TUR"}, "geometry": {"type": "LineString", "coordinates": [[71.41543983143345, 38.24581258044859], [59.37595422194229, 39.11591430741059]]}},
{"type": "Feature", "properties": {"z_other": "KAZ_S", "z": "TAJ_S", "country_ini_lat": 38.24581258044859, "country_ini_lon": 71.41543983143345, "lat_linestring": 41.43754138285151, "lon_linestring": 71.0102907126915, "c": "TAJ", "c2": "KAZ"}, "geometry": {"type": "LineString", "coordinates": [[71.41543983143345, 38.24581258044859], [70.60514159394957, 44.62927018525443]]}},
{"type": "Feature", "properties": {"z_other": "KAZ_N", "z": "TAJ_S", "country_ini_lat": 38.24581258044859, "country_ini_lon": 71.41543983143345, "lat_linestring": 44.05581013186068, "lon_linestring": 70.62270656193868, "c": "TAJ", "c2": "KAZ"}, "geometry": {"type": "LineString", "coordinates": [[71.41543983143345, 38.24581258044859], [69.82997329244392, 49.86580768327276]]}},
{"type": "Feature", "properties": {"z_other": "PAK_KAR", "z": "KGZ_N", "country_ini_lat": 41.962267519497324, "country_ini_lon": 75.93926471081859, "lat_linestring": 33.52927695821469, "lon_linestring": 71.58324772220763, "c": "KGZ", "c2": "PAK"}, "geometry": {"type": "LineString", "coordinates": [[75.93926471081859, 41.962267519497324], [67.22723073359668, 25.09628639693205]]}},
{"type": "Feature", "properties": {"z_other": "NEPS_TAJ", "z": "KGZ_N", "country_ini_lat": 41.962267519497324, "country_ini_lon": 75.93926471081859, "lat_linestring": 39.36093136894708, "lon_linestring": 72.65618214589139, "c": "KGZ", "c2": "AFG"}, "geometry": {"type": "LineString", "coordinates": [[75.93926471081859, 41.962267519497324], [69.3730995809642, 36.75959521839683]]}},
{"type": "Feature", "properties": {"z_other": "TAJ_N", "z": "KGZ_N", "country_ini_lat": 41.962267519497324, "country_ini_lon": 75.93926471081859, "lat_linestring": 40.88294534434861, "lon_linestring": 72.5815598436622, "c": "KGZ", "c2": "TAJ"}, "geometry": {"type": "LineString", "coordinates": [[75.93926471081859, 41.962267519497324], [69.22385497650583, 39.80362316919991]]}},
{"type": "Feature", "properties": {"z_other": "NEPS_UZB", "z": "KGZ_N", "country_ini_lat": 41.962267519497324, "country_ini_lon": 75.93926471081859, "lat_linestring": 39.055692806483634, "lon_linestring": 71.43998373155006, "c": "KGZ", "c2": "AFG"}, "geometry": {"type": "LineString", "coordinates": [[75.93926471081859, 41.962267519497324], [66.94070275228151, 36.14911809346994]]}},
{"type": "Feature", "properties": {"z_other": "NEPS_TKM", "z": "KGZ_N", "country_ini_lat": 41.962267519497324, "country_ini_lon": 75.93926471081859, "lat_linestring": 38.91616688335093, "lon_linestring": 70.28666697382069, "c": "KGZ", "c2": "AFG"}, "geometry": {"type": "LineString", "coordinates": [[75.93926471081859, 41.962267519497324], [64.63406923682278, 35.87006624720454]]}},
{"type": "Feature", "properties": {"z_other": "NEPS_HERAT", "z": "KGZ_N", "country_ini_lat": 41.962267519497324, "country_ini_lon": 75.93926471081859, "lat_linestring": 38.07898972776307, "lon_linestring": 69.02998740913554, "c": "KGZ", "c2": "AFG"}, "geometry": {"type": "LineString", "coordinates": [[75.93926471081859, 41.962267519497324], [62.1207101074525, 34.195711936028815]]}},
{"type": "Feature", "properties": {"z_other": "KGZ_S", "z": "KGZ_N", "country_ini_lat": 41.962267519497324, "country_ini_lon": 75.93926471081859, "lat_linestring": 41.32784734888032, "lon_linestring": 74.16729747066525, "c": "KGZ", "c2": "KGZ"}, "geometry": {"type": "LineString", "coordinates": [[75.93926471081859, 41.962267519497324], [72.39533023051192, 40.69342717826331]]}},
{"type": "Feature", "properties": {"z_other": "TAJ_S", "z": "KGZ_N", "country_ini_lat": 41.962267519497324, "country_ini_lon": 75.93926471081859, "lat_linestring": 40.10404004997296, "lon_linestring": 73.67735227112601, "c": "KGZ", "c2": "TAJ"}, "geometry": {"type": "LineString", "coordinates": [[75.93926471081859, 41.962267519497324], [71.41543983143345, 38.24581258044859]]}},
{"type": "Feature", "properties": {"z_other": "NEPS_AFG", "z": "KGZ_N", "country_ini_lat": 41.962267519497324, "country_ini_lon": 75.93926471081859, "lat_linestring": 37.43215416033733, "lon_linestring": 71.47929501192044, "c": "KGZ", "c2": "AFG"}, "geometry": {"type": "LineString", "coordinates": [[75.93926471081859, 41.962267519497324], [67.01932531302229, 32.90204080117735]]}},
{"type": "Feature", "properties": {"z_other": "PAK_N", "z": "KGZ_N", "country_ini_lat": 41.962267519497324, "country_ini_lon": 75.93926471081859, "lat_linestring": 37.33207779549558, "lon_linestring": 74.24247617936832, "c": "KGZ", "c2": "PAK"}, "geometry": {"type": "LineString", "coordinates": [[75.93926471081859, 41.962267519497324], [72.54568764791806, 32.701888071493826]]}},
{"type": "Feature", "properties": {"z_other": "PAK_S", "z": "KGZ_N", "country_ini_lat": 41.962267519497324, "country_ini_lon": 75.93926471081859, "lat_linestring": 34.82803024217375, "lon_linestring": 71.314000307345, "c": "KGZ", "c2": "PAK"}, "geometry": {"type": "LineString", "coordinates": [[75.93926471081859, 41.962267519497324], [66.68873590387139, 27.69379296485018]]}},
{"type": "Feature", "properties": {"z_other": "UZB", "z": "KGZ_N", "country_ini_lat": 41.962267519497324, "country_ini_lon": 75.93926471081859, "lat_linestring": 41.85911110092914, "lon_linestring": 69.53965294565072, "c": "KGZ", "c2": "UZB"}, "geometry": {"type": "LineString", "coordinates": [[75.93926471081859, 41.962267519497324], [63.140041180482825, 41.75595468236096]]}},
{"type": "Feature", "properties": {"z_other": "TUR", "z": "KGZ_N", "country_ini_lat": 41.962267519497324, "country_ini_lon": 75.93926471081859, "lat_linestring": 40.53909091345396, "lon_linestring": 67.65760946638044, "c": "KGZ", "c2": "TUR"}, "geometry": {"type": "LineString", "coordinates": [[75.93926471081859, 41.962267519497324], [59.37595422194229, 39.11591430741059]]}},
{"type": "Feature", "properties": {"z_other": "KAZ_S", "z": "KGZ_N", "country_ini_lat": 41.962267519497324, "country_ini_lon": 75.93926471081859, "lat_linestring": 43.29576885237587, "lon_linestring": 73.27220315238408, "c": "KGZ", "c2": "KAZ"}, "geometry": {"type": "LineString", "coordinates": [[75.93926471081859, 41.962267519497324], [70.60514159394957, 44.62927018525443]]}},
{"type": "Feature", "properties": {"z_other": "KAZ_N", "z": "KGZ_N", "country_ini_lat": 41.962267519497324, "country_ini_lon": 75.93926471081859, "lat_linestring": 45.91403760138505, "lon_linestring": 72.88461900163125, "c": "KGZ", "c2": "KAZ"}, "geometry": {"type": "LineString", "coordinates": [[75.93926471081859, 41.962267519497324], [69.82997329244392, 49.86580768327276]]}},
{"type": "Feature", "properties": {"z_other": "PAK_KAR", "z": "NEPS_AFG", "country_ini_lat": 32.90204080117735, "country_ini_lon": 67.01932531302229, "lat_linestring": 28.9991635990547, "lon_linestring": 67.1232780233095, "c": "AFG", "c2": "PAK"}, "geometry": {"type": "LineString", "coordinates": [[67.01932531302229, 32.90204080117735], [67.22723073359668, 25.09628639693205]]}},
{"type": "Feature", "properties": {"z_other": "NEPS_TAJ", "z": "NEPS_AFG", "country_ini_lat": 32.90204080117735, "country_ini_lon": 67.01932531302229, "lat_linestring": 34.830818009787095, "lon_linestring": 68.19621244699324, "c": "AFG", "c2": "AFG"}, "geometry": {"type": "LineString", "coordinates": [[67.01932531302229, 32.90204080117735], [69.3730995809642, 36.75959521839683]]}},
{"type": "Feature", "properties": {"z_other": "TAJ_N", "z": "NEPS_AFG", "country_ini_lat": 32.90204080117735, "country_ini_lon": 67.01932531302229, "lat_linestring": 36.35283198518863, "lon_linestring": 68.12159014476407, "c": "AFG", "c2": "TAJ"}, "geometry": {"type": "LineString", "coordinates": [[67.01932531302229, 32.90204080117735], [69.22385497650583, 39.80362316919991]]}},
{"type": "Feature", "properties": {"z_other": "NEPS_UZB", "z": "NEPS_AFG", "country_ini_lat": 32.90204080117735, "country_ini_lon": 67.01932531302229, "lat_linestring": 34.52557944732364, "lon_linestring": 66.9800140326519, "c": "AFG", "c2": "AFG"}, "geometry": {"type": "LineString", "coordinates": [[67.01932531302229, 32.90204080117735], [66.94070275228151, 36.14911809346994]]}},
{"type": "Feature", "properties": {"z_other": "NEPS_TKM", "z": "NEPS_AFG", "country_ini_lat": 32.90204080117735, "country_ini_lon": 67.01932531302229, "lat_linestring": 34.38605352419094, "lon_linestring": 65.82669727492254, "c": "AFG", "c2": "AFG"}, "geometry": {"type": "LineString", "coordinates": [[67.01932531302229, 32.90204080117735], [64.63406923682278, 35.87006624720454]]}},
{"type": "Feature", "properties": {"z_other": "NEPS_HERAT", "z": "NEPS_AFG", "country_ini_lat": 32.90204080117735, "country_ini_lon": 67.01932531302229, "lat_linestring": 33.54887636860308, "lon_linestring": 64.5700177102374, "c": "AFG", "c2": "AFG"}, "geometry": {"type": "LineString", "coordinates": [[67.01932531302229, 32.90204080117735], [62.1207101074525, 34.195711936028815]]}},
{"type": "Feature", "properties": {"z_other": "KGZ_S", "z": "NEPS_AFG", "country_ini_lat": 32.90204080117735, "country_ini_lon": 67.01932531302229, "lat_linestring": 36.79773398972033, "lon_linestring": 69.7073277717671, "c": "AFG", "c2": "KGZ"}, "geometry": {"type": "LineString", "coordinates": [[67.01932531302229, 32.90204080117735], [72.39533023051192, 40.69342717826331]]}},
{"type": "Feature", "properties": {"z_other": "TAJ_S", "z": "NEPS_AFG", "country_ini_lat": 32.90204080117735, "country_ini_lon": 67.01932531302229, "lat_linestring": 35.57392669081297, "lon_linestring": 69.21738257222788, "c": "AFG", "c2": "TAJ"}, "geometry": {"type": "LineString", "coordinates": [[67.01932531302229, 32.90204080117735], [71.41543983143345, 38.24581258044859]]}},
{"type": "Feature", "properties": {"z_other": "KGZ_N", "z": "NEPS_AFG", "country_ini_lat": 32.90204080117735, "country_ini_lon": 67.01932531302229, "lat_linestring": 37.43215416033733, "lon_linestring": 71.47929501192044, "c": "AFG", "c2": "KGZ"}, "geometry": {"type": "LineString", "coordinates": [[67.01932531302229, 32.90204080117735], [75.93926471081859, 41.962267519497324]]}},
{"type": "Feature", "properties": {"z_other": "PAK_N", "z": "NEPS_AFG", "country_ini_lat": 32.90204080117735, "country_ini_lon": 67.01932531302229, "lat_linestring": 32.80196443633559, "lon_linestring": 69.78250648047018, "c": "AFG", "c2": "PAK"}, "geometry": {"type": "LineString", "coordinates": [[67.01932531302229, 32.90204080117735], [72.54568764791806, 32.701888071493826]]}},
{"type": "Feature", "properties": {"z_other": "PAK_S", "z": "NEPS_AFG", "country_ini_lat": 32.90204080117735, "country_ini_lon": 67.01932531302229, "lat_linestring": 30.297916883013762, "lon_linestring": 66.85403060844683, "c": "AFG", "c2": "PAK"}, "geometry": {"type": "LineString", "coordinates": [[67.01932531302229, 32.90204080117735], [66.68873590387139, 27.69379296485018]]}},
{"type": "Feature", "properties": {"z_other": "UZB", "z": "NEPS_AFG", "country_ini_lat": 32.90204080117735, "country_ini_lon": 67.01932531302229, "lat_linestring": 37.32899774176916, "lon_linestring": 65.07968324675255, "c": "AFG", "c2": "UZB"}, "geometry": {"type": "LineString", "coordinates": [[67.01932531302229, 32.90204080117735], [63.140041180482825, 41.75595468236096]]}},
{"type": "Feature", "properties": {"z_other": "TUR", "z": "NEPS_AFG", "country_ini_lat": 32.90204080117735, "country_ini_lon": 67.01932531302229, "lat_linestring": 36.00897755429397, "lon_linestring": 63.197639767482286, "c": "AFG", "c2": "TUR"}, "geometry": {"type": "LineString", "coordinates": [[67.01932531302229, 32.90204080117735], [59.37595422194229, 39.11591430741059]]}},
{"type": "Feature", "properties": {"z_other": "KAZ_S", "z": "NEPS_AFG", "country_ini_lat": 32.90204080117735, "country_ini_lon": 67.01932531302229, "lat_linestring": 38.76565549321589, "lon_linestring": 68.81223345348593, "c": "AFG", "c2": "KAZ"}, "geometry": {"type": "LineString", "coordinates": [[67.01932531302229, 32.90204080117735], [70.60514159394957, 44.62927018525443]]}},
{"type": "Feature", "properties": {"z_other": "KAZ_N", "z": "NEPS_AFG", "country_ini_lat": 32.90204080117735, "country_ini_lon": 67.01932531302229, "lat_linestring": 41.383924242225056, "lon_linestring": 68.42464930273312, "c": "AFG", "c2": "KAZ"}, "geometry": {"type": "LineString", "coordinates": [[67.01932531302229, 32.90204080117735], [69.82997329244392, 49.86580768327276]]}},
{"type": "Feature", "properties": {"z_other": "PAK_KAR", "z": "PAK_N", "country_ini_lat": 32.701888071493826, "country_ini_lon": 72.54568764791806, "lat_linestring": 28.89908723421294, "lon_linestring": 69.88645919075736, "c": "PAK", "c2": "PAK"}, "geometry": {"type": "LineString", "coordinates": [[72.54568764791806, 32.701888071493826], [67.22723073359668, 25.09628639693205]]}},
{"type": "Feature", "properties": {"z_other": "NEPS_TAJ", "z": "PAK_N", "country_ini_lat": 32.701888071493826, "country_ini_lon": 72.54568764791806, "lat_linestring": 34.730741644945326, "lon_linestring": 70.95939361444113, "c": "PAK", "c2": "AFG"}, "geometry": {"type": "LineString", "coordinates": [[72.54568764791806, 32.701888071493826], [69.3730995809642, 36.75959521839683]]}},
{"type": "Feature", "properties": {"z_other": "TAJ_N", "z": "PAK_N", "country_ini_lat": 32.701888071493826, "country_ini_lon": 72.54568764791806, "lat_linestring": 36.25275562034687, "lon_linestring": 70.88477131221194, "c": "PAK", "c2": "TAJ"}, "geometry": {"type": "LineString", "coordinates": [[72.54568764791806, 32.701888071493826], [69.22385497650583, 39.80362316919991]]}},
{"type": "Feature", "properties": {"z_other": "NEPS_UZB", "z": "PAK_N", "country_ini_lat": 32.701888071493826, "country_ini_lon": 72.54568764791806, "lat_linestring": 34.42550308248188, "lon_linestring": 69.74319520009979, "c": "PAK", "c2": "AFG"}, "geometry": {"type": "LineString", "coordinates": [[72.54568764791806, 32.701888071493826], [66.94070275228151, 36.14911809346994]]}},
{"type": "Feature", "properties": {"z_other": "NEPS_TKM", "z": "PAK_N", "country_ini_lat": 32.701888071493826, "country_ini_lon": 72.54568764791806, "lat_linestring": 34.28597715934919, "lon_linestring": 68.58987844237042, "c": "PAK", "c2": "AFG"}, "geometry": {"type": "LineString", "coordinates": [[72.54568764791806, 32.701888071493826], [64.63406923682278, 35.87006624720454]]}},
{"type": "Feature", "properties": {"z_other": "NEPS_HERAT", "z": "PAK_N", "country_ini_lat": 32.701888071493826, "country_ini_lon": 72.54568764791806, "lat_linestring": 33.44880000376132, "lon_linestring": 67.33319887768528, "c": "PAK", "c2": "AFG"}, "geometry": {"type": "LineString", "coordinates": [[72.54568764791806, 32.701888071493826], [62.1207101074525, 34.195711936028815]]}},
{"type": "Feature", "properties": {"z_other": "KGZ_S", "z": "PAK_N", "country_ini_lat": 32.701888071493826, "country_ini_lon": 72.54568764791806, "lat_linestring": 36.69765762487857, "lon_linestring": 72.470508939215, "c": "PAK", "c2": "KGZ"}, "geometry": {"type": "LineString", "coordinates": [[72.54568764791806, 32.701888071493826], [72.39533023051192, 40.69342717826331]]}},
{"type": "Feature", "properties": {"z_other": "TAJ_S", "z": "PAK_N", "country_ini_lat": 32.701888071493826, "country_ini_lon": 72.54568764791806, "lat_linestring": 35.47385032597121, "lon_linestring": 71.98056373967574, "c": "PAK", "c2": "TAJ"}, "geometry": {"type": "LineString", "coordinates": [[72.54568764791806, 32.701888071493826], [71.41543983143345, 38.24581258044859]]}},
{"type": "Feature", "properties": {"z_other": "KGZ_N", "z": "PAK_N", "country_ini_lat": 32.701888071493826, "country_ini_lon": 72.54568764791806, "lat_linestring": 37.33207779549558, "lon_linestring": 74.24247617936832, "c": "PAK", "c2": "KGZ"}, "geometry": {"type": "LineString", "coordinates": [[72.54568764791806, 32.701888071493826], [75.93926471081859, 41.962267519497324]]}},
{"type": "Feature", "properties": {"z_other": "NEPS_AFG", "z": "PAK_N", "country_ini_lat": 32.701888071493826, "country_ini_lon": 72.54568764791806, "lat_linestring": 32.80196443633559, "lon_linestring": 69.78250648047018, "c": "PAK", "c2": "AFG"}, "geometry": {"type": "LineString", "coordinates": [[72.54568764791806, 32.701888071493826], [67.01932531302229, 32.90204080117735]]}},
{"type": "Feature", "properties": {"z_other": "PAK_S", "z": "PAK_N", "country_ini_lat": 32.701888071493826, "country_ini_lon": 72.54568764791806, "lat_linestring": 30.197840518172, "lon_linestring": 69.61721177589473, "c": "PAK", "c2": "PAK"}, "geometry": {"type": "LineString", "coordinates": [[72.54568764791806, 32.701888071493826], [66.68873590387139, 27.69379296485018]]}},
{"type": "Feature", "properties": {"z_other": "UZB", "z": "PAK_N", "country_ini_lat": 32.701888071493826, "country_ini_lon": 72.54568764791806, "lat_linestring": 37.22892137692739, "lon_linestring": 67.84286441420045, "c": "PAK", "c2": "UZB"}, "geometry": {"type": "LineString", "coordinates": [[72.54568764791806, 32.701888071493826], [63.140041180482825, 41.75595468236096]]}},
{"type": "Feature", "properties": {"z_other": "TUR", "z": "PAK_N", "country_ini_lat": 32.701888071493826, "country_ini_lon": 72.54568764791806, "lat_linestring": 35.90890118945221, "lon_linestring": 65.96082093493017, "c": "PAK", "c2": "TUR"}, "geometry": {"type": "LineString", "coordinates": [[72.54568764791806, 32.701888071493826], [59.37595422194229, 39.11591430741059]]}},
{"type": "Feature", "properties": {"z_other": "KAZ_S", "z": "PAK_N", "country_ini_lat": 32.701888071493826, "country_ini_lon": 72.54568764791806, "lat_linestring": 38.66557912837413, "lon_linestring": 71.57541462093381, "c": "PAK", "c2": "KAZ"}, "geometry": {"type": "LineString", "coordinates": [[72.54568764791806, 32.701888071493826], [70.60514159394957, 44.62927018525443]]}},
{"type": "Feature", "properties": {"z_other": "KAZ_N", "z": "PAK_N", "country_ini_lat": 32.701888071493826, "country_ini_lon": 72.54568764791806, "lat_linestring": 41.283847877383295, "lon_linestring": 71.18783047018098, "c": "PAK", "c2": "KAZ"}, "geometry": {"type": "LineString", "coordinates": [[72.54568764791806, 32.701888071493826], [69.82997329244392, 49.86580768327276]]}},
{"type": "Feature", "properties": {"z_other": "PAK_KAR", "z": "PAK_S", "country_ini_lat": 27.69379296485018, "country_ini_lon": 66.68873590387139, "lat_linestring": 26.395039680891117, "lon_linestring": 66.95798331873404, "c": "PAK", "c2": "PAK"}, "geometry": {"type": "LineString", "coordinates": [[66.68873590387139, 27.69379296485018], [67.22723073359668, 25.09628639693205]]}},
{"type": "Feature", "properties": {"z_other": "NEPS_TAJ", "z": "PAK_S", "country_ini_lat": 27.69379296485018, "country_ini_lon": 66.68873590387139, "lat_linestring": 32.22669409162351, "lon_linestring": 68.03091774241778, "c": "PAK", "c2": "AFG"}, "geometry": {"type": "LineString", "coordinates": [[66.68873590387139, 27.69379296485018], [69.3730995809642, 36.75959521839683]]}},
{"type": "Feature", "properties": {"z_other": "TAJ_N", "z": "PAK_S", "country_ini_lat": 27.69379296485018, "country_ini_lon": 66.68873590387139, "lat_linestring": 33.74870806702504, "lon_linestring": 67.95629544018861, "c": "PAK", "c2": "TAJ"}, "geometry": {"type": "LineString", "coordinates": [[66.68873590387139, 27.69379296485018], [69.22385497650583, 39.80362316919991]]}},
{"type": "Feature", "properties": {"z_other": "NEPS_UZB", "z": "PAK_S", "country_ini_lat": 27.69379296485018, "country_ini_lon": 66.68873590387139, "lat_linestring": 31.921455529160056, "lon_linestring": 66.81471932807645, "c": "PAK", "c2": "AFG"}, "geometry": {"type": "LineString", "coordinates": [[66.68873590387139, 27.69379296485018], [66.94070275228151, 36.14911809346994]]}},
{"type": "Feature", "properties": {"z_other": "NEPS_TKM", "z": "PAK_S", "country_ini_lat": 27.69379296485018, "country_ini_lon": 66.68873590387139, "lat_linestring": 31.781929606027358, "lon_linestring": 65.6614025703471, "c": "PAK", "c2": "AFG"}, "geometry": {"type": "LineString", "coordinates": [[66.68873590387139, 27.69379296485018], [64.63406923682278, 35.87006624720454]]}},
{"type": "Feature", "properties": {"z_other": "NEPS_HERAT", "z": "PAK_S", "country_ini_lat": 27.69379296485018, "country_ini_lon": 66.68873590387139, "lat_linestring": 30.944752450439495, "lon_linestring": 64.40472300566195, "c": "PAK", "c2": "AFG"}, "geometry": {"type": "LineString", "coordinates": [[66.68873590387139, 27.69379296485018], [62.1207101074525, 34.195711936028815]]}},
{"type": "Feature", "properties": {"z_other": "KGZ_S", "z": "PAK_S", "country_ini_lat": 27.69379296485018, "country_ini_lon": 66.68873590387139, "lat_linestring": 34.19361007155675, "lon_linestring": 69.54203306719165, "c": "PAK", "c2": "KGZ"}, "geometry": {"type": "LineString", "coordinates": [[66.68873590387139, 27.69379296485018], [72.39533023051192, 40.69342717826331]]}},
{"type": "Feature", "properties": {"z_other": "TAJ_S", "z": "PAK_S", "country_ini_lat": 27.69379296485018, "country_ini_lon": 66.68873590387139, "lat_linestring": 32.96980277264939, "lon_linestring": 69.05208786765242, "c": "PAK", "c2": "TAJ"}, "geometry": {"type": "LineString", "coordinates": [[66.68873590387139, 27.69379296485018], [71.41543983143345, 38.24581258044859]]}},
{"type": "Feature", "properties": {"z_other": "KGZ_N", "z": "PAK_S", "country_ini_lat": 27.69379296485018, "country_ini_lon": 66.68873590387139, "lat_linestring": 34.82803024217375, "lon_linestring": 71.314000307345, "c": "PAK", "c2": "KGZ"}, "geometry": {"type": "LineString", "coordinates": [[66.68873590387139, 27.69379296485018], [75.93926471081859, 41.962267519497324]]}},
{"type": "Feature", "properties": {"z_other": "NEPS_AFG", "z": "PAK_S", "country_ini_lat": 27.69379296485018, "country_ini_lon": 66.68873590387139, "lat_linestring": 30.297916883013762, "lon_linestring": 66.85403060844683, "c": "PAK", "c2": "AFG"}, "geometry": {"type": "LineString", "coordinates": [[66.68873590387139, 27.69379296485018], [67.01932531302229, 32.90204080117735]]}},
{"type": "Feature", "properties": {"z_other": "PAK_N", "z": "PAK_S", "country_ini_lat": 27.69379296485018, "country_ini_lon": 66.68873590387139, "lat_linestring": 30.197840518172, "lon_linestring": 69.61721177589473, "c": "PAK", "c2": "PAK"}, "geometry": {"type": "LineString", "coordinates": [[66.68873590387139, 27.69379296485018], [72.54568764791806, 32.701888071493826]]}},
{"type": "Feature", "properties": {"z_other": "UZB", "z": "PAK_S", "country_ini_lat": 27.69379296485018, "country_ini_lon": 66.68873590387139, "lat_linestring": 34.72487382360557, "lon_linestring": 64.91438854217711, "c": "PAK", "c2": "UZB"}, "geometry": {"type": "LineString", "coordinates": [[66.68873590387139, 27.69379296485018], [63.140041180482825, 41.75595468236096]]}},
{"type": "Feature", "properties": {"z_other": "TUR", "z": "PAK_S", "country_ini_lat": 27.69379296485018, "country_ini_lon": 66.68873590387139, "lat_linestring": 33.40485363613038, "lon_linestring": 63.03234506290684, "c": "PAK", "c2": "TUR"}, "geometry": {"type": "LineString", "coordinates": [[66.68873590387139, 27.69379296485018], [59.37595422194229, 39.11591430741059]]}},
{"type": "Feature", "properties": {"z_other": "KAZ_S", "z": "PAK_S", "country_ini_lat": 27.69379296485018, "country_ini_lon": 66.68873590387139, "lat_linestring": 36.1615315750523, "lon_linestring": 68.64693874891049, "c": "PAK", "c2": "KAZ"}, "geometry": {"type": "LineString", "coordinates": [[66.68873590387139, 27.69379296485018], [70.60514159394957, 44.62927018525443]]}},
{"type": "Feature", "properties": {"z_other": "KAZ_N", "z": "PAK_S", "country_ini_lat": 27.69379296485018, "country_ini_lon": 66.68873590387139, "lat_linestring": 38.77980032406147, "lon_linestring": 68.25935459815766, "c": "PAK", "c2": "KAZ"}, "geometry": {"type": "LineString", "coordinates": [[66.68873590387139, 27.69379296485018], [69.82997329244392, 49.86580768327276]]}},
{"type": "Feature", "properties": {"z_other": "PAK_KAR", "z": "UZB", "country_ini_lat": 41.75595468236096, "country_ini_lon": 63.140041180482825, "lat_linestring": 33.426120539646504, "lon_linestring": 65.18363595703975, "c": "UZB", "c2": "PAK"}, "geometry": {"type": "LineString", "coordinates": [[63.140041180482825, 41.75595468236096], [67.22723073359668, 25.09628639693205]]}},
{"type": "Feature", "properties": {"z_other": "NEPS_TAJ", "z": "UZB", "country_ini_lat": 41.75595468236096, "country_ini_lon": 63.140041180482825, "lat_linestring": 39.257774950378895, "lon_linestring": 66.2565703807235, "c": "UZB", "c2": "AFG"}, "geometry": {"type": "LineString", "coordinates": [[63.140041180482825, 41.75595468236096], [69.3730995809642, 36.75959521839683]]}},
{"type": "Feature", "properties": {"z_other": "TAJ_N", "z": "UZB", "country_ini_lat": 41.75595468236096, "country_ini_lon": 63.140041180482825, "lat_linestring": 40.779788925780444, "lon_linestring": 66.18194807849433, "c": "UZB", "c2": "TAJ"}, "geometry": {"type": "LineString", "coordinates": [[63.140041180482825, 41.75595468236096], [69.22385497650583, 39.80362316919991]]}},
{"type": "Feature", "properties": {"z_other": "NEPS_UZB", "z": "UZB", "country_ini_lat": 41.75595468236096, "country_ini_lon": 63.140041180482825, "lat_linestring": 38.952536387915444, "lon_linestring": 65.04037196638217, "c": "UZB", "c2": "AFG"}, "geometry": {"type": "LineString", "coordinates": [[63.140041180482825, 41.75595468236096], [66.94070275228151, 36.14911809346994]]}},
{"type": "Feature", "properties": {"z_other": "NEPS_TKM", "z": "UZB", "country_ini_lat": 41.75595468236096, "country_ini_lon": 63.140041180482825, "lat_linestring": 38.81301046478275, "lon_linestring": 63.887055208652804, "c": "UZB", "c2": "AFG"}, "geometry": {"type": "LineString", "coordinates": [[63.140041180482825, 41.75595468236096], [64.63406923682278, 35.87006624720454]]}},
{"type": "Feature", "properties": {"z_other": "NEPS_HERAT", "z": "UZB", "country_ini_lat": 41.75595468236096, "country_ini_lon": 63.140041180482825, "lat_linestring": 37.97583330919488, "lon_linestring": 62.63037564396767, "c": "UZB", "c2": "AFG"}, "geometry": {"type": "LineString", "coordinates": [[63.140041180482825, 41.75595468236096], [62.1207101074525, 34.195711936028815]]}},
{"type": "Feature", "properties": {"z_other": "KGZ_S", "z": "UZB", "country_ini_lat": 41.75595468236096, "country_ini_lon": 63.140041180482825, "lat_linestring": 41.224690930312136, "lon_linestring": 67.76768570549737, "c": "UZB", "c2": "KGZ"}, "geometry": {"type": "LineString", "coordinates": [[63.140041180482825, 41.75595468236096], [72.39533023051192, 40.69342717826331]]}},
{"type": "Feature", "properties": {"z_other": "TAJ_S", "z": "UZB", "country_ini_lat": 41.75595468236096, "country_ini_lon": 63.140041180482825, "lat_linestring": 40.000883631404776, "lon_linestring": 67.27774050595814, "c": "UZB", "c2": "TAJ"}, "geometry": {"type": "LineString", "coordinates": [[63.140041180482825, 41.75595468236096], [71.41543983143345, 38.24581258044859]]}},
{"type": "Feature", "properties": {"z_other": "KGZ_N", "z": "UZB", "country_ini_lat": 41.75595468236096, "country_ini_lon": 63.140041180482825, "lat_linestring": 41.85911110092914, "lon_linestring": 69.53965294565072, "c": "UZB", "c2": "KGZ"}, "geometry": {"type": "LineString", "coordinates": [[63.140041180482825, 41.75595468236096], [75.93926471081859, 41.962267519497324]]}},
{"type": "Feature", "properties": {"z_other": "NEPS_AFG", "z": "UZB", "country_ini_lat": 41.75595468236096, "country_ini_lon": 63.140041180482825, "lat_linestring": 37.32899774176916, "lon_linestring": 65.07968324675255, "c": "UZB", "c2": "AFG"}, "geometry": {"type": "LineString", "coordinates": [[63.140041180482825, 41.75595468236096], [67.01932531302229, 32.90204080117735]]}},
{"type": "Feature", "properties": {"z_other": "PAK_N", "z": "UZB", "country_ini_lat": 41.75595468236096, "country_ini_lon": 63.140041180482825, "lat_linestring": 37.22892137692739, "lon_linestring": 67.84286441420045, "c": "UZB", "c2": "PAK"}, "geometry": {"type": "LineString", "coordinates": [[63.140041180482825, 41.75595468236096], [72.54568764791806, 32.701888071493826]]}},
{"type": "Feature", "properties": {"z_other": "PAK_S", "z": "UZB", "country_ini_lat": 41.75595468236096, "country_ini_lon": 63.140041180482825, "lat_linestring": 34.72487382360557, "lon_linestring": 64.91438854217711, "c": "UZB", "c2": "PAK"}, "geometry": {"type": "LineString", "coordinates": [[63.140041180482825, 41.75595468236096], [66.68873590387139, 27.69379296485018]]}},
{"type": "Feature", "properties": {"z_other": "TUR", "z": "UZB", "country_ini_lat": 41.75595468236096, "country_ini_lon": 63.140041180482825, "lat_linestring": 40.43593449488577, "lon_linestring": 61.25799770121257, "c": "UZB", "c2": "TUR"}, "geometry": {"type": "LineString", "coordinates": [[63.140041180482825, 41.75595468236096], [59.37595422194229, 39.11591430741059]]}},
{"type": "Feature", "properties": {"z_other": "KAZ_S", "z": "UZB", "country_ini_lat": 41.75595468236096, "country_ini_lon": 63.140041180482825, "lat_linestring": 43.192612433807696, "lon_linestring": 66.8725913872162, "c": "UZB", "c2": "KAZ"}, "geometry": {"type": "LineString", "coordinates": [[63.140041180482825, 41.75595468236096], [70.60514159394957, 44.62927018525443]]}},
{"type": "Feature", "properties": {"z_other": "KAZ_N", "z": "UZB", "country_ini_lat": 41.75595468236096, "country_ini_lon": 63.140041180482825, "lat_linestring": 45.81088118281686, "lon_linestring": 66.48500723646337, "c": "UZB", "c2": "KAZ"}, "geometry": {"type": "LineString", "coordinates": [[63.140041180482825, 41.75595468236096], [69.82997329244392, 49.86580768327276]]}},
{"type": "Feature", "properties": {"z_other": "PAK_KAR", "z": "TUR", "country_ini_lat": 39.11591430741059, "country_ini_lon": 59.37595422194229, "lat_linestring": 32.106100352171325, "lon_linestring": 63.30159247776949, "c": "TUR", "c2": "PAK"}, "geometry": {"type": "LineString", "coordinates": [[59.37595422194229, 39.11591430741059], [67.22723073359668, 25.09628639693205]]}},
{"type": "Feature", "properties": {"z_other": "NEPS_TAJ", "z": "TUR", "country_ini_lat": 39.11591430741059, "country_ini_lon": 59.37595422194229, "lat_linestring": 37.93775476290371, "lon_linestring": 64.37452690145324, "c": "TUR", "c2": "AFG"}, "geometry": {"type": "LineString", "coordinates": [[59.37595422194229, 39.11591430741059], [69.3730995809642, 36.75959521839683]]}},
{"type": "Feature", "properties": {"z_other": "TAJ_N", "z": "TUR", "country_ini_lat": 39.11591430741059, "country_ini_lon": 59.37595422194229, "lat_linestring": 39.45976873830525, "lon_linestring": 64.29990459922406, "c": "TUR", "c2": "TAJ"}, "geometry": {"type": "LineString", "coordinates": [[59.37595422194229, 39.11591430741059], [69.22385497650583, 39.80362316919991]]}},
{"type": "Feature", "properties": {"z_other": "NEPS_UZB", "z": "TUR", "country_ini_lat": 39.11591430741059, "country_ini_lon": 59.37595422194229, "lat_linestring": 37.632516200440264, "lon_linestring": 63.1583284871119, "c": "TUR", "c2": "AFG"}, "geometry": {"type": "LineString", "coordinates": [[59.37595422194229, 39.11591430741059], [66.94070275228151, 36.14911809346994]]}},
{"type": "Feature", "properties": {"z_other": "NEPS_TKM", "z": "TUR", "country_ini_lat": 39.11591430741059, "country_ini_lon": 59.37595422194229, "lat_linestring": 37.49299027730757, "lon_linestring": 62.00501172938253, "c": "TUR", "c2": "AFG"}, "geometry": {"type": "LineString", "coordinates": [[59.37595422194229, 39.11591430741059], [64.63406923682278, 35.87006624720454]]}},
{"type": "Feature", "properties": {"z_other": "NEPS_HERAT", "z": "TUR", "country_ini_lat": 39.11591430741059, "country_ini_lon": 59.37595422194229, "lat_linestring": 36.6558131217197, "lon_linestring": 60.74833216469739, "c": "TUR", "c2": "AFG"}, "geometry": {"type": "LineString", "coordinates": [[59.37595422194229, 39.11591430741059], [62.1207101074525, 34.195711936028815]]}},
{"type": "Feature", "properties": {"z_other": "KGZ_S", "z": "TUR", "country_ini_lat": 39.11591430741059, "country_ini_lon": 59.37595422194229, "lat_linestring": 39.904670742836956, "lon_linestring": 65.8856422262271, "c": "TUR", "c2": "KGZ"}, "geometry": {"type": "LineString", "coordinates": [[59.37595422194229, 39.11591430741059], [72.39533023051192, 40.69342717826331]]}},
{"type": "Feature", "properties": {"z_other": "TAJ_S", "z": "TUR", "country_ini_lat": 39.11591430741059, "country_ini_lon": 59.37595422194229, "lat_linestring": 38.680863443929596, "lon_linestring": 65.39569702668787, "c": "TUR", "c2": "TAJ"}, "geometry": {"type": "LineString", "coordinates": [[59.37595422194229, 39.11591430741059], [71.41543983143345, 38.24581258044859]]}},
{"type": "Feature", "properties": {"z_other": "KGZ_N", "z": "TUR", "country_ini_lat": 39.11591430741059, "country_ini_lon": 59.37595422194229, "lat_linestring": 40.53909091345396, "lon_linestring": 67.65760946638044, "c": "TUR", "c2": "KGZ"}, "geometry": {"type": "LineString", "coordinates": [[59.37595422194229, 39.11591430741059], [75.93926471081859, 41.962267519497324]]}},
{"type": "Feature", "properties": {"z_other": "NEPS_AFG", "z": "TUR", "country_ini_lat": 39.11591430741059, "country_ini_lon": 59.37595422194229, "lat_linestring": 36.00897755429397, "lon_linestring": 63.197639767482286, "c": "TUR", "c2": "AFG"}, "geometry": {"type": "LineString", "coordinates": [[59.37595422194229, 39.11591430741059], [67.01932531302229, 32.90204080117735]]}},
{"type": "Feature", "properties": {"z_other": "PAK_N", "z": "TUR", "country_ini_lat": 39.11591430741059, "country_ini_lon": 59.37595422194229, "lat_linestring": 35.90890118945221, "lon_linestring": 65.96082093493017, "c": "TUR", "c2": "PAK"}, "geometry": {"type": "LineString", "coordinates": [[59.37595422194229, 39.11591430741059], [72.54568764791806, 32.701888071493826]]}},
{"type": "Feature", "properties": {"z_other": "PAK_S", "z": "TUR", "country_ini_lat": 39.11591430741059, "country_ini_lon": 59.37595422194229, "lat_linestring": 33.40485363613038, "lon_linestring": 63.03234506290684, "c": "TUR", "c2": "PAK"}, "geometry": {"type": "LineString", "coordinates": [[59.37595422194229, 39.11591430741059], [66.68873590387139, 27.69379296485018]]}},
{"type": "Feature", "properties": {"z_other": "UZB", "z": "TUR", "country_ini_lat": 39.11591430741059, "country_ini_lon": 59.37595422194229, "lat_linestring": 40.43593449488577, "lon_linestring": 61.25799770121257, "c": "TUR", "c2": "UZB"}, "geometry": {"type": "LineString", "coordinates": [[59.37595422194229, 39.11591430741059], [63.140041180482825, 41.75595468236096]]}},
{"type": "Feature", "properties": {"z_other": "KAZ_S", "z": "TUR", "country_ini_lat": 39.11591430741059, "country_ini_lon": 59.37595422194229, "lat_linestring": 41.87259224633251, "lon_linestring": 64.99054790794592, "c": "TUR", "c2": "KAZ"}, "geometry": {"type": "LineString", "coordinates": [[59.37595422194229, 39.11591430741059], [70.60514159394957, 44.62927018525443]]}},
{"type": "Feature", "properties": {"z_other": "KAZ_N", "z": "TUR", "country_ini_lat": 39.11591430741059, "country_ini_lon": 59.37595422194229, "lat_linestring": 44.49086099534168, "lon_linestring": 64.60296375719311, "c": "TUR", "c2": "KAZ"}, "geometry": {"type": "LineString", "coordinates": [[59.37595422194229, 39.11591430741059], [69.82997329244392, 49.86580768327276]]}},
{"type": "Feature", "properties": {"z_other": "PAK_KAR", "z": "KAZ_S", "country_ini_lat": 44.62927018525443, "country_ini_lon": 70.60514159394957, "lat_linestring": 34.862778291093235, "lon_linestring": 68.91618616377312, "c": "KAZ", "c2": "PAK"}, "geometry": {"type": "LineString", "coordinates": [[70.60514159394957, 44.62927018525443], [67.22723073359668, 25.09628639693205]]}},
{"type": "Feature", "properties": {"z_other": "NEPS_TAJ", "z": "KAZ_S", "country_ini_lat": 44.62927018525443, "country_ini_lon": 70.60514159394957, "lat_linestring": 40.69443270182563, "lon_linestring": 69.98912058745688, "c": "KAZ", "c2": "AFG"}, "geometry": {"type": "LineString", "coordinates": [[70.60514159394957, 44.62927018525443], [69.3730995809642, 36.75959521839683]]}},
{"type": "Feature", "properties": {"z_other": "TAJ_N", "z": "KAZ_S", "country_ini_lat": 44.62927018525443, "country_ini_lon": 70.60514159394957, "lat_linestring": 42.21644667722717, "lon_linestring": 69.9144982852277, "c": "KAZ", "c2": "TAJ"}, "geometry": {"type": "LineString", "coordinates": [[70.60514159394957, 44.62927018525443], [69.22385497650583, 39.80362316919991]]}},
{"type": "Feature", "properties": {"z_other": "NEPS_UZB", "z": "KAZ_S", "country_ini_lat": 44.62927018525443, "country_ini_lon": 70.60514159394957, "lat_linestring": 40.38919413936218, "lon_linestring": 68.77292217311555, "c": "KAZ", "c2": "AFG"}, "geometry": {"type": "LineString", "coordinates": [[70.60514159394957, 44.62927018525443], [66.94070275228151, 36.14911809346994]]}},
{"type": "Feature", "properties": {"z_other": "NEPS_TKM", "z": "KAZ_S", "country_ini_lat": 44.62927018525443, "country_ini_lon": 70.60514159394957, "lat_linestring": 40.24966821622948, "lon_linestring": 67.61960541538618, "c": "KAZ", "c2": "AFG"}, "geometry": {"type": "LineString", "coordinates": [[70.60514159394957, 44.62927018525443], [64.63406923682278, 35.87006624720454]]}},
{"type": "Feature", "properties": {"z_other": "NEPS_HERAT", "z": "KAZ_S", "country_ini_lat": 44.62927018525443, "country_ini_lon": 70.60514159394957, "lat_linestring": 39.41249106064162, "lon_linestring": 66.36292585070103, "c": "KAZ", "c2": "AFG"}, "geometry": {"type": "LineString", "coordinates": [[70.60514159394957, 44.62927018525443], [62.1207101074525, 34.195711936028815]]}},
{"type": "Feature", "properties": {"z_other": "KGZ_S", "z": "KAZ_S", "country_ini_lat": 44.62927018525443, "country_ini_lon": 70.60514159394957, "lat_linestring": 42.66134868175887, "lon_linestring": 71.50023591223075, "c": "KAZ", "c2": "KGZ"}, "geometry": {"type": "LineString", "coordinates": [[70.60514159394957, 44.62927018525443], [72.39533023051192, 40.69342717826331]]}},
{"type": "Feature", "properties": {"z_other": "TAJ_S", "z": "KAZ_S", "country_ini_lat": 44.62927018525443, "country_ini_lon": 70.60514159394957, "lat_linestring": 41.43754138285151, "lon_linestring": 71.0102907126915, "c": "KAZ", "c2": "TAJ"}, "geometry": {"type": "LineString", "coordinates": [[70.60514159394957, 44.62927018525443], [71.41543983143345, 38.24581258044859]]}},
{"type": "Feature", "properties": {"z_other": "KGZ_N", "z": "KAZ_S", "country_ini_lat": 44.62927018525443, "country_ini_lon": 70.60514159394957, "lat_linestring": 43.29576885237587, "lon_linestring": 73.27220315238408, "c": "KAZ", "c2": "KGZ"}, "geometry": {"type": "LineString", "coordinates": [[70.60514159394957, 44.62927018525443], [75.93926471081859, 41.962267519497324]]}},
{"type": "Feature", "properties": {"z_other": "NEPS_AFG", "z": "KAZ_S", "country_ini_lat": 44.62927018525443, "country_ini_lon": 70.60514159394957, "lat_linestring": 38.76565549321589, "lon_linestring": 68.81223345348593, "c": "KAZ", "c2": "AFG"}, "geometry": {"type": "LineString", "coordinates": [[70.60514159394957, 44.62927018525443], [67.01932531302229, 32.90204080117735]]}},
{"type": "Feature", "properties": {"z_other": "PAK_N", "z": "KAZ_S", "country_ini_lat": 44.62927018525443, "country_ini_lon": 70.60514159394957, "lat_linestring": 38.66557912837413, "lon_linestring": 71.57541462093381, "c": "KAZ", "c2": "PAK"}, "geometry": {"type": "LineString", "coordinates": [[70.60514159394957, 44.62927018525443], [72.54568764791806, 32.701888071493826]]}},
{"type": "Feature", "properties": {"z_other": "PAK_S", "z": "KAZ_S", "country_ini_lat": 44.62927018525443, "country_ini_lon": 70.60514159394957, "lat_linestring": 36.1615315750523, "lon_linestring": 68.64693874891049, "c": "KAZ", "c2": "PAK"}, "geometry": {"type": "LineString", "coordinates": [[70.60514159394957, 44.62927018525443], [66.68873590387139, 27.69379296485018]]}},
{"type": "Feature", "properties": {"z_other": "UZB", "z": "KAZ_S", "country_ini_lat": 44.62927018525443, "country_ini_lon": 70.60514159394957, "lat_linestring": 43.192612433807696, "lon_linestring": 66.8725913872162, "c": "KAZ", "c2": "UZB"}, "geometry": {"type": "LineString", "coordinates": [[70.60514159394957, 44.62927018525443], [63.140041180482825, 41.75595468236096]]}},
{"type": "Feature", "properties": {"z_other": "TUR", "z": "KAZ_S", "country_ini_lat": 44.62927018525443, "country_ini_lon": 70.60514159394957, "lat_linestring": 41.87259224633251, "lon_linestring": 64.99054790794592, "c": "KAZ", "c2": "TUR"}, "geometry": {"type": "LineString", "coordinates": [[70.60514159394957, 44.62927018525443], [59.37595422194229, 39.11591430741059]]}},
{"type": "Feature", "properties": {"z_other": "KAZ_N", "z": "KAZ_S", "country_ini_lat": 44.62927018525443, "country_ini_lon": 70.60514159394957, "lat_linestring": 47.247538934263595, "lon_linestring": 70.21755744319674, "c": "KAZ", "c2": "KAZ"}, "geometry": {"type": "LineString", "coordinates": [[70.60514159394957, 44.62927018525443], [69.82997329244392, 49.86580768327276]]}},
{"type": "Feature", "properties": {"z_other": "PAK_KAR", "z": "KAZ_N", "country_ini_lat": 49.86580768327276, "country_ini_lon": 69.82997329244392, "lat_linestring": 37.48104704010241, "lon_linestring": 68.5286020130203, "c": "KAZ", "c2": "PAK"}, "geometry": {"type": "LineString", "coordinates": [[69.82997329244392, 49.86580768327276], [67.22723073359668, 25.09628639693205]]}},
{"type": "Feature", "properties": {"z_other": "NEPS_TAJ", "z": "KAZ_N", "country_ini_lat": 49.86580768327276, "country_ini_lon": 69.82997329244392, "lat_linestring": 43.312701450834794, "lon_linestring": 69.60153643670407, "c": "KAZ", "c2": "AFG"}, "geometry": {"type": "LineString", "coordinates": [[69.82997329244392, 49.86580768327276], [69.3730995809642, 36.75959521839683]]}},
{"type": "Feature", "properties": {"z_other": "TAJ_N", "z": "KAZ_N", "country_ini_lat": 49.86580768327276, "country_ini_lon": 69.82997329244392, "lat_linestring": 44.834715426236336, "lon_linestring": 69.52691413447488, "c": "KAZ", "c2": "TAJ"}, "geometry": {"type": "LineString", "coordinates": [[69.82997329244392, 49.86580768327276], [69.22385497650583, 39.80362316919991]]}},
{"type": "Feature", "properties": {"z_other": "NEPS_UZB", "z": "KAZ_N", "country_ini_lat": 49.86580768327276, "country_ini_lon": 69.82997329244392, "lat_linestring": 43.00746288837135, "lon_linestring": 68.38533802236272, "c": "KAZ", "c2": "AFG"}, "geometry": {"type": "LineString", "coordinates": [[69.82997329244392, 49.86580768327276], [66.94070275228151, 36.14911809346994]]}},
{"type": "Feature", "properties": {"z_other": "NEPS_TKM", "z": "KAZ_N", "country_ini_lat": 49.86580768327276, "country_ini_lon": 69.82997329244392, "lat_linestring": 42.867936965238655, "lon_linestring": 67.23202126463335, "c": "KAZ", "c2": "AFG"}, "geometry": {"type": "LineString", "coordinates": [[69.82997329244392, 49.86580768327276], [64.63406923682278, 35.87006624720454]]}},
{"type": "Feature", "properties": {"z_other": "NEPS_HERAT", "z": "KAZ_N", "country_ini_lat": 49.86580768327276, "country_ini_lon": 69.82997329244392, "lat_linestring": 42.03075980965079, "lon_linestring": 65.97534169994822, "c": "KAZ", "c2": "AFG"}, "geometry": {"type": "LineString", "coordinates": [[69.82997329244392, 49.86580768327276], [62.1207101074525, 34.195711936028815]]}},
{"type": "Feature", "properties": {"z_other": "KGZ_S", "z": "KAZ_N", "country_ini_lat": 49.86580768327276, "country_ini_lon": 69.82997329244392, "lat_linestring": 45.27961743076804, "lon_linestring": 71.11265176147792, "c": "KAZ", "c2": "KGZ"}, "geometry": {"type": "LineString", "coordinates": [[69.82997329244392, 49.86580768327276], [72.39533023051192, 40.69342717826331]]}},
{"type": "Feature", "properties": {"z_other": "TAJ_S", "z": "KAZ_N", "country_ini_lat": 49.86580768327276, "country_ini_lon": 69.82997329244392, "lat_linestring": 44.05581013186068, "lon_linestring": 70.62270656193868, "c": "KAZ", "c2": "TAJ"}, "geometry": {"type": "LineString", "coordinates": [[69.82997329244392, 49.86580768327276], [71.41543983143345, 38.24581258044859]]}},
{"type": "Feature", "properties": {"z_other": "KGZ_N", "z": "KAZ_N", "country_ini_lat": 49.86580768327276, "country_ini_lon": 69.82997329244392, "lat_linestring": 45.91403760138505, "lon_linestring": 72.88461900163125, "c": "KAZ", "c2": "KGZ"}, "geometry": {"type": "LineString", "coordinates": [[69.82997329244392, 49.86580768327276], [75.93926471081859, 41.962267519497324]]}},
{"type": "Feature", "properties": {"z_other": "NEPS_AFG", "z": "KAZ_N", "country_ini_lat": 49.86580768327276, "country_ini_lon": 69.82997329244392, "lat_linestring": 41.383924242225056, "lon_linestring": 68.42464930273312, "c": "KAZ", "c2": "AFG"}, "geometry": {"type": "LineString", "coordinates": [[69.82997329244392, 49.86580768327276], [67.01932531302229, 32.90204080117735]]}},
{"type": "Feature", "properties": {"z_other": "PAK_N", "z": "KAZ_N", "country_ini_lat": 49.86580768327276, "country_ini_lon": 69.82997329244392, "lat_linestring": 41.283847877383295, "lon_linestring": 71.18783047018098, "c": "KAZ", "c2": "PAK"}, "geometry": {"type": "LineString", "coordinates": [[69.82997329244392, 49.86580768327276], [72.54568764791806, 32.701888071493826]]}},
{"type": "Feature", "properties": {"z_other": "PAK_S", "z": "KAZ_N", "country_ini_lat": 49.86580768327276, "country_ini_lon": 69.82997329244392, "lat_linestring": 38.77980032406147, "lon_linestring": 68.25935459815766, "c": "KAZ", "c2": "PAK"}, "geometry": {"type": "LineString", "coordinates": [[69.82997329244392, 49.86580768327276], [66.68873590387139, 27.69379296485018]]}},
{"type": "Feature", "properties": {"z_other": "UZB", "z": "KAZ_N", "country_ini_lat": 49.86580768327276, "country_ini_lon": 69.82997329244392, "lat_linestring": 45.81088118281686, "lon_linestring": 66.48500723646337, "c": "KAZ", "c2": "UZB"}, "geometry": {"type": "LineString", "coordinates": [[69.82997329244392, 49.86580768327276], [63.140041180482825, 41.75595468236096]]}},
{"type": "Feature", "properties": {"z_other": "TUR", "z": "KAZ_N", "country_ini_lat": 49.86580768327276, "country_ini_lon": 69.82997329244392, "lat_linestring": 44.49086099534168, "lon_linestring": 64.60296375719311, "c": "KAZ", "c2": "TUR"}, "geometry": {"type": "LineString", "coordinates": [[69.82997329244392, 49.86580768327276], [59.37595422194229, 39.11591430741059]]}},
{"type": "Feature", "properties": {"z_other": "KAZ_S", "z": "KAZ_N", "country_ini_lat": 49.86580768327276, "country_ini_lon": 69.82997329244392, "lat_linestring": 47.247538934263595, "lon_linestring": 70.21755744319674, "c": "KAZ", "c2": "KAZ"}, "geometry": {"type": "LineString", "coordinates": [[69.82997329244392, 49.86580768327276], [70.60514159394957, 44.62927018525443]]}}
]
}
