{
"type": "FeatureCollection",
"name": "linestring_countries",
"crs": {"type": "name", "properties": {"name": "urn:ogc:def:crs:OGC:1.3:CRS84"}},
"epm_source": {"generator": "epm/postprocessing/create_geojson.py", "generated_at": "2026-08-19T15:53:43+00:00", "zones": ["DRC", "DRC_South", "Zimbabwe"], "inputs": {"zcmap": {"path": "epm/input/data_zim/zcmap.csv", "sha256": "9730ca4eb6f4feb8ce5dacb4ef5c2f6517a7c3b1c64ca02d7a7bb708f8748d11"}, "geojson_to_epm": {"path": "epm/input/data_zim/geojson_to_epm.csv", "sha256": "a9c69757ceb9ba720396dae8e603eefcf25146a7116074a71255b23cd71cb11f"}, "zone_map": {"path": "epm/resources/postprocess/zones.geojson", "sha256": "73bc09138ba12d6790152df6bd504c9b7e0e10328aeea045138f762089f07b6b"}, "zones_custom": {"path": "epm/resources/postprocess/zones_custom.geojson", "sha256": "9464d31496d7829ef7fc09fbf13c70e6ed1bd4dcaf9918f8e2c43b2a92e76ef8"}}},
"features": [
{"type": "Feature", "properties": {"z_other": "DRC", "z": "Zimbabwe", "country_ini_lat": -19.002536710001916, "country_ini_lon": 29.851884620576776, "lat_linestring": -9.359092170121645, "lon_linestring": 26.786445877470157, "c": "Zimbabwe", "c2": null}, "geometry": {"type": "LineString", "coordinates": [[29.851884620576776, -19.002536710001916], [23.721007134363532, 0.284352369758625]]}},
{"type": "Feature", "properties": {"z_other": "DRC_South", "z": "Zimbabwe", "country_ini_lat": -19.002536710001916, "country_ini_lon": 29.851884620576776, "lat_linestring": -13.077364211109002, "lon_linestring": 26.69726166134442, "c": "Zimbabwe", "c2": null}, "geometry": {"type": "LineString", "coordinates": [[29.851884620576776, -19.002536710001916], [23.54263870211206, -7.152191712216087]]}},
{"type": "Feature", "properties": {"z_other": "Zimbabwe", "z": "DRC", "country_ini_lat": 0.28435236975862466, "country_ini_lon": 23.721007134363532, "lat_linestring": -9.359092170121645, "lon_linestring": 26.786445877470157, "c": null, "c2": "Zimbabwe"}, "geometry": {"type": "LineString", "coordinates": [[23.721007134363532, 0.284352369758625], [29.851884620576776, -19.002536710001916]]}},
{"type": "Feature", "properties": {"z_other": "DRC_South", "z": "DRC", "country_ini_lat": 0.28435236975862466, "country_ini_lon": 23.721007134363532, "lat_linestring": -3.433919671228731, "lon_linestring": 23.631822918237795, "c": null, "c2": null}, "geometry": {"type": "LineString", "coordinates": [[23.721007134363532, 0.284352369758625], [23.54263870211206, -7.152191712216087]]}},
{"type": "Feature", "properties": {"z_other": "Zimbabwe", "z": "DRC_South", "country_ini_lat": -7.152191712216087, "country_ini_lon": 23.54263870211206, "lat_linestring": -13.077364211109002, "lon_linestring": 26.69726166134442, "c": null, "c2": "Zimbabwe"}, "geometry": {"type": "LineString", "coordinates": [[23.54263870211206, -7.152191712216087], [29.851884620576776, -19.002536710001916]]}},
{"type": "Feature", "properties": {"z_other": "DRC", "z": "DRC_South", "country_ini_lat": -7.152191712216087, "country_ini_lon": 23.54263870211206, "lat_linestring": -3.433919671228731, "lon_linestring": 23.631822918237795, "c": null, "c2": null}, "geometry": {"type": "LineString", "coordinates": [[23.54263870211206, -7.152191712216087], [23.721007134363532, 0.284352369758625]]}}
]
}
