{
"type": "FeatureCollection",
"name": "linestring_zcmap",
"crs": { "type": "name", "properties": { "name": "urn:ogc:def:crs:OGC:1.3:CRS84" } },
"features": [
{ "type": "Feature", "properties": { "z_other": "NEPS_TAJ", "z": "PAK_KAR", "country_ini_lat": 25.032065274143068, "country_ini_lon": 67.205944663298965, "lat_linestring": 30.895627710596678, "lon_linestring": 68.284139154594314, "c": "PAK", "c2": "AFG" }, "geometry": { "type": "LineString", "coordinates": [ [ 67.205944663298965, 25.032065274143068 ], [ 69.362333645889663, 36.75919014705029 ] ] } },
{ "type": "Feature", "properties": { "z_other": "TAJ_N", "z": "PAK_KAR", "country_ini_lat": 25.032065274143068, "country_ini_lon": 67.205944663298965, "lat_linestring": 32.412875942272521, "lon_linestring": 68.214987389705399, "c": "PAK", "c2": "TAJ" }, "geometry": { "type": "LineString", "coordinates": [ [ 67.205944663298965, 25.032065274143068 ], [ 69.224030116111834, 39.79368661040197 ] ] } },
{ "type": "Feature", "properties": { "z_other": "NEPS_UZB", "z": "PAK_KAR", "country_ini_lat": 25.032065274143068, "country_ini_lon": 67.205944663298965, "lat_linestring": 30.587858634805233, "lon_linestring": 67.070451816509888, "c": "PAK", "c2": "AFG" }, "geometry": { "type": "LineString", "coordinates": [ [ 67.205944663298965, 25.032065274143068 ], [ 66.934958969720796, 36.143651995467387 ] ] } },
{ "type": "Feature", "properties": { "z_other": "NEPS_TKM", "z": "PAK_KAR", "country_ini_lat": 25.032065274143068, "country_ini_lon": 67.205944663298965, "lat_linestring": 30.451968367930654, "lon_linestring": 65.922425382758291, "c": "PAK", "c2": "AFG" }, "geometry": { "type": "LineString", "coordinates": [ [ 67.205944663298965, 25.032065274143068 ], [ 64.638906102217604, 35.871871461718243 ] ] } },
{ "type": "Feature", "properties": { "z_other": "NEPS_HERAT", "z": "PAK_KAR", "country_ini_lat": 25.032065274143068, "country_ini_lon": 67.205944663298965, "lat_linestring": 29.610980406553789, "lon_linestring": 64.666602924664545, "c": "PAK", "c2": "AFG" }, "geometry": { "type": "LineString", "coordinates": [ [ 67.205944663298965, 25.032065274143068 ], [ 62.12726118603014, 34.189895538964507 ] ] } },
{ "type": "Feature", "properties": { "z_other": "KGZ_S", "z": "PAK_KAR", "country_ini_lat": 25.032065274143068, "country_ini_lon": 67.205944663298965, "lat_linestring": 32.864299789231829, "lon_linestring": 69.804965324863488, "c": "PAK", "c2": "KGZ" }, "geometry": { "type": "LineString", "coordinates": [ [ 67.205944663298965, 25.032065274143068 ], [ 72.403985986428012, 40.696534304320586 ] ] } },
{ "type": "Feature", "properties": { "z_other": "TAJ_S", "z": "PAK_KAR", "country_ini_lat": 25.032065274143068, "country_ini_lon": 67.205944663298965, "lat_linestring": 31.637537115454194, "lon_linestring": 69.314780623783136, "c": "PAK", "c2": "TAJ" }, "geometry": { "type": "LineString", "coordinates": [ [ 67.205944663298965, 25.032065274143068 ], [ 71.423616584267307, 38.243008956765316 ] ] } },
{ "type": "Feature", "properties": { "z_other": "KGZ_N", "z": "PAK_KAR", "country_ini_lat": 25.032065274143068, "country_ini_lon": 67.205944663298965, "lat_linestring": 33.498254213990158, "lon_linestring": 71.575791283003511, "c": "PAK", "c2": "KGZ" }, "geometry": { "type": "LineString", "coordinates": [ [ 67.205944663298965, 25.032065274143068 ], [ 75.945637902708057, 41.964443153837244 ] ] } },
{ "type": "Feature", "properties": { "z_other": "NEPS_AFG", "z": "PAK_KAR", "country_ini_lat": 25.032065274143068, "country_ini_lon": 67.205944663298965, "lat_linestring": 28.970899088717296, "lon_linestring": 67.118482394836406, "c": "PAK", "c2": "AFG" }, "geometry": { "type": "LineString", "coordinates": [ [ 67.205944663298965, 25.032065274143068 ], [ 67.031020126373861, 32.90973290329152 ] ] } },
{ "type": "Feature", "properties": { "z_other": "PAK_N", "z": "PAK_KAR", "country_ini_lat": 25.032065274143068, "country_ini_lon": 67.205944663298965, "lat_linestring": 28.868359385702728, "lon_linestring": 69.8753263446755, "c": "PAK", "c2": "PAK" }, "geometry": { "type": "LineString", "coordinates": [ [ 67.205944663298965, 25.032065274143068 ], [ 72.544708026052035, 32.704653497262385 ] ] } },
{ "type": "Feature", "properties": { "z_other": "PAK_S", "z": "PAK_KAR", "country_ini_lat": 25.032065274143068, "country_ini_lon": 67.205944663298965, "lat_linestring": 26.358665695228808, "lon_linestring": 66.946316589173719, "c": "PAK", "c2": "PAK" }, "geometry": { "type": "LineString", "coordinates": [ [ 67.205944663298965, 25.032065274143068 ], [ 66.686688515048473, 27.685266116314544 ] ] } },
{ "type": "Feature", "properties": { "z_other": "UZB", "z": "PAK_KAR", "country_ini_lat": 25.032065274143068, "country_ini_lon": 67.205944663298965, "lat_linestring": 33.393681249589797, "lon_linestring": 65.173136098902674, "c": "PAK", "c2": "UZB" }, "geometry": { "type": "LineString", "coordinates": [ [ 67.205944663298965, 25.032065274143068 ], [ 63.14032753450639, 41.755297225036529 ] ] } },
{ "type": "Feature", "properties": { "z_other": "TUR", "z": "PAK_KAR", "country_ini_lat": 25.032065274143068, "country_ini_lon": 67.205944663298965, "lat_linestring": 32.074087229991761, "lon_linestring": 63.290799909339469, "c": "PAK", "c2": "TUR" }, "geometry": { "type": "LineString", "coordinates": [ [ 67.205944663298965, 25.032065274143068 ], [ 59.375655155379974, 39.11610918584045 ] ] } },
{ "type": "Feature", "properties": { "z_other": "KAZ_S", "z": "PAK_KAR", "country_ini_lat": 25.032065274143068, "country_ini_lon": 67.205944663298965, "lat_linestring": 34.817600138009873, "lon_linestring": 68.955961929257342, "c": "PAK", "c2": "KAZ" }, "geometry": { "type": "LineString", "coordinates": [ [ 67.205944663298965, 25.032065274143068 ], [ 70.705979195215704, 44.60313500187668 ] ] } },
{ "type": "Feature", "properties": { "z_other": "KAZ_N", "z": "PAK_KAR", "country_ini_lat": 25.032065274143068, "country_ini_lon": 67.205944663298965, "lat_linestring": 37.442763296441782, "lon_linestring": 68.511273277645813, "c": "PAK", "c2": "KAZ" }, "geometry": { "type": "LineString", "coordinates": [ [ 67.205944663298965, 25.032065274143068 ], [ 69.816601891992661, 49.8534613187405 ] ] } },
{ "type": "Feature", "properties": { "z_other": "PAK_KAR", "z": "NEPS_TAJ", "country_ini_lat": 36.75919014705029, "country_ini_lon": 69.362333645889663, "lat_linestring": 30.895627710596678, "lon_linestring": 68.284139154594314, "c": "AFG", "c2": "PAK" }, "geometry": { "type": "LineString", "coordinates": [ [ 69.362333645889663, 36.75919014705029 ], [ 67.205944663298965, 25.032065274143068 ] ] } },
{ "type": "Feature", "properties": { "z_other": "TAJ_N", "z": "NEPS_TAJ", "country_ini_lat": 36.75919014705029, "country_ini_lon": 69.362333645889663, "lat_linestring": 38.276438378726127, "lon_linestring": 69.293181881000748, "c": "AFG", "c2": "TAJ" }, "geometry": { "type": "LineString", "coordinates": [ [ 69.362333645889663, 36.75919014705029 ], [ 69.224030116111834, 39.79368661040197 ] ] } },
{ "type": "Feature", "properties": { "z_other": "NEPS_UZB", "z": "NEPS_TAJ", "country_ini_lat": 36.75919014705029, "country_ini_lon": 69.362333645889663, "lat_linestring": 36.451421071258835, "lon_linestring": 68.148646307805222, "c": "AFG", "c2": "AFG" }, "geometry": { "type": "LineString", "coordinates": [ [ 69.362333645889663, 36.75919014705029 ], [ 66.934958969720796, 36.143651995467387 ] ] } },
{ "type": "Feature", "properties": { "z_other": "NEPS_TKM", "z": "NEPS_TAJ", "country_ini_lat": 36.75919014705029, "country_ini_lon": 69.362333645889663, "lat_linestring": 36.315530804384267, "lon_linestring": 67.000619874053626, "c": "AFG", "c2": "AFG" }, "geometry": { "type": "LineString", "coordinates": [ [ 69.362333645889663, 36.75919014705029 ], [ 64.638906102217604, 35.871871461718243 ] ] } },
{ "type": "Feature", "properties": { "z_other": "NEPS_HERAT", "z": "NEPS_TAJ", "country_ini_lat": 36.75919014705029, "country_ini_lon": 69.362333645889663, "lat_linestring": 35.474542843007399, "lon_linestring": 65.744797415959908, "c": "AFG", "c2": "AFG" }, "geometry": { "type": "LineString", "coordinates": [ [ 69.362333645889663, 36.75919014705029 ], [ 62.12726118603014, 34.189895538964507 ] ] } },
{ "type": "Feature", "properties": { "z_other": "KGZ_S", "z": "NEPS_TAJ", "country_ini_lat": 36.75919014705029, "country_ini_lon": 69.362333645889663, "lat_linestring": 38.727862225685442, "lon_linestring": 70.883159816158837, "c": "AFG", "c2": "KGZ" }, "geometry": { "type": "LineString", "coordinates": [ [ 69.362333645889663, 36.75919014705029 ], [ 72.403985986428012, 40.696534304320586 ] ] } },
{ "type": "Feature", "properties": { "z_other": "TAJ_S", "z": "NEPS_TAJ", "country_ini_lat": 36.75919014705029, "country_ini_lon": 69.362333645889663, "lat_linestring": 37.501099551907799, "lon_linestring": 70.392975115078485, "c": "AFG", "c2": "TAJ" }, "geometry": { "type": "LineString", "coordinates": [ [ 69.362333645889663, 36.75919014705029 ], [ 71.423616584267307, 38.243008956765316 ] ] } },
{ "type": "Feature", "properties": { "z_other": "KGZ_N", "z": "NEPS_TAJ", "country_ini_lat": 36.75919014705029, "country_ini_lon": 69.362333645889663, "lat_linestring": 39.361816650443771, "lon_linestring": 72.65398577429886, "c": "AFG", "c2": "KGZ" }, "geometry": { "type": "LineString", "coordinates": [ [ 69.362333645889663, 36.75919014705029 ], [ 75.945637902708057, 41.964443153837244 ] ] } },
{ "type": "Feature", "properties": { "z_other": "NEPS_AFG", "z": "NEPS_TAJ", "country_ini_lat": 36.75919014705029, "country_ini_lon": 69.362333645889663, "lat_linestring": 34.834461525170909, "lon_linestring": 68.196676886131769, "c": "AFG", "c2": "AFG" }, "geometry": { "type": "LineString", "coordinates": [ [ 69.362333645889663, 36.75919014705029 ], [ 67.031020126373861, 32.90973290329152 ] ] } },
{ "type": "Feature", "properties": { "z_other": "PAK_N", "z": "NEPS_TAJ", "country_ini_lat": 36.75919014705029, "country_ini_lon": 69.362333645889663, "lat_linestring": 34.731921822156337, "lon_linestring": 70.953520835970849, "c": "AFG", "c2": "PAK" }, "geometry": { "type": "LineString", "coordinates": [ [ 69.362333645889663, 36.75919014705029 ], [ 72.544708026052035, 32.704653497262385 ] ] } },
{ "type": "Feature", "properties": { "z_other": "PAK_S", "z": "NEPS_TAJ", "country_ini_lat": 36.75919014705029, "country_ini_lon": 69.362333645889663, "lat_linestring": 32.222228131682414, "lon_linestring": 68.024511080469068, "c": "AFG", "c2": "PAK" }, "geometry": { "type": "LineString", "coordinates": [ [ 69.362333645889663, 36.75919014705029 ], [ 66.686688515048473, 27.685266116314544 ] ] } },
{ "type": "Feature", "properties": { "z_other": "UZB", "z": "NEPS_TAJ", "country_ini_lat": 36.75919014705029, "country_ini_lon": 69.362333645889663, "lat_linestring": 39.25724368604341, "lon_linestring": 66.251330590198023, "c": "AFG", "c2": "UZB" }, "geometry": { "type": "LineString", "coordinates": [ [ 69.362333645889663, 36.75919014705029 ], [ 63.14032753450639, 41.755297225036529 ] ] } },
{ "type": "Feature", "properties": { "z_other": "TUR", "z": "NEPS_TAJ", "country_ini_lat": 36.75919014705029, "country_ini_lon": 69.362333645889663, "lat_linestring": 37.937649666445367, "lon_linestring": 64.368994400634818, "c": "AFG", "c2": "TUR" }, "geometry": { "type": "LineString", "coordinates": [ [ 69.362333645889663, 36.75919014705029 ], [ 59.375655155379974, 39.11610918584045 ] ] } },
{ "type": "Feature", "properties": { "z_other": "KAZ_S", "z": "NEPS_TAJ", "country_ini_lat": 36.75919014705029, "country_ini_lon": 69.362333645889663, "lat_linestring": 40.681162574463485, "lon_linestring": 70.034156420552677, "c": "AFG", "c2": "KAZ" }, "geometry": { "type": "LineString", "coordinates": [ [ 69.362333645889663, 36.75919014705029 ], [ 70.705979195215704, 44.60313500187668 ] ] } },
{ "type": "Feature", "properties": { "z_other": "KAZ_N", "z": "NEPS_TAJ", "country_ini_lat": 36.75919014705029, "country_ini_lon": 69.362333645889663, "lat_linestring": 43.306325732895395, "lon_linestring": 69.589467768941162, "c": "AFG", "c2": "KAZ" }, "geometry": { "type": "LineString", "coordinates": [ [ 69.362333645889663, 36.75919014705029 ], [ 69.816601891992661, 49.8534613187405 ] ] } },
{ "type": "Feature", "properties": { "z_other": "PAK_KAR", "z": "TAJ_N", "country_ini_lat": 39.79368661040197, "country_ini_lon": 69.224030116111834, "lat_linestring": 32.412875942272521, "lon_linestring": 68.214987389705399, "c": "TAJ", "c2": "PAK" }, "geometry": { "type": "LineString", "coordinates": [ [ 69.224030116111834, 39.79368661040197 ], [ 67.205944663298965, 25.032065274143068 ] ] } },
{ "type": "Feature", "properties": { "z_other": "NEPS_TAJ", "z": "TAJ_N", "country_ini_lat": 39.79368661040197, "country_ini_lon": 69.224030116111834, "lat_linestring": 38.276438378726127, "lon_linestring": 69.293181881000748, "c": "TAJ", "c2": "AFG" }, "geometry": { "type": "LineString", "coordinates": [ [ 69.224030116111834, 39.79368661040197 ], [ 69.362333645889663, 36.75919014705029 ] ] } },
{ "type": "Feature", "properties": { "z_other": "NEPS_UZB", "z": "TAJ_N", "country_ini_lat": 39.79368661040197, "country_ini_lon": 69.224030116111834, "lat_linestring": 37.968669302934678, "lon_linestring": 68.079494542916308, "c": "TAJ", "c2": "AFG" }, "geometry": { "type": "LineString", "coordinates": [ [ 69.224030116111834, 39.79368661040197 ], [ 66.934958969720796, 36.143651995467387 ] ] } },
{ "type": "Feature", "properties": { "z_other": "NEPS_TKM", "z": "TAJ_N", "country_ini_lat": 39.79368661040197, "country_ini_lon": 69.224030116111834, "lat_linestring": 37.832779036060103, "lon_linestring": 66.931468109164712, "c": "TAJ", "c2": "AFG" }, "geometry": { "type": "LineString", "coordinates": [ [ 69.224030116111834, 39.79368661040197 ], [ 64.638906102217604, 35.871871461718243 ] ] } },
{ "type": "Feature", "properties": { "z_other": "NEPS_HERAT", "z": "TAJ_N", "country_ini_lat": 39.79368661040197, "country_ini_lon": 69.224030116111834, "lat_linestring": 36.991791074683235, "lon_linestring": 65.675645651070994, "c": "TAJ", "c2": "AFG" }, "geometry": { "type": "LineString", "coordinates": [ [ 69.224030116111834, 39.79368661040197 ], [ 62.12726118603014, 34.189895538964507 ] ] } },
{ "type": "Feature", "properties": { "z_other": "KGZ_S", "z": "TAJ_N", "country_ini_lat": 39.79368661040197, "country_ini_lon": 69.224030116111834, "lat_linestring": 40.245110457361278, "lon_linestring": 70.814008051269923, "c": "TAJ", "c2": "KGZ" }, "geometry": { "type": "LineString", "coordinates": [ [ 69.224030116111834, 39.79368661040197 ], [ 72.403985986428012, 40.696534304320586 ] ] } },
{ "type": "Feature", "properties": { "z_other": "TAJ_S", "z": "TAJ_N", "country_ini_lat": 39.79368661040197, "country_ini_lon": 69.224030116111834, "lat_linestring": 39.018347783583643, "lon_linestring": 70.323823350189571, "c": "TAJ", "c2": "TAJ" }, "geometry": { "type": "LineString", "coordinates": [ [ 69.224030116111834, 39.79368661040197 ], [ 71.423616584267307, 38.243008956765316 ] ] } },
{ "type": "Feature", "properties": { "z_other": "KGZ_N", "z": "TAJ_N", "country_ini_lat": 39.79368661040197, "country_ini_lon": 69.224030116111834, "lat_linestring": 40.879064882119607, "lon_linestring": 72.584834009409946, "c": "TAJ", "c2": "KGZ" }, "geometry": { "type": "LineString", "coordinates": [ [ 69.224030116111834, 39.79368661040197 ], [ 75.945637902708057, 41.964443153837244 ] ] } },
{ "type": "Feature", "properties": { "z_other": "NEPS_AFG", "z": "TAJ_N", "country_ini_lat": 39.79368661040197, "country_ini_lon": 69.224030116111834, "lat_linestring": 36.351709756846752, "lon_linestring": 68.127525121242854, "c": "TAJ", "c2": "AFG" }, "geometry": { "type": "LineString", "coordinates": [ [ 69.224030116111834, 39.79368661040197 ], [ 67.031020126373861, 32.90973290329152 ] ] } },
{ "type": "Feature", "properties": { "z_other": "PAK_N", "z": "TAJ_N", "country_ini_lat": 39.79368661040197, "country_ini_lon": 69.224030116111834, "lat_linestring": 36.249170053832174, "lon_linestring": 70.884369071081935, "c": "TAJ", "c2": "PAK" }, "geometry": { "type": "LineString", "coordinates": [ [ 69.224030116111834, 39.79368661040197 ], [ 72.544708026052035, 32.704653497262385 ] ] } },
{ "type": "Feature", "properties": { "z_other": "PAK_S", "z": "TAJ_N", "country_ini_lat": 39.79368661040197, "country_ini_lon": 69.224030116111834, "lat_linestring": 33.739476363358257, "lon_linestring": 67.955359315580154, "c": "TAJ", "c2": "PAK" }, "geometry": { "type": "LineString", "coordinates": [ [ 69.224030116111834, 39.79368661040197 ], [ 66.686688515048473, 27.685266116314544 ] ] } },
{ "type": "Feature", "properties": { "z_other": "UZB", "z": "TAJ_N", "country_ini_lat": 39.79368661040197, "country_ini_lon": 69.224030116111834, "lat_linestring": 40.774491917719246, "lon_linestring": 66.182178825309109, "c": "TAJ", "c2": "UZB" }, "geometry": { "type": "LineString", "coordinates": [ [ 69.224030116111834, 39.79368661040197 ], [ 63.14032753450639, 41.755297225036529 ] ] } },
{ "type": "Feature", "properties": { "z_other": "TUR", "z": "TAJ_N", "country_ini_lat": 39.79368661040197, "country_ini_lon": 69.224030116111834, "lat_linestring": 39.45489789812121, "lon_linestring": 64.299842635745904, "c": "TAJ", "c2": "TUR" }, "geometry": { "type": "LineString", "coordinates": [ [ 69.224030116111834, 39.79368661040197 ], [ 59.375655155379974, 39.11610918584045 ] ] } },
{ "type": "Feature", "properties": { "z_other": "KAZ_S", "z": "TAJ_N", "country_ini_lat": 39.79368661040197, "country_ini_lon": 69.224030116111834, "lat_linestring": 42.198410806139321, "lon_linestring": 69.965004655663762, "c": "TAJ", "c2": "KAZ" }, "geometry": { "type": "LineString", "coordinates": [ [ 69.224030116111834, 39.79368661040197 ], [ 70.705979195215704, 44.60313500187668 ] ] } },
{ "type": "Feature", "properties": { "z_other": "KAZ_N", "z": "TAJ_N", "country_ini_lat": 39.79368661040197, "country_ini_lon": 69.224030116111834, "lat_linestring": 44.823573964571239, "lon_linestring": 69.520316004052248, "c": "TAJ", "c2": "KAZ" }, "geometry": { "type": "LineString", "coordinates": [ [ 69.224030116111834, 39.79368661040197 ], [ 69.816601891992661, 49.8534613187405 ] ] } },
{ "type": "Feature", "properties": { "z_other": "PAK_KAR", "z": "NEPS_UZB", "country_ini_lat": 36.143651995467387, "country_ini_lon": 66.934958969720796, "lat_linestring": 30.587858634805233, "lon_linestring": 67.070451816509888, "c": "AFG", "c2": "PAK" }, "geometry": { "type": "LineString", "coordinates": [ [ 66.934958969720796, 36.143651995467387 ], [ 67.205944663298965, 25.032065274143068 ] ] } },
{ "type": "Feature", "properties": { "z_other": "NEPS_TAJ", "z": "NEPS_UZB", "country_ini_lat": 36.143651995467387, "country_ini_lon": 66.934958969720796, "lat_linestring": 36.451421071258835, "lon_linestring": 68.148646307805222, "c": "AFG", "c2": "AFG" }, "geometry": { "type": "LineString", "coordinates": [ [ 66.934958969720796, 36.143651995467387 ], [ 69.362333645889663, 36.75919014705029 ] ] } },
{ "type": "Feature", "properties": { "z_other": "TAJ_N", "z": "NEPS_UZB", "country_ini_lat": 36.143651995467387, "country_ini_lon": 66.934958969720796, "lat_linestring": 37.968669302934678, "lon_linestring": 68.079494542916308, "c": "AFG", "c2": "TAJ" }, "geometry": { "type": "LineString", "coordinates": [ [ 66.934958969720796, 36.143651995467387 ], [ 69.224030116111834, 39.79368661040197 ] ] } },
{ "type": "Feature", "properties": { "z_other": "NEPS_TKM", "z": "NEPS_UZB", "country_ini_lat": 36.143651995467387, "country_ini_lon": 66.934958969720796, "lat_linestring": 36.007761728592811, "lon_linestring": 65.7869325359692, "c": "AFG", "c2": "AFG" }, "geometry": { "type": "LineString", "coordinates": [ [ 66.934958969720796, 36.143651995467387 ], [ 64.638906102217604, 35.871871461718243 ] ] } },
{ "type": "Feature", "properties": { "z_other": "NEPS_HERAT", "z": "NEPS_UZB", "country_ini_lat": 36.143651995467387, "country_ini_lon": 66.934958969720796, "lat_linestring": 35.166773767215943, "lon_linestring": 64.531110077875468, "c": "AFG", "c2": "AFG" }, "geometry": { "type": "LineString", "coordinates": [ [ 66.934958969720796, 36.143651995467387 ], [ 62.12726118603014, 34.189895538964507 ] ] } },
{ "type": "Feature", "properties": { "z_other": "KGZ_S", "z": "NEPS_UZB", "country_ini_lat": 36.143651995467387, "country_ini_lon": 66.934958969720796, "lat_linestring": 38.420093149893987, "lon_linestring": 69.669472478074397, "c": "AFG", "c2": "KGZ" }, "geometry": { "type": "LineString", "coordinates": [ [ 66.934958969720796, 36.143651995467387 ], [ 72.403985986428012, 40.696534304320586 ] ] } },
{ "type": "Feature", "properties": { "z_other": "TAJ_S", "z": "NEPS_UZB", "country_ini_lat": 36.143651995467387, "country_ini_lon": 66.934958969720796, "lat_linestring": 37.193330476116351, "lon_linestring": 69.179287776994045, "c": "AFG", "c2": "TAJ" }, "geometry": { "type": "LineString", "coordinates": [ [ 66.934958969720796, 36.143651995467387 ], [ 71.423616584267307, 38.243008956765316 ] ] } },
{ "type": "Feature", "properties": { "z_other": "KGZ_N", "z": "NEPS_UZB", "country_ini_lat": 36.143651995467387, "country_ini_lon": 66.934958969720796, "lat_linestring": 39.054047574652316, "lon_linestring": 71.44029843621442, "c": "AFG", "c2": "KGZ" }, "geometry": { "type": "LineString", "coordinates": [ [ 66.934958969720796, 36.143651995467387 ], [ 75.945637902708057, 41.964443153837244 ] ] } },
{ "type": "Feature", "properties": { "z_other": "NEPS_AFG", "z": "NEPS_UZB", "country_ini_lat": 36.143651995467387, "country_ini_lon": 66.934958969720796, "lat_linestring": 34.526692449379453, "lon_linestring": 66.982989548047328, "c": "AFG", "c2": "AFG" }, "geometry": { "type": "LineString", "coordinates": [ [ 66.934958969720796, 36.143651995467387 ], [ 67.031020126373861, 32.90973290329152 ] ] } },
{ "type": "Feature", "properties": { "z_other": "PAK_N", "z": "NEPS_UZB", "country_ini_lat": 36.143651995467387, "country_ini_lon": 66.934958969720796, "lat_linestring": 34.424152746364882, "lon_linestring": 69.739833497886423, "c": "AFG", "c2": "PAK" }, "geometry": { "type": "LineString", "coordinates": [ [ 66.934958969720796, 36.143651995467387 ], [ 72.544708026052035, 32.704653497262385 ] ] } },
{ "type": "Feature", "properties": { "z_other": "PAK_S", "z": "NEPS_UZB", "country_ini_lat": 36.143651995467387, "country_ini_lon": 66.934958969720796, "lat_linestring": 31.914459055890962, "lon_linestring": 66.810823742384628, "c": "AFG", "c2": "PAK" }, "geometry": { "type": "LineString", "coordinates": [ [ 66.934958969720796, 36.143651995467387 ], [ 66.686688515048473, 27.685266116314544 ] ] } },
{ "type": "Feature", "properties": { "z_other": "UZB", "z": "NEPS_UZB", "country_ini_lat": 36.143651995467387, "country_ini_lon": 66.934958969720796, "lat_linestring": 38.949474610251954, "lon_linestring": 65.037643252113597, "c": "AFG", "c2": "UZB" }, "geometry": { "type": "LineString", "coordinates": [ [ 66.934958969720796, 36.143651995467387 ], [ 63.14032753450639, 41.755297225036529 ] ] } },
{ "type": "Feature", "properties": { "z_other": "TUR", "z": "NEPS_UZB", "country_ini_lat": 36.143651995467387, "country_ini_lon": 66.934958969720796, "lat_linestring": 37.629880590653919, "lon_linestring": 63.155307062550378, "c": "AFG", "c2": "TUR" }, "geometry": { "type": "LineString", "coordinates": [ [ 66.934958969720796, 36.143651995467387 ], [ 59.375655155379974, 39.11610918584045 ] ] } },
{ "type": "Feature", "properties": { "z_other": "KAZ_S", "z": "NEPS_UZB", "country_ini_lat": 36.143651995467387, "country_ini_lon": 66.934958969720796, "lat_linestring": 40.37339349867203, "lon_linestring": 68.82046908246825, "c": "AFG", "c2": "KAZ" }, "geometry": { "type": "LineString", "coordinates": [ [ 66.934958969720796, 36.143651995467387 ], [ 70.705979195215704, 44.60313500187668 ] ] } },
{ "type": "Feature", "properties": { "z_other": "KAZ_N", "z": "NEPS_UZB", "country_ini_lat": 36.143651995467387, "country_ini_lon": 66.934958969720796, "lat_linestring": 42.998556657103954, "lon_linestring": 68.375780430856736, "c": "AFG", "c2": "KAZ" }, "geometry": { "type": "LineString", "coordinates": [ [ 66.934958969720796, 36.143651995467387 ], [ 69.816601891992661, 49.8534613187405 ] ] } },
{ "type": "Feature", "properties": { "z_other": "PAK_KAR", "z": "NEPS_TKM", "country_ini_lat": 35.871871461718243, "country_ini_lon": 64.638906102217604, "lat_linestring": 30.451968367930654, "lon_linestring": 65.922425382758291, "c": "AFG", "c2": "PAK" }, "geometry": { "type": "LineString", "coordinates": [ [ 64.638906102217604, 35.871871461718243 ], [ 67.205944663298965, 25.032065274143068 ] ] } },
{ "type": "Feature", "properties": { "z_other": "NEPS_TAJ", "z": "NEPS_TKM", "country_ini_lat": 35.871871461718243, "country_ini_lon": 64.638906102217604, "lat_linestring": 36.315530804384267, "lon_linestring": 67.000619874053626, "c": "AFG", "c2": "AFG" }, "geometry": { "type": "LineString", "coordinates": [ [ 64.638906102217604, 35.871871461718243 ], [ 69.362333645889663, 36.75919014705029 ] ] } },
{ "type": "Feature", "properties": { "z_other": "TAJ_N", "z": "NEPS_TKM", "country_ini_lat": 35.871871461718243, "country_ini_lon": 64.638906102217604, "lat_linestring": 37.832779036060103, "lon_linestring": 66.931468109164712, "c": "AFG", "c2": "TAJ" }, "geometry": { "type": "LineString", "coordinates": [ [ 64.638906102217604, 35.871871461718243 ], [ 69.224030116111834, 39.79368661040197 ] ] } },
{ "type": "Feature", "properties": { "z_other": "NEPS_UZB", "z": "NEPS_TKM", "country_ini_lat": 35.871871461718243, "country_ini_lon": 64.638906102217604, "lat_linestring": 36.007761728592811, "lon_linestring": 65.7869325359692, "c": "AFG", "c2": "AFG" }, "geometry": { "type": "LineString", "coordinates": [ [ 64.638906102217604, 35.871871461718243 ], [ 66.934958969720796, 36.143651995467387 ] ] } },
{ "type": "Feature", "properties": { "z_other": "NEPS_HERAT", "z": "NEPS_TKM", "country_ini_lat": 35.871871461718243, "country_ini_lon": 64.638906102217604, "lat_linestring": 35.030883500341375, "lon_linestring": 63.383083644123879, "c": "AFG", "c2": "AFG" }, "geometry": { "type": "LineString", "coordinates": [ [ 64.638906102217604, 35.871871461718243 ], [ 62.12726118603014, 34.189895538964507 ] ] } },
{ "type": "Feature", "properties": { "z_other": "KGZ_S", "z": "NEPS_TKM", "country_ini_lat": 35.871871461718243, "country_ini_lon": 64.638906102217604, "lat_linestring": 38.284202883019418, "lon_linestring": 68.521446044322801, "c": "AFG", "c2": "KGZ" }, "geometry": { "type": "LineString", "coordinates": [ [ 64.638906102217604, 35.871871461718243 ], [ 72.403985986428012, 40.696534304320586 ] ] } },
{ "type": "Feature", "properties": { "z_other": "TAJ_S", "z": "NEPS_TKM", "country_ini_lat": 35.871871461718243, "country_ini_lon": 64.638906102217604, "lat_linestring": 37.057440209241776, "lon_linestring": 68.031261343242448, "c": "AFG", "c2": "TAJ" }, "geometry": { "type": "LineString", "coordinates": [ [ 64.638906102217604, 35.871871461718243 ], [ 71.423616584267307, 38.243008956765316 ] ] } },
{ "type": "Feature", "properties": { "z_other": "KGZ_N", "z": "NEPS_TKM", "country_ini_lat": 35.871871461718243, "country_ini_lon": 64.638906102217604, "lat_linestring": 38.918157307777747, "lon_linestring": 70.292272002462823, "c": "AFG", "c2": "KGZ" }, "geometry": { "type": "LineString", "coordinates": [ [ 64.638906102217604, 35.871871461718243 ], [ 75.945637902708057, 41.964443153837244 ] ] } },
{ "type": "Feature", "properties": { "z_other": "NEPS_AFG", "z": "NEPS_TKM", "country_ini_lat": 35.871871461718243, "country_ini_lon": 64.638906102217604, "lat_linestring": 34.390802182504885, "lon_linestring": 65.834963114295732, "c": "AFG", "c2": "AFG" }, "geometry": { "type": "LineString", "coordinates": [ [ 64.638906102217604, 35.871871461718243 ], [ 67.031020126373861, 32.90973290329152 ] ] } },
{ "type": "Feature", "properties": { "z_other": "PAK_N", "z": "NEPS_TKM", "country_ini_lat": 35.871871461718243, "country_ini_lon": 64.638906102217604, "lat_linestring": 34.288262479490314, "lon_linestring": 68.591807064134827, "c": "AFG", "c2": "PAK" }, "geometry": { "type": "LineString", "coordinates": [ [ 64.638906102217604, 35.871871461718243 ], [ 72.544708026052035, 32.704653497262385 ] ] } },
{ "type": "Feature", "properties": { "z_other": "PAK_S", "z": "NEPS_TKM", "country_ini_lat": 35.871871461718243, "country_ini_lon": 64.638906102217604, "lat_linestring": 31.778568789016397, "lon_linestring": 65.662797308633031, "c": "AFG", "c2": "PAK" }, "geometry": { "type": "LineString", "coordinates": [ [ 64.638906102217604, 35.871871461718243 ], [ 66.686688515048473, 27.685266116314544 ] ] } },
{ "type": "Feature", "properties": { "z_other": "UZB", "z": "NEPS_TKM", "country_ini_lat": 35.871871461718243, "country_ini_lon": 64.638906102217604, "lat_linestring": 38.813584343377386, "lon_linestring": 63.889616818362001, "c": "AFG", "c2": "UZB" }, "geometry": { "type": "LineString", "coordinates": [ [ 64.638906102217604, 35.871871461718243 ], [ 63.14032753450639, 41.755297225036529 ] ] } },
{ "type": "Feature", "properties": { "z_other": "TUR", "z": "NEPS_TKM", "country_ini_lat": 35.871871461718243, "country_ini_lon": 64.638906102217604, "lat_linestring": 37.493990323779343, "lon_linestring": 62.007280628798789, "c": "AFG", "c2": "TUR" }, "geometry": { "type": "LineString", "coordinates": [ [ 64.638906102217604, 35.871871461718243 ], [ 59.375655155379974, 39.11610918584045 ] ] } },
{ "type": "Feature", "properties": { "z_other": "KAZ_S", "z": "NEPS_TKM", "country_ini_lat": 35.871871461718243, "country_ini_lon": 64.638906102217604, "lat_linestring": 40.237503231797461, "lon_linestring": 67.672442648716654, "c": "AFG", "c2": "KAZ" }, "geometry": { "type": "LineString", "coordinates": [ [ 64.638906102217604, 35.871871461718243 ], [ 70.705979195215704, 44.60313500187668 ] ] } },
{ "type": "Feature", "properties": { "z_other": "KAZ_N", "z": "NEPS_TKM", "country_ini_lat": 35.871871461718243, "country_ini_lon": 64.638906102217604, "lat_linestring": 42.862666390229371, "lon_linestring": 67.22775399710514, "c": "AFG", "c2": "KAZ" }, "geometry": { "type": "LineString", "coordinates": [ [ 64.638906102217604, 35.871871461718243 ], [ 69.816601891992661, 49.8534613187405 ] ] } },
{ "type": "Feature", "properties": { "z_other": "PAK_KAR", "z": "NEPS_HERAT", "country_ini_lat": 34.189895538964507, "country_ini_lon": 62.12726118603014, "lat_linestring": 29.610980406553789, "lon_linestring": 64.666602924664545, "c": "AFG", "c2": "PAK" }, "geometry": { "type": "LineString", "coordinates": [ [ 62.12726118603014, 34.189895538964507 ], [ 67.205944663298965, 25.032065274143068 ] ] } },
{ "type": "Feature", "properties": { "z_other": "NEPS_TAJ", "z": "NEPS_HERAT", "country_ini_lat": 34.189895538964507, "country_ini_lon": 62.12726118603014, "lat_linestring": 35.474542843007399, "lon_linestring": 65.744797415959908, "c": "AFG", "c2": "AFG" }, "geometry": { "type": "LineString", "coordinates": [ [ 62.12726118603014, 34.189895538964507 ], [ 69.362333645889663, 36.75919014705029 ] ] } },
{ "type": "Feature", "properties": { "z_other": "TAJ_N", "z": "NEPS_HERAT", "country_ini_lat": 34.189895538964507, "country_ini_lon": 62.12726118603014, "lat_linestring": 36.991791074683235, "lon_linestring": 65.675645651070994, "c": "AFG", "c2": "TAJ" }, "geometry": { "type": "LineString", "coordinates": [ [ 62.12726118603014, 34.189895538964507 ], [ 69.224030116111834, 39.79368661040197 ] ] } },
{ "type": "Feature", "properties": { "z_other": "NEPS_UZB", "z": "NEPS_HERAT", "country_ini_lat": 34.189895538964507, "country_ini_lon": 62.12726118603014, "lat_linestring": 35.166773767215943, "lon_linestring": 64.531110077875468, "c": "AFG", "c2": "AFG" }, "geometry": { "type": "LineString", "coordinates": [ [ 62.12726118603014, 34.189895538964507 ], [ 66.934958969720796, 36.143651995467387 ] ] } },
{ "type": "Feature", "properties": { "z_other": "NEPS_TKM", "z": "NEPS_HERAT", "country_ini_lat": 34.189895538964507, "country_ini_lon": 62.12726118603014, "lat_linestring": 35.030883500341375, "lon_linestring": 63.383083644123879, "c": "AFG", "c2": "AFG" }, "geometry": { "type": "LineString", "coordinates": [ [ 62.12726118603014, 34.189895538964507 ], [ 64.638906102217604, 35.871871461718243 ] ] } },
{ "type": "Feature", "properties": { "z_other": "KGZ_S", "z": "NEPS_HERAT", "country_ini_lat": 34.189895538964507, "country_ini_lon": 62.12726118603014, "lat_linestring": 37.44321492164255, "lon_linestring": 67.265623586229083, "c": "AFG", "c2": "KGZ" }, "geometry": { "type": "LineString", "coordinates": [ [ 62.12726118603014, 34.189895538964507 ], [ 72.403985986428012, 40.696534304320586 ] ] } },
{ "type": "Feature", "properties": { "z_other": "TAJ_S", "z": "NEPS_HERAT", "country_ini_lat": 34.189895538964507, "country_ini_lon": 62.12726118603014, "lat_linestring": 36.216452247864908, "lon_linestring": 66.775438885148731, "c": "AFG", "c2": "TAJ" }, "geometry": { "type": "LineString", "coordinates": [ [ 62.12726118603014, 34.189895538964507 ], [ 71.423616584267307, 38.243008956765316 ] ] } },
{ "type": "Feature", "properties": { "z_other": "KGZ_N", "z": "NEPS_HERAT", "country_ini_lat": 34.189895538964507, "country_ini_lon": 62.12726118603014, "lat_linestring": 38.077169346400879, "lon_linestring": 69.036449544369106, "c": "AFG", "c2": "KGZ" }, "geometry": { "type": "LineString", "coordinates": [ [ 62.12726118603014, 34.189895538964507 ], [ 75.945637902708057, 41.964443153837244 ] ] } },
{ "type": "Feature", "properties": { "z_other": "NEPS_AFG", "z": "NEPS_HERAT", "country_ini_lat": 34.189895538964507, "country_ini_lon": 62.12726118603014, "lat_linestring": 33.549814221128017, "lon_linestring": 64.579140656202, "c": "AFG", "c2": "AFG" }, "geometry": { "type": "LineString", "coordinates": [ [ 62.12726118603014, 34.189895538964507 ], [ 67.031020126373861, 32.90973290329152 ] ] } },
{ "type": "Feature", "properties": { "z_other": "PAK_N", "z": "NEPS_HERAT", "country_ini_lat": 34.189895538964507, "country_ini_lon": 62.12726118603014, "lat_linestring": 33.447274518113446, "lon_linestring": 67.33598460604108, "c": "AFG", "c2": "PAK" }, "geometry": { "type": "LineString", "coordinates": [ [ 62.12726118603014, 34.189895538964507 ], [ 72.544708026052035, 32.704653497262385 ] ] } },
{ "type": "Feature", "properties": { "z_other": "PAK_S", "z": "NEPS_HERAT", "country_ini_lat": 34.189895538964507, "country_ini_lon": 62.12726118603014, "lat_linestring": 30.937580827639525, "lon_linestring": 64.406974850539314, "c": "AFG", "c2": "PAK" }, "geometry": { "type": "LineString", "coordinates": [ [ 62.12726118603014, 34.189895538964507 ], [ 66.686688515048473, 27.685266116314544 ] ] } },
{ "type": "Feature", "properties": { "z_other": "UZB", "z": "NEPS_HERAT", "country_ini_lat": 34.189895538964507, "country_ini_lon": 62.12726118603014, "lat_linestring": 37.972596382000518, "lon_linestring": 62.633794360268269, "c": "AFG", "c2": "UZB" }, "geometry": { "type": "LineString", "coordinates": [ [ 62.12726118603014, 34.189895538964507 ], [ 63.14032753450639, 41.755297225036529 ] ] } },
{ "type": "Feature", "properties": { "z_other": "TUR", "z": "NEPS_HERAT", "country_ini_lat": 34.189895538964507, "country_ini_lon": 62.12726118603014, "lat_linestring": 36.653002362402475, "lon_linestring": 60.751458170705057, "c": "AFG", "c2": "TUR" }, "geometry": { "type": "LineString", "coordinates": [ [ 62.12726118603014, 34.189895538964507 ], [ 59.375655155379974, 39.11610918584045 ] ] } },
{ "type": "Feature", "properties": { "z_other": "KAZ_S", "z": "NEPS_HERAT", "country_ini_lat": 34.189895538964507, "country_ini_lon": 62.12726118603014, "lat_linestring": 39.396515270420593, "lon_linestring": 66.416620190622922, "c": "AFG", "c2": "KAZ" }, "geometry": { "type": "LineString", "coordinates": [ [ 62.12726118603014, 34.189895538964507 ], [ 70.705979195215704, 44.60313500187668 ] ] } },
{ "type": "Feature", "properties": { "z_other": "KAZ_N", "z": "NEPS_HERAT", "country_ini_lat": 34.189895538964507, "country_ini_lon": 62.12726118603014, "lat_linestring": 42.021678428852503, "lon_linestring": 65.971931539011393, "c": "AFG", "c2": "KAZ" }, "geometry": { "type": "LineString", "coordinates": [ [ 62.12726118603014, 34.189895538964507 ], [ 69.816601891992661, 49.8534613187405 ] ] } },
{ "type": "Feature", "properties": { "z_other": "PAK_KAR", "z": "KGZ_S", "country_ini_lat": 40.696534304320586, "country_ini_lon": 72.403985986428012, "lat_linestring": 32.864299789231829, "lon_linestring": 69.804965324863488, "c": "KGZ", "c2": "PAK" }, "geometry": { "type": "LineString", "coordinates": [ [ 72.403985986428012, 40.696534304320586 ], [ 67.205944663298965, 25.032065274143068 ] ] } },
{ "type": "Feature", "properties": { "z_other": "NEPS_TAJ", "z": "KGZ_S", "country_ini_lat": 40.696534304320586, "country_ini_lon": 72.403985986428012, "lat_linestring": 38.727862225685442, "lon_linestring": 70.883159816158837, "c": "KGZ", "c2": "AFG" }, "geometry": { "type": "LineString", "coordinates": [ [ 72.403985986428012, 40.696534304320586 ], [ 69.362333645889663, 36.75919014705029 ] ] } },
{ "type": "Feature", "properties": { "z_other": "TAJ_N", "z": "KGZ_S", "country_ini_lat": 40.696534304320586, "country_ini_lon": 72.403985986428012, "lat_linestring": 40.245110457361278, "lon_linestring": 70.814008051269923, "c": "KGZ", "c2": "TAJ" }, "geometry": { "type": "LineString", "coordinates": [ [ 72.403985986428012, 40.696534304320586 ], [ 69.224030116111834, 39.79368661040197 ] ] } },
{ "type": "Feature", "properties": { "z_other": "NEPS_UZB", "z": "KGZ_S", "country_ini_lat": 40.696534304320586, "country_ini_lon": 72.403985986428012, "lat_linestring": 38.420093149893987, "lon_linestring": 69.669472478074397, "c": "KGZ", "c2": "AFG" }, "geometry": { "type": "LineString", "coordinates": [ [ 72.403985986428012, 40.696534304320586 ], [ 66.934958969720796, 36.143651995467387 ] ] } },
{ "type": "Feature", "properties": { "z_other": "NEPS_TKM", "z": "KGZ_S", "country_ini_lat": 40.696534304320586, "country_ini_lon": 72.403985986428012, "lat_linestring": 38.284202883019418, "lon_linestring": 68.521446044322801, "c": "KGZ", "c2": "AFG" }, "geometry": { "type": "LineString", "coordinates": [ [ 72.403985986428012, 40.696534304320586 ], [ 64.638906102217604, 35.871871461718243 ] ] } },
{ "type": "Feature", "properties": { "z_other": "NEPS_HERAT", "z": "KGZ_S", "country_ini_lat": 40.696534304320586, "country_ini_lon": 72.403985986428012, "lat_linestring": 37.44321492164255, "lon_linestring": 67.265623586229083, "c": "KGZ", "c2": "AFG" }, "geometry": { "type": "LineString", "coordinates": [ [ 72.403985986428012, 40.696534304320586 ], [ 62.12726118603014, 34.189895538964507 ] ] } },
{ "type": "Feature", "properties": { "z_other": "TAJ_S", "z": "KGZ_S", "country_ini_lat": 40.696534304320586, "country_ini_lon": 72.403985986428012, "lat_linestring": 39.469771630542951, "lon_linestring": 71.91380128534766, "c": "KGZ", "c2": "TAJ" }, "geometry": { "type": "LineString", "coordinates": [ [ 72.403985986428012, 40.696534304320586 ], [ 71.423616584267307, 38.243008956765316 ] ] } },
{ "type": "Feature", "properties": { "z_other": "KGZ_N", "z": "KGZ_S", "country_ini_lat": 40.696534304320586, "country_ini_lon": 72.403985986428012, "lat_linestring": 41.330488729078915, "lon_linestring": 74.174811944568035, "c": "KGZ", "c2": "KGZ" }, "geometry": { "type": "LineString", "coordinates": [ [ 72.403985986428012, 40.696534304320586 ], [ 75.945637902708057, 41.964443153837244 ] ] } },
{ "type": "Feature", "properties": { "z_other": "NEPS_AFG", "z": "KGZ_S", "country_ini_lat": 40.696534304320586, "country_ini_lon": 72.403985986428012, "lat_linestring": 36.803133603806053, "lon_linestring": 69.717503056400943, "c": "KGZ", "c2": "AFG" }, "geometry": { "type": "LineString", "coordinates": [ [ 72.403985986428012, 40.696534304320586 ], [ 67.031020126373861, 32.90973290329152 ] ] } },
{ "type": "Feature", "properties": { "z_other": "PAK_N", "z": "KGZ_S", "country_ini_lat": 40.696534304320586, "country_ini_lon": 72.403985986428012, "lat_linestring": 36.700593900791489, "lon_linestring": 72.474347006240023, "c": "KGZ", "c2": "PAK" }, "geometry": { "type": "LineString", "coordinates": [ [ 72.403985986428012, 40.696534304320586 ], [ 72.544708026052035, 32.704653497262385 ] ] } },
{ "type": "Feature", "properties": { "z_other": "PAK_S", "z": "KGZ_S", "country_ini_lat": 40.696534304320586, "country_ini_lon": 72.403985986428012, "lat_linestring": 34.190900210317565, "lon_linestring": 69.545337250738243, "c": "KGZ", "c2": "PAK" }, "geometry": { "type": "LineString", "coordinates": [ [ 72.403985986428012, 40.696534304320586 ], [ 66.686688515048473, 27.685266116314544 ] ] } },
{ "type": "Feature", "properties": { "z_other": "UZB", "z": "KGZ_S", "country_ini_lat": 40.696534304320586, "country_ini_lon": 72.403985986428012, "lat_linestring": 41.225915764678561, "lon_linestring": 67.772156760467198, "c": "KGZ", "c2": "UZB" }, "geometry": { "type": "LineString", "coordinates": [ [ 72.403985986428012, 40.696534304320586 ], [ 63.14032753450639, 41.755297225036529 ] ] } },
{ "type": "Feature", "properties": { "z_other": "TUR", "z": "KGZ_S", "country_ini_lat": 40.696534304320586, "country_ini_lon": 72.403985986428012, "lat_linestring": 39.906321745080518, "lon_linestring": 65.889820570903993, "c": "KGZ", "c2": "TUR" }, "geometry": { "type": "LineString", "coordinates": [ [ 72.403985986428012, 40.696534304320586 ], [ 59.375655155379974, 39.11610918584045 ] ] } },
{ "type": "Feature", "properties": { "z_other": "KAZ_S", "z": "KGZ_S", "country_ini_lat": 40.696534304320586, "country_ini_lon": 72.403985986428012, "lat_linestring": 42.649834653098637, "lon_linestring": 71.554982590821851, "c": "KGZ", "c2": "KAZ" }, "geometry": { "type": "LineString", "coordinates": [ [ 72.403985986428012, 40.696534304320586 ], [ 70.705979195215704, 44.60313500187668 ] ] } },
{ "type": "Feature", "properties": { "z_other": "KAZ_N", "z": "KGZ_S", "country_ini_lat": 40.696534304320586, "country_ini_lon": 72.403985986428012, "lat_linestring": 45.27499781153054, "lon_linestring": 71.110293939210337, "c": "KGZ", "c2": "KAZ" }, "geometry": { "type": "LineString", "coordinates": [ [ 72.403985986428012, 40.696534304320586 ], [ 69.816601891992661, 49.8534613187405 ] ] } },
{ "type": "Feature", "properties": { "z_other": "PAK_KAR", "z": "TAJ_S", "country_ini_lat": 38.243008956765316, "country_ini_lon": 71.423616584267307, "lat_linestring": 31.637537115454194, "lon_linestring": 69.314780623783136, "c": "TAJ", "c2": "PAK" }, "geometry": { "type": "LineString", "coordinates": [ [ 71.423616584267307, 38.243008956765316 ], [ 67.205944663298965, 25.032065274143068 ] ] } },
{ "type": "Feature", "properties": { "z_other": "NEPS_TAJ", "z": "TAJ_S", "country_ini_lat": 38.243008956765316, "country_ini_lon": 71.423616584267307, "lat_linestring": 37.501099551907799, "lon_linestring": 70.392975115078485, "c": "TAJ", "c2": "AFG" }, "geometry": { "type": "LineString", "coordinates": [ [ 71.423616584267307, 38.243008956765316 ], [ 69.362333645889663, 36.75919014705029 ] ] } },
{ "type": "Feature", "properties": { "z_other": "TAJ_N", "z": "TAJ_S", "country_ini_lat": 38.243008956765316, "country_ini_lon": 71.423616584267307, "lat_linestring": 39.018347783583643, "lon_linestring": 70.323823350189571, "c": "TAJ", "c2": "TAJ" }, "geometry": { "type": "LineString", "coordinates": [ [ 71.423616584267307, 38.243008956765316 ], [ 69.224030116111834, 39.79368661040197 ] ] } },
{ "type": "Feature", "properties": { "z_other": "NEPS_UZB", "z": "TAJ_S", "country_ini_lat": 38.243008956765316, "country_ini_lon": 71.423616584267307, "lat_linestring": 37.193330476116351, "lon_linestring": 69.179287776994045, "c": "TAJ", "c2": "AFG" }, "geometry": { "type": "LineString", "coordinates": [ [ 71.423616584267307, 38.243008956765316 ], [ 66.934958969720796, 36.143651995467387 ] ] } },
{ "type": "Feature", "properties": { "z_other": "NEPS_TKM", "z": "TAJ_S", "country_ini_lat": 38.243008956765316, "country_ini_lon": 71.423616584267307, "lat_linestring": 37.057440209241776, "lon_linestring": 68.031261343242448, "c": "TAJ", "c2": "AFG" }, "geometry": { "type": "LineString", "coordinates": [ [ 71.423616584267307, 38.243008956765316 ], [ 64.638906102217604, 35.871871461718243 ] ] } },
{ "type": "Feature", "properties": { "z_other": "NEPS_HERAT", "z": "TAJ_S", "country_ini_lat": 38.243008956765316, "country_ini_lon": 71.423616584267307, "lat_linestring": 36.216452247864908, "lon_linestring": 66.775438885148731, "c": "TAJ", "c2": "AFG" }, "geometry": { "type": "LineString", "coordinates": [ [ 71.423616584267307, 38.243008956765316 ], [ 62.12726118603014, 34.189895538964507 ] ] } },
{ "type": "Feature", "properties": { "z_other": "KGZ_S", "z": "TAJ_S", "country_ini_lat": 38.243008956765316, "country_ini_lon": 71.423616584267307, "lat_linestring": 39.469771630542951, "lon_linestring": 71.91380128534766, "c": "TAJ", "c2": "KGZ" }, "geometry": { "type": "LineString", "coordinates": [ [ 71.423616584267307, 38.243008956765316 ], [ 72.403985986428012, 40.696534304320586 ] ] } },
{ "type": "Feature", "properties": { "z_other": "KGZ_N", "z": "TAJ_S", "country_ini_lat": 38.243008956765316, "country_ini_lon": 71.423616584267307, "lat_linestring": 40.10372605530128, "lon_linestring": 73.684627243487682, "c": "TAJ", "c2": "KGZ" }, "geometry": { "type": "LineString", "coordinates": [ [ 71.423616584267307, 38.243008956765316 ], [ 75.945637902708057, 41.964443153837244 ] ] } },
{ "type": "Feature", "properties": { "z_other": "NEPS_AFG", "z": "TAJ_S", "country_ini_lat": 38.243008956765316, "country_ini_lon": 71.423616584267307, "lat_linestring": 35.576370930028418, "lon_linestring": 69.227318355320591, "c": "TAJ", "c2": "AFG" }, "geometry": { "type": "LineString", "coordinates": [ [ 71.423616584267307, 38.243008956765316 ], [ 67.031020126373861, 32.90973290329152 ] ] } },
{ "type": "Feature", "properties": { "z_other": "PAK_N", "z": "TAJ_S", "country_ini_lat": 38.243008956765316, "country_ini_lon": 71.423616584267307, "lat_linestring": 35.473831227013847, "lon_linestring": 71.984162305159671, "c": "TAJ", "c2": "PAK" }, "geometry": { "type": "LineString", "coordinates": [ [ 71.423616584267307, 38.243008956765316 ], [ 72.544708026052035, 32.704653497262385 ] ] } },
{ "type": "Feature", "properties": { "z_other": "PAK_S", "z": "TAJ_S", "country_ini_lat": 38.243008956765316, "country_ini_lon": 71.423616584267307, "lat_linestring": 32.96413753653993, "lon_linestring": 69.05515254965789, "c": "TAJ", "c2": "PAK" }, "geometry": { "type": "LineString", "coordinates": [ [ 71.423616584267307, 38.243008956765316 ], [ 66.686688515048473, 27.685266116314544 ] ] } },
{ "type": "Feature", "properties": { "z_other": "UZB", "z": "TAJ_S", "country_ini_lat": 38.243008956765316, "country_ini_lon": 71.423616584267307, "lat_linestring": 39.999153090900919, "lon_linestring": 67.281972059386845, "c": "TAJ", "c2": "UZB" }, "geometry": { "type": "LineString", "coordinates": [ [ 71.423616584267307, 38.243008956765316 ], [ 63.14032753450639, 41.755297225036529 ] ] } },
{ "type": "Feature", "properties": { "z_other": "TUR", "z": "TAJ_S", "country_ini_lat": 38.243008956765316, "country_ini_lon": 71.423616584267307, "lat_linestring": 38.679559071302883, "lon_linestring": 65.399635869823641, "c": "TAJ", "c2": "TUR" }, "geometry": { "type": "LineString", "coordinates": [ [ 71.423616584267307, 38.243008956765316 ], [ 59.375655155379974, 39.11610918584045 ] ] } },
{ "type": "Feature", "properties": { "z_other": "KAZ_S", "z": "TAJ_S", "country_ini_lat": 38.243008956765316, "country_ini_lon": 71.423616584267307, "lat_linestring": 41.423071979320994, "lon_linestring": 71.064797889741499, "c": "TAJ", "c2": "KAZ" }, "geometry": { "type": "LineString", "coordinates": [ [ 71.423616584267307, 38.243008956765316 ], [ 70.705979195215704, 44.60313500187668 ] ] } },
{ "type": "Feature", "properties": { "z_other": "KAZ_N", "z": "TAJ_S", "country_ini_lat": 38.243008956765316, "country_ini_lon": 71.423616584267307, "lat_linestring": 44.048235137752911, "lon_linestring": 70.620109238129984, "c": "TAJ", "c2": "KAZ" }, "geometry": { "type": "LineString", "coordinates": [ [ 71.423616584267307, 38.243008956765316 ], [ 69.816601891992661, 49.8534613187405 ] ] } },
{ "type": "Feature", "properties": { "z_other": "PAK_KAR", "z": "KGZ_N", "country_ini_lat": 41.964443153837244, "country_ini_lon": 75.945637902708057, "lat_linestring": 33.498254213990158, "lon_linestring": 71.575791283003511, "c": "KGZ", "c2": "PAK" }, "geometry": { "type": "LineString", "coordinates": [ [ 75.945637902708057, 41.964443153837244 ], [ 67.205944663298965, 25.032065274143068 ] ] } },
{ "type": "Feature", "properties": { "z_other": "NEPS_TAJ", "z": "KGZ_N", "country_ini_lat": 41.964443153837244, "country_ini_lon": 75.945637902708057, "lat_linestring": 39.361816650443771, "lon_linestring": 72.65398577429886, "c": "KGZ", "c2": "AFG" }, "geometry": { "type": "LineString", "coordinates": [ [ 75.945637902708057, 41.964443153837244 ], [ 69.362333645889663, 36.75919014705029 ] ] } },
{ "type": "Feature", "properties": { "z_other": "TAJ_N", "z": "KGZ_N", "country_ini_lat": 41.964443153837244, "country_ini_lon": 75.945637902708057, "lat_linestring": 40.879064882119607, "lon_linestring": 72.584834009409946, "c": "KGZ", "c2": "TAJ" }, "geometry": { "type": "LineString", "coordinates": [ [ 75.945637902708057, 41.964443153837244 ], [ 69.224030116111834, 39.79368661040197 ] ] } },
{ "type": "Feature", "properties": { "z_other": "NEPS_UZB", "z": "KGZ_N", "country_ini_lat": 41.964443153837244, "country_ini_lon": 75.945637902708057, "lat_linestring": 39.054047574652316, "lon_linestring": 71.44029843621442, "c": "KGZ", "c2": "AFG" }, "geometry": { "type": "LineString", "coordinates": [ [ 75.945637902708057, 41.964443153837244 ], [ 66.934958969720796, 36.143651995467387 ] ] } },
{ "type": "Feature", "properties": { "z_other": "NEPS_TKM", "z": "KGZ_N", "country_ini_lat": 41.964443153837244, "country_ini_lon": 75.945637902708057, "lat_linestring": 38.918157307777747, "lon_linestring": 70.292272002462823, "c": "KGZ", "c2": "AFG" }, "geometry": { "type": "LineString", "coordinates": [ [ 75.945637902708057, 41.964443153837244 ], [ 64.638906102217604, 35.871871461718243 ] ] } },
{ "type": "Feature", "properties": { "z_other": "NEPS_HERAT", "z": "KGZ_N", "country_ini_lat": 41.964443153837244, "country_ini_lon": 75.945637902708057, "lat_linestring": 38.077169346400879, "lon_linestring": 69.036449544369106, "c": "KGZ", "c2": "AFG" }, "geometry": { "type": "LineString", "coordinates": [ [ 75.945637902708057, 41.964443153837244 ], [ 62.12726118603014, 34.189895538964507 ] ] } },
{ "type": "Feature", "properties": { "z_other": "KGZ_S", "z": "KGZ_N", "country_ini_lat": 41.964443153837244, "country_ini_lon": 75.945637902708057, "lat_linestring": 41.330488729078915, "lon_linestring": 74.174811944568035, "c": "KGZ", "c2": "KGZ" }, "geometry": { "type": "LineString", "coordinates": [ [ 75.945637902708057, 41.964443153837244 ], [ 72.403985986428012, 40.696534304320586 ] ] } },
{ "type": "Feature", "properties": { "z_other": "TAJ_S", "z": "KGZ_N", "country_ini_lat": 41.964443153837244, "country_ini_lon": 75.945637902708057, "lat_linestring": 40.10372605530128, "lon_linestring": 73.684627243487682, "c": "KGZ", "c2": "TAJ" }, "geometry": { "type": "LineString", "coordinates": [ [ 75.945637902708057, 41.964443153837244 ], [ 71.423616584267307, 38.243008956765316 ] ] } },
{ "type": "Feature", "properties": { "z_other": "NEPS_AFG", "z": "KGZ_N", "country_ini_lat": 41.964443153837244, "country_ini_lon": 75.945637902708057, "lat_linestring": 37.437088028564382, "lon_linestring": 71.488329014540966, "c": "KGZ", "c2": "AFG" }, "geometry": { "type": "LineString", "coordinates": [ [ 75.945637902708057, 41.964443153837244 ], [ 67.031020126373861, 32.90973290329152 ] ] } },
{ "type": "Feature", "properties": { "z_other": "PAK_N", "z": "KGZ_N", "country_ini_lat": 41.964443153837244, "country_ini_lon": 75.945637902708057, "lat_linestring": 37.334548325549818, "lon_linestring": 74.245172964380046, "c": "KGZ", "c2": "PAK" }, "geometry": { "type": "LineString", "coordinates": [ [ 75.945637902708057, 41.964443153837244 ], [ 72.544708026052035, 32.704653497262385 ] ] } },
{ "type": "Feature", "properties": { "z_other": "PAK_S", "z": "KGZ_N", "country_ini_lat": 41.964443153837244, "country_ini_lon": 75.945637902708057, "lat_linestring": 34.824854635075894, "lon_linestring": 71.316163208878265, "c": "KGZ", "c2": "PAK" }, "geometry": { "type": "LineString", "coordinates": [ [ 75.945637902708057, 41.964443153837244 ], [ 66.686688515048473, 27.685266116314544 ] ] } },
{ "type": "Feature", "properties": { "z_other": "UZB", "z": "KGZ_N", "country_ini_lat": 41.964443153837244, "country_ini_lon": 75.945637902708057, "lat_linestring": 41.85987018943689, "lon_linestring": 69.54298271860722, "c": "KGZ", "c2": "UZB" }, "geometry": { "type": "LineString", "coordinates": [ [ 75.945637902708057, 41.964443153837244 ], [ 63.14032753450639, 41.755297225036529 ] ] } },
{ "type": "Feature", "properties": { "z_other": "TUR", "z": "KGZ_N", "country_ini_lat": 41.964443153837244, "country_ini_lon": 75.945637902708057, "lat_linestring": 40.540276169838847, "lon_linestring": 67.660646529044016, "c": "KGZ", "c2": "TUR" }, "geometry": { "type": "LineString", "coordinates": [ [ 75.945637902708057, 41.964443153837244 ], [ 59.375655155379974, 39.11610918584045 ] ] } },
{ "type": "Feature", "properties": { "z_other": "KAZ_S", "z": "KGZ_N", "country_ini_lat": 41.964443153837244, "country_ini_lon": 75.945637902708057, "lat_linestring": 43.283789077856966, "lon_linestring": 73.325808548961874, "c": "KGZ", "c2": "KAZ" }, "geometry": { "type": "LineString", "coordinates": [ [ 75.945637902708057, 41.964443153837244 ], [ 70.705979195215704, 44.60313500187668 ] ] } },
{ "type": "Feature", "properties": { "z_other": "KAZ_N", "z": "KGZ_N", "country_ini_lat": 41.964443153837244, "country_ini_lon": 75.945637902708057, "lat_linestring": 45.908952236288869, "lon_linestring": 72.881119897350359, "c": "KGZ", "c2": "KAZ" }, "geometry": { "type": "LineString", "coordinates": [ [ 75.945637902708057, 41.964443153837244 ], [ 69.816601891992661, 49.8534613187405 ] ] } },
{ "type": "Feature", "properties": { "z_other": "PAK_KAR", "z": "NEPS_AFG", "country_ini_lat": 32.90973290329152, "country_ini_lon": 67.031020126373861, "lat_linestring": 28.970899088717296, "lon_linestring": 67.118482394836406, "c": "AFG", "c2": "PAK" }, "geometry": { "type": "LineString", "coordinates": [ [ 67.031020126373861, 32.90973290329152 ], [ 67.205944663298965, 25.032065274143068 ] ] } },
{ "type": "Feature", "properties": { "z_other": "NEPS_TAJ", "z": "NEPS_AFG", "country_ini_lat": 32.90973290329152, "country_ini_lon": 67.031020126373861, "lat_linestring": 34.834461525170909, "lon_linestring": 68.196676886131769, "c": "AFG", "c2": "AFG" }, "geometry": { "type": "LineString", "coordinates": [ [ 67.031020126373861, 32.90973290329152 ], [ 69.362333645889663, 36.75919014705029 ] ] } },
{ "type": "Feature", "properties": { "z_other": "TAJ_N", "z": "NEPS_AFG", "country_ini_lat": 32.90973290329152, "country_ini_lon": 67.031020126373861, "lat_linestring": 36.351709756846752, "lon_linestring": 68.127525121242854, "c": "AFG", "c2": "TAJ" }, "geometry": { "type": "LineString", "coordinates": [ [ 67.031020126373861, 32.90973290329152 ], [ 69.224030116111834, 39.79368661040197 ] ] } },
{ "type": "Feature", "properties": { "z_other": "NEPS_UZB", "z": "NEPS_AFG", "country_ini_lat": 32.90973290329152, "country_ini_lon": 67.031020126373861, "lat_linestring": 34.526692449379453, "lon_linestring": 66.982989548047328, "c": "AFG", "c2": "AFG" }, "geometry": { "type": "LineString", "coordinates": [ [ 67.031020126373861, 32.90973290329152 ], [ 66.934958969720796, 36.143651995467387 ] ] } },
{ "type": "Feature", "properties": { "z_other": "NEPS_TKM", "z": "NEPS_AFG", "country_ini_lat": 32.90973290329152, "country_ini_lon": 67.031020126373861, "lat_linestring": 34.390802182504885, "lon_linestring": 65.834963114295732, "c": "AFG", "c2": "AFG" }, "geometry": { "type": "LineString", "coordinates": [ [ 67.031020126373861, 32.90973290329152 ], [ 64.638906102217604, 35.871871461718243 ] ] } },
{ "type": "Feature", "properties": { "z_other": "NEPS_HERAT", "z": "NEPS_AFG", "country_ini_lat": 32.90973290329152, "country_ini_lon": 67.031020126373861, "lat_linestring": 33.549814221128017, "lon_linestring": 64.579140656202, "c": "AFG", "c2": "AFG" }, "geometry": { "type": "LineString", "coordinates": [ [ 67.031020126373861, 32.90973290329152 ], [ 62.12726118603014, 34.189895538964507 ] ] } },
{ "type": "Feature", "properties": { "z_other": "KGZ_S", "z": "NEPS_AFG", "country_ini_lat": 32.90973290329152, "country_ini_lon": 67.031020126373861, "lat_linestring": 36.803133603806053, "lon_linestring": 69.717503056400943, "c": "AFG", "c2": "KGZ" }, "geometry": { "type": "LineString", "coordinates": [ [ 67.031020126373861, 32.90973290329152 ], [ 72.403985986428012, 40.696534304320586 ] ] } },
{ "type": "Feature", "properties": { "z_other": "TAJ_S", "z": "NEPS_AFG", "country_ini_lat": 32.90973290329152, "country_ini_lon": 67.031020126373861, "lat_linestring": 35.576370930028418, "lon_linestring": 69.227318355320591, "c": "AFG", "c2": "TAJ" }, "geometry": { "type": "LineString", "coordinates": [ [ 67.031020126373861, 32.90973290329152 ], [ 71.423616584267307, 38.243008956765316 ] ] } },
{ "type": "Feature", "properties": { "z_other": "KGZ_N", "z": "NEPS_AFG", "country_ini_lat": 32.90973290329152, "country_ini_lon": 67.031020126373861, "lat_linestring": 37.437088028564382, "lon_linestring": 71.488329014540966, "c": "AFG", "c2": "KGZ" }, "geometry": { "type": "LineString", "coordinates": [ [ 67.031020126373861, 32.90973290329152 ], [ 75.945637902708057, 41.964443153837244 ] ] } },
{ "type": "Feature", "properties": { "z_other": "PAK_N", "z": "NEPS_AFG", "country_ini_lat": 32.90973290329152, "country_ini_lon": 67.031020126373861, "lat_linestring": 32.807193200276956, "lon_linestring": 69.787864076212941, "c": "AFG", "c2": "PAK" }, "geometry": { "type": "LineString", "coordinates": [ [ 67.031020126373861, 32.90973290329152 ], [ 72.544708026052035, 32.704653497262385 ] ] } },
{ "type": "Feature", "properties": { "z_other": "PAK_S", "z": "NEPS_AFG", "country_ini_lat": 32.90973290329152, "country_ini_lon": 67.031020126373861, "lat_linestring": 30.297499509803032, "lon_linestring": 66.858854320711174, "c": "AFG", "c2": "PAK" }, "geometry": { "type": "LineString", "coordinates": [ [ 67.031020126373861, 32.90973290329152 ], [ 66.686688515048473, 27.685266116314544 ] ] } },
{ "type": "Feature", "properties": { "z_other": "UZB", "z": "NEPS_AFG", "country_ini_lat": 32.90973290329152, "country_ini_lon": 67.031020126373861, "lat_linestring": 37.332515064164028, "lon_linestring": 65.085673830440129, "c": "AFG", "c2": "UZB" }, "geometry": { "type": "LineString", "coordinates": [ [ 67.031020126373861, 32.90973290329152 ], [ 63.14032753450639, 41.755297225036529 ] ] } },
{ "type": "Feature", "properties": { "z_other": "TUR", "z": "NEPS_AFG", "country_ini_lat": 32.90973290329152, "country_ini_lon": 67.031020126373861, "lat_linestring": 36.012921044565985, "lon_linestring": 63.20333764087691, "c": "AFG", "c2": "TUR" }, "geometry": { "type": "LineString", "coordinates": [ [ 67.031020126373861, 32.90973290329152 ], [ 59.375655155379974, 39.11610918584045 ] ] } },
{ "type": "Feature", "properties": { "z_other": "KAZ_S", "z": "NEPS_AFG", "country_ini_lat": 32.90973290329152, "country_ini_lon": 67.031020126373861, "lat_linestring": 38.756433952584104, "lon_linestring": 68.868499660794782, "c": "AFG", "c2": "KAZ" }, "geometry": { "type": "LineString", "coordinates": [ [ 67.031020126373861, 32.90973290329152 ], [ 70.705979195215704, 44.60313500187668 ] ] } },
{ "type": "Feature", "properties": { "z_other": "KAZ_N", "z": "NEPS_AFG", "country_ini_lat": 32.90973290329152, "country_ini_lon": 67.031020126373861, "lat_linestring": 41.381597111016006, "lon_linestring": 68.423811009183254, "c": "AFG", "c2": "KAZ" }, "geometry": { "type": "LineString", "coordinates": [ [ 67.031020126373861, 32.90973290329152 ], [ 69.816601891992661, 49.8534613187405 ] ] } },
{ "type": "Feature", "properties": { "z_other": "PAK_KAR", "z": "PAK_N", "country_ini_lat": 32.704653497262385, "country_ini_lon": 72.544708026052035, "lat_linestring": 28.868359385702728, "lon_linestring": 69.8753263446755, "c": "PAK", "c2": "PAK" }, "geometry": { "type": "LineString", "coordinates": [ [ 72.544708026052035, 32.704653497262385 ], [ 67.205944663298965, 25.032065274143068 ] ] } },
{ "type": "Feature", "properties": { "z_other": "NEPS_TAJ", "z": "PAK_N", "country_ini_lat": 32.704653497262385, "country_ini_lon": 72.544708026052035, "lat_linestring": 34.731921822156337, "lon_linestring": 70.953520835970849, "c": "PAK", "c2": "AFG" }, "geometry": { "type": "LineString", "coordinates": [ [ 72.544708026052035, 32.704653497262385 ], [ 69.362333645889663, 36.75919014705029 ] ] } },
{ "type": "Feature", "properties": { "z_other": "TAJ_N", "z": "PAK_N", "country_ini_lat": 32.704653497262385, "country_ini_lon": 72.544708026052035, "lat_linestring": 36.249170053832174, "lon_linestring": 70.884369071081935, "c": "PAK", "c2": "TAJ" }, "geometry": { "type": "LineString", "coordinates": [ [ 72.544708026052035, 32.704653497262385 ], [ 69.224030116111834, 39.79368661040197 ] ] } },
{ "type": "Feature", "properties": { "z_other": "NEPS_UZB", "z": "PAK_N", "country_ini_lat": 32.704653497262385, "country_ini_lon": 72.544708026052035, "lat_linestring": 34.424152746364882, "lon_linestring": 69.739833497886423, "c": "PAK", "c2": "AFG" }, "geometry": { "type": "LineString", "coordinates": [ [ 72.544708026052035, 32.704653497262385 ], [ 66.934958969720796, 36.143651995467387 ] ] } },
{ "type": "Feature", "properties": { "z_other": "NEPS_TKM", "z": "PAK_N", "country_ini_lat": 32.704653497262385, "country_ini_lon": 72.544708026052035, "lat_linestring": 34.288262479490314, "lon_linestring": 68.591807064134827, "c": "PAK", "c2": "AFG" }, "geometry": { "type": "LineString", "coordinates": [ [ 72.544708026052035, 32.704653497262385 ], [ 64.638906102217604, 35.871871461718243 ] ] } },
{ "type": "Feature", "properties": { "z_other": "NEPS_HERAT", "z": "PAK_N", "country_ini_lat": 32.704653497262385, "country_ini_lon": 72.544708026052035, "lat_linestring": 33.447274518113446, "lon_linestring": 67.33598460604108, "c": "PAK", "c2": "AFG" }, "geometry": { "type": "LineString", "coordinates": [ [ 72.544708026052035, 32.704653497262385 ], [ 62.12726118603014, 34.189895538964507 ] ] } },
{ "type": "Feature", "properties": { "z_other": "KGZ_S", "z": "PAK_N", "country_ini_lat": 32.704653497262385, "country_ini_lon": 72.544708026052035, "lat_linestring": 36.700593900791489, "lon_linestring": 72.474347006240023, "c": "PAK", "c2": "KGZ" }, "geometry": { "type": "LineString", "coordinates": [ [ 72.544708026052035, 32.704653497262385 ], [ 72.403985986428012, 40.696534304320586 ] ] } },
{ "type": "Feature", "properties": { "z_other": "TAJ_S", "z": "PAK_N", "country_ini_lat": 32.704653497262385, "country_ini_lon": 72.544708026052035, "lat_linestring": 35.473831227013847, "lon_linestring": 71.984162305159671, "c": "PAK", "c2": "TAJ" }, "geometry": { "type": "LineString", "coordinates": [ [ 72.544708026052035, 32.704653497262385 ], [ 71.423616584267307, 38.243008956765316 ] ] } },
{ "type": "Feature", "properties": { "z_other": "KGZ_N", "z": "PAK_N", "country_ini_lat": 32.704653497262385, "country_ini_lon": 72.544708026052035, "lat_linestring": 37.334548325549818, "lon_linestring": 74.245172964380046, "c": "PAK", "c2": "KGZ" }, "geometry": { "type": "LineString", "coordinates": [ [ 72.544708026052035, 32.704653497262385 ], [ 75.945637902708057, 41.964443153837244 ] ] } },
{ "type": "Feature", "properties": { "z_other": "NEPS_AFG", "z": "PAK_N", "country_ini_lat": 32.704653497262385, "country_ini_lon": 72.544708026052035, "lat_linestring": 32.807193200276956, "lon_linestring": 69.787864076212941, "c": "PAK", "c2": "AFG" }, "geometry": { "type": "LineString", "coordinates": [ [ 72.544708026052035, 32.704653497262385 ], [ 67.031020126373861, 32.90973290329152 ] ] } },
{ "type": "Feature", "properties": { "z_other": "PAK_S", "z": "PAK_N", "country_ini_lat": 32.704653497262385, "country_ini_lon": 72.544708026052035, "lat_linestring": 30.194959806788464, "lon_linestring": 69.615698270550254, "c": "PAK", "c2": "PAK" }, "geometry": { "type": "LineString", "coordinates": [ [ 72.544708026052035, 32.704653497262385 ], [ 66.686688515048473, 27.685266116314544 ] ] } },
{ "type": "Feature", "properties": { "z_other": "UZB", "z": "PAK_N", "country_ini_lat": 32.704653497262385, "country_ini_lon": 72.544708026052035, "lat_linestring": 37.229975361149457, "lon_linestring": 67.842517780279209, "c": "PAK", "c2": "UZB" }, "geometry": { "type": "LineString", "coordinates": [ [ 72.544708026052035, 32.704653497262385 ], [ 63.14032753450639, 41.755297225036529 ] ] } },
{ "type": "Feature", "properties": { "z_other": "TUR", "z": "PAK_N", "country_ini_lat": 32.704653497262385, "country_ini_lon": 72.544708026052035, "lat_linestring": 35.910381341551414, "lon_linestring": 65.960181590716005, "c": "PAK", "c2": "TUR" }, "geometry": { "type": "LineString", "coordinates": [ [ 72.544708026052035, 32.704653497262385 ], [ 59.375655155379974, 39.11610918584045 ] ] } },
{ "type": "Feature", "properties": { "z_other": "KAZ_S", "z": "PAK_N", "country_ini_lat": 32.704653497262385, "country_ini_lon": 72.544708026052035, "lat_linestring": 38.653894249569532, "lon_linestring": 71.625343610633877, "c": "PAK", "c2": "KAZ" }, "geometry": { "type": "LineString", "coordinates": [ [ 72.544708026052035, 32.704653497262385 ], [ 70.705979195215704, 44.60313500187668 ] ] } },
{ "type": "Feature", "properties": { "z_other": "KAZ_N", "z": "PAK_N", "country_ini_lat": 32.704653497262385, "country_ini_lon": 72.544708026052035, "lat_linestring": 41.279057408001442, "lon_linestring": 71.180654959022348, "c": "PAK", "c2": "KAZ" }, "geometry": { "type": "LineString", "coordinates": [ [ 72.544708026052035, 32.704653497262385 ], [ 69.816601891992661, 49.8534613187405 ] ] } },
{ "type": "Feature", "properties": { "z_other": "PAK_KAR", "z": "PAK_S", "country_ini_lat": 27.685266116314544, "country_ini_lon": 66.686688515048473, "lat_linestring": 26.358665695228808, "lon_linestring": 66.946316589173719, "c": "PAK", "c2": "PAK" }, "geometry": { "type": "LineString", "coordinates": [ [ 66.686688515048473, 27.685266116314544 ], [ 67.205944663298965, 25.032065274143068 ] ] } },
{ "type": "Feature", "properties": { "z_other": "NEPS_TAJ", "z": "PAK_S", "country_ini_lat": 27.685266116314544, "country_ini_lon": 66.686688515048473, "lat_linestring": 32.222228131682414, "lon_linestring": 68.024511080469068, "c": "PAK", "c2": "AFG" }, "geometry": { "type": "LineString", "coordinates": [ [ 66.686688515048473, 27.685266116314544 ], [ 69.362333645889663, 36.75919014705029 ] ] } },
{ "type": "Feature", "properties": { "z_other": "TAJ_N", "z": "PAK_S", "country_ini_lat": 27.685266116314544, "country_ini_lon": 66.686688515048473, "lat_linestring": 33.739476363358257, "lon_linestring": 67.955359315580154, "c": "PAK", "c2": "TAJ" }, "geometry": { "type": "LineString", "coordinates": [ [ 66.686688515048473, 27.685266116314544 ], [ 69.224030116111834, 39.79368661040197 ] ] } },
{ "type": "Feature", "properties": { "z_other": "NEPS_UZB", "z": "PAK_S", "country_ini_lat": 27.685266116314544, "country_ini_lon": 66.686688515048473, "lat_linestring": 31.914459055890962, "lon_linestring": 66.810823742384628, "c": "PAK", "c2": "AFG" }, "geometry": { "type": "LineString", "coordinates": [ [ 66.686688515048473, 27.685266116314544 ], [ 66.934958969720796, 36.143651995467387 ] ] } },
{ "type": "Feature", "properties": { "z_other": "NEPS_TKM", "z": "PAK_S", "country_ini_lat": 27.685266116314544, "country_ini_lon": 66.686688515048473, "lat_linestring": 31.778568789016397, "lon_linestring": 65.662797308633031, "c": "PAK", "c2": "AFG" }, "geometry": { "type": "LineString", "coordinates": [ [ 66.686688515048473, 27.685266116314544 ], [ 64.638906102217604, 35.871871461718243 ] ] } },
{ "type": "Feature", "properties": { "z_other": "NEPS_HERAT", "z": "PAK_S", "country_ini_lat": 27.685266116314544, "country_ini_lon": 66.686688515048473, "lat_linestring": 30.937580827639525, "lon_linestring": 64.406974850539314, "c": "PAK", "c2": "AFG" }, "geometry": { "type": "LineString", "coordinates": [ [ 66.686688515048473, 27.685266116314544 ], [ 62.12726118603014, 34.189895538964507 ] ] } },
{ "type": "Feature", "properties": { "z_other": "KGZ_S", "z": "PAK_S", "country_ini_lat": 27.685266116314544, "country_ini_lon": 66.686688515048473, "lat_linestring": 34.190900210317565, "lon_linestring": 69.545337250738243, "c": "PAK", "c2": "KGZ" }, "geometry": { "type": "LineString", "coordinates": [ [ 66.686688515048473, 27.685266116314544 ], [ 72.403985986428012, 40.696534304320586 ] ] } },
{ "type": "Feature", "properties": { "z_other": "TAJ_S", "z": "PAK_S", "country_ini_lat": 27.685266116314544, "country_ini_lon": 66.686688515048473, "lat_linestring": 32.96413753653993, "lon_linestring": 69.05515254965789, "c": "PAK", "c2": "TAJ" }, "geometry": { "type": "LineString", "coordinates": [ [ 66.686688515048473, 27.685266116314544 ], [ 71.423616584267307, 38.243008956765316 ] ] } },
{ "type": "Feature", "properties": { "z_other": "KGZ_N", "z": "PAK_S", "country_ini_lat": 27.685266116314544, "country_ini_lon": 66.686688515048473, "lat_linestring": 34.824854635075894, "lon_linestring": 71.316163208878265, "c": "PAK", "c2": "KGZ" }, "geometry": { "type": "LineString", "coordinates": [ [ 66.686688515048473, 27.685266116314544 ], [ 75.945637902708057, 41.964443153837244 ] ] } },
{ "type": "Feature", "properties": { "z_other": "NEPS_AFG", "z": "PAK_S", "country_ini_lat": 27.685266116314544, "country_ini_lon": 66.686688515048473, "lat_linestring": 30.297499509803032, "lon_linestring": 66.858854320711174, "c": "PAK", "c2": "AFG" }, "geometry": { "type": "LineString", "coordinates": [ [ 66.686688515048473, 27.685266116314544 ], [ 67.031020126373861, 32.90973290329152 ] ] } },
{ "type": "Feature", "properties": { "z_other": "PAK_N", "z": "PAK_S", "country_ini_lat": 27.685266116314544, "country_ini_lon": 66.686688515048473, "lat_linestring": 30.194959806788464, "lon_linestring": 69.615698270550254, "c": "PAK", "c2": "PAK" }, "geometry": { "type": "LineString", "coordinates": [ [ 66.686688515048473, 27.685266116314544 ], [ 72.544708026052035, 32.704653497262385 ] ] } },
{ "type": "Feature", "properties": { "z_other": "UZB", "z": "PAK_S", "country_ini_lat": 27.685266116314544, "country_ini_lon": 66.686688515048473, "lat_linestring": 34.720281670675533, "lon_linestring": 64.913508024777428, "c": "PAK", "c2": "UZB" }, "geometry": { "type": "LineString", "coordinates": [ [ 66.686688515048473, 27.685266116314544 ], [ 63.14032753450639, 41.755297225036529 ] ] } },
{ "type": "Feature", "properties": { "z_other": "TUR", "z": "PAK_S", "country_ini_lat": 27.685266116314544, "country_ini_lon": 66.686688515048473, "lat_linestring": 33.400687651077497, "lon_linestring": 63.031171835214224, "c": "PAK", "c2": "TUR" }, "geometry": { "type": "LineString", "coordinates": [ [ 66.686688515048473, 27.685266116314544 ], [ 59.375655155379974, 39.11610918584045 ] ] } },
{ "type": "Feature", "properties": { "z_other": "KAZ_S", "z": "PAK_S", "country_ini_lat": 27.685266116314544, "country_ini_lon": 66.686688515048473, "lat_linestring": 36.144200559095609, "lon_linestring": 68.696333855132082, "c": "PAK", "c2": "KAZ" }, "geometry": { "type": "LineString", "coordinates": [ [ 66.686688515048473, 27.685266116314544 ], [ 70.705979195215704, 44.60313500187668 ] ] } },
{ "type": "Feature", "properties": { "z_other": "KAZ_N", "z": "PAK_S", "country_ini_lat": 27.685266116314544, "country_ini_lon": 66.686688515048473, "lat_linestring": 38.769363717527526, "lon_linestring": 68.251645203520567, "c": "PAK", "c2": "KAZ" }, "geometry": { "type": "LineString", "coordinates": [ [ 66.686688515048473, 27.685266116314544 ], [ 69.816601891992661, 49.8534613187405 ] ] } },
{ "type": "Feature", "properties": { "z_other": "PAK_KAR", "z": "UZB", "country_ini_lat": 41.755297225036529, "country_ini_lon": 63.14032753450639, "lat_linestring": 33.393681249589797, "lon_linestring": 65.173136098902674, "c": "UZB", "c2": "PAK" }, "geometry": { "type": "LineString", "coordinates": [ [ 63.14032753450639, 41.755297225036529 ], [ 67.205944663298965, 25.032065274143068 ] ] } },
{ "type": "Feature", "properties": { "z_other": "NEPS_TAJ", "z": "UZB", "country_ini_lat": 41.755297225036529, "country_ini_lon": 63.14032753450639, "lat_linestring": 39.25724368604341, "lon_linestring": 66.251330590198023, "c": "UZB", "c2": "AFG" }, "geometry": { "type": "LineString", "coordinates": [ [ 63.14032753450639, 41.755297225036529 ], [ 69.362333645889663, 36.75919014705029 ] ] } },
{ "type": "Feature", "properties": { "z_other": "TAJ_N", "z": "UZB", "country_ini_lat": 41.755297225036529, "country_ini_lon": 63.14032753450639, "lat_linestring": 40.774491917719246, "lon_linestring": 66.182178825309109, "c": "UZB", "c2": "TAJ" }, "geometry": { "type": "LineString", "coordinates": [ [ 63.14032753450639, 41.755297225036529 ], [ 69.224030116111834, 39.79368661040197 ] ] } },
{ "type": "Feature", "properties": { "z_other": "NEPS_UZB", "z": "UZB", "country_ini_lat": 41.755297225036529, "country_ini_lon": 63.14032753450639, "lat_linestring": 38.949474610251954, "lon_linestring": 65.037643252113597, "c": "UZB", "c2": "AFG" }, "geometry": { "type": "LineString", "coordinates": [ [ 63.14032753450639, 41.755297225036529 ], [ 66.934958969720796, 36.143651995467387 ] ] } },
{ "type": "Feature", "properties": { "z_other": "NEPS_TKM", "z": "UZB", "country_ini_lat": 41.755297225036529, "country_ini_lon": 63.14032753450639, "lat_linestring": 38.813584343377386, "lon_linestring": 63.889616818362001, "c": "UZB", "c2": "AFG" }, "geometry": { "type": "LineString", "coordinates": [ [ 63.14032753450639, 41.755297225036529 ], [ 64.638906102217604, 35.871871461718243 ] ] } },
{ "type": "Feature", "properties": { "z_other": "NEPS_HERAT", "z": "UZB", "country_ini_lat": 41.755297225036529, "country_ini_lon": 63.14032753450639, "lat_linestring": 37.972596382000518, "lon_linestring": 62.633794360268269, "c": "UZB", "c2": "AFG" }, "geometry": { "type": "LineString", "coordinates": [ [ 63.14032753450639, 41.755297225036529 ], [ 62.12726118603014, 34.189895538964507 ] ] } },
{ "type": "Feature", "properties": { "z_other": "KGZ_S", "z": "UZB", "country_ini_lat": 41.755297225036529, "country_ini_lon": 63.14032753450639, "lat_linestring": 41.225915764678561, "lon_linestring": 67.772156760467198, "c": "UZB", "c2": "KGZ" }, "geometry": { "type": "LineString", "coordinates": [ [ 63.14032753450639, 41.755297225036529 ], [ 72.403985986428012, 40.696534304320586 ] ] } },
{ "type": "Feature", "properties": { "z_other": "TAJ_S", "z": "UZB", "country_ini_lat": 41.755297225036529, "country_ini_lon": 63.14032753450639, "lat_linestring": 39.999153090900919, "lon_linestring": 67.281972059386845, "c": "UZB", "c2": "TAJ" }, "geometry": { "type": "LineString", "coordinates": [ [ 63.14032753450639, 41.755297225036529 ], [ 71.423616584267307, 38.243008956765316 ] ] } },
{ "type": "Feature", "properties": { "z_other": "KGZ_N", "z": "UZB", "country_ini_lat": 41.755297225036529, "country_ini_lon": 63.14032753450639, "lat_linestring": 41.85987018943689, "lon_linestring": 69.54298271860722, "c": "UZB", "c2": "KGZ" }, "geometry": { "type": "LineString", "coordinates": [ [ 63.14032753450639, 41.755297225036529 ], [ 75.945637902708057, 41.964443153837244 ] ] } },
{ "type": "Feature", "properties": { "z_other": "NEPS_AFG", "z": "UZB", "country_ini_lat": 41.755297225036529, "country_ini_lon": 63.14032753450639, "lat_linestring": 37.332515064164028, "lon_linestring": 65.085673830440129, "c": "UZB", "c2": "AFG" }, "geometry": { "type": "LineString", "coordinates": [ [ 63.14032753450639, 41.755297225036529 ], [ 67.031020126373861, 32.90973290329152 ] ] } },
{ "type": "Feature", "properties": { "z_other": "PAK_N", "z": "UZB", "country_ini_lat": 41.755297225036529, "country_ini_lon": 63.14032753450639, "lat_linestring": 37.229975361149457, "lon_linestring": 67.842517780279209, "c": "UZB", "c2": "PAK" }, "geometry": { "type": "LineString", "coordinates": [ [ 63.14032753450639, 41.755297225036529 ], [ 72.544708026052035, 32.704653497262385 ] ] } },
{ "type": "Feature", "properties": { "z_other": "PAK_S", "z": "UZB", "country_ini_lat": 41.755297225036529, "country_ini_lon": 63.14032753450639, "lat_linestring": 34.720281670675533, "lon_linestring": 64.913508024777428, "c": "UZB", "c2": "PAK" }, "geometry": { "type": "LineString", "coordinates": [ [ 63.14032753450639, 41.755297225036529 ], [ 66.686688515048473, 27.685266116314544 ] ] } },
{ "type": "Feature", "properties": { "z_other": "TUR", "z": "UZB", "country_ini_lat": 41.755297225036529, "country_ini_lon": 63.14032753450639, "lat_linestring": 40.435703205438486, "lon_linestring": 61.257991344943179, "c": "UZB", "c2": "TUR" }, "geometry": { "type": "LineString", "coordinates": [ [ 63.14032753450639, 41.755297225036529 ], [ 59.375655155379974, 39.11610918584045 ] ] } },
{ "type": "Feature", "properties": { "z_other": "KAZ_S", "z": "UZB", "country_ini_lat": 41.755297225036529, "country_ini_lon": 63.14032753450639, "lat_linestring": 43.179216113456604, "lon_linestring": 66.923153364861051, "c": "UZB", "c2": "KAZ" }, "geometry": { "type": "LineString", "coordinates": [ [ 63.14032753450639, 41.755297225036529 ], [ 70.705979195215704, 44.60313500187668 ] ] } },
{ "type": "Feature", "properties": { "z_other": "KAZ_N", "z": "UZB", "country_ini_lat": 41.755297225036529, "country_ini_lon": 63.14032753450639, "lat_linestring": 45.804379271888514, "lon_linestring": 66.478464713249522, "c": "UZB", "c2": "KAZ" }, "geometry": { "type": "LineString", "coordinates": [ [ 63.14032753450639, 41.755297225036529 ], [ 69.816601891992661, 49.8534613187405 ] ] } },
{ "type": "Feature", "properties": { "z_other": "PAK_KAR", "z": "TUR", "country_ini_lat": 39.11610918584045, "country_ini_lon": 59.375655155379974, "lat_linestring": 32.074087229991761, "lon_linestring": 63.290799909339469, "c": "TUR", "c2": "PAK" }, "geometry": { "type": "LineString", "coordinates": [ [ 59.375655155379974, 39.11610918584045 ], [ 67.205944663298965, 25.032065274143068 ] ] } },
{ "type": "Feature", "properties": { "z_other": "NEPS_TAJ", "z": "TUR", "country_ini_lat": 39.11610918584045, "country_ini_lon": 59.375655155379974, "lat_linestring": 37.937649666445367, "lon_linestring": 64.368994400634818, "c": "TUR", "c2": "AFG" }, "geometry": { "type": "LineString", "coordinates": [ [ 59.375655155379974, 39.11610918584045 ], [ 69.362333645889663, 36.75919014705029 ] ] } },
{ "type": "Feature", "properties": { "z_other": "TAJ_N", "z": "TUR", "country_ini_lat": 39.11610918584045, "country_ini_lon": 59.375655155379974, "lat_linestring": 39.45489789812121, "lon_linestring": 64.299842635745904, "c": "TUR", "c2": "TAJ" }, "geometry": { "type": "LineString", "coordinates": [ [ 59.375655155379974, 39.11610918584045 ], [ 69.224030116111834, 39.79368661040197 ] ] } },
{ "type": "Feature", "properties": { "z_other": "NEPS_UZB", "z": "TUR", "country_ini_lat": 39.11610918584045, "country_ini_lon": 59.375655155379974, "lat_linestring": 37.629880590653919, "lon_linestring": 63.155307062550378, "c": "TUR", "c2": "AFG" }, "geometry": { "type": "LineString", "coordinates": [ [ 59.375655155379974, 39.11610918584045 ], [ 66.934958969720796, 36.143651995467387 ] ] } },
{ "type": "Feature", "properties": { "z_other": "NEPS_TKM", "z": "TUR", "country_ini_lat": 39.11610918584045, "country_ini_lon": 59.375655155379974, "lat_linestring": 37.493990323779343, "lon_linestring": 62.007280628798789, "c": "TUR", "c2": "AFG" }, "geometry": { "type": "LineString", "coordinates": [ [ 59.375655155379974, 39.11610918584045 ], [ 64.638906102217604, 35.871871461718243 ] ] } },
{ "type": "Feature", "properties": { "z_other": "NEPS_HERAT", "z": "TUR", "country_ini_lat": 39.11610918584045, "country_ini_lon": 59.375655155379974, "lat_linestring": 36.653002362402475, "lon_linestring": 60.751458170705057, "c": "TUR", "c2": "AFG" }, "geometry": { "type": "LineString", "coordinates": [ [ 59.375655155379974, 39.11610918584045 ], [ 62.12726118603014, 34.189895538964507 ] ] } },
{ "type": "Feature", "properties": { "z_other": "KGZ_S", "z": "TUR", "country_ini_lat": 39.11610918584045, "country_ini_lon": 59.375655155379974, "lat_linestring": 39.906321745080518, "lon_linestring": 65.889820570903993, "c": "TUR", "c2": "KGZ" }, "geometry": { "type": "LineString", "coordinates": [ [ 59.375655155379974, 39.11610918584045 ], [ 72.403985986428012, 40.696534304320586 ] ] } },
{ "type": "Feature", "properties": { "z_other": "TAJ_S", "z": "TUR", "country_ini_lat": 39.11610918584045, "country_ini_lon": 59.375655155379974, "lat_linestring": 38.679559071302883, "lon_linestring": 65.399635869823641, "c": "TUR", "c2": "TAJ" }, "geometry": { "type": "LineString", "coordinates": [ [ 59.375655155379974, 39.11610918584045 ], [ 71.423616584267307, 38.243008956765316 ] ] } },
{ "type": "Feature", "properties": { "z_other": "KGZ_N", "z": "TUR", "country_ini_lat": 39.11610918584045, "country_ini_lon": 59.375655155379974, "lat_linestring": 40.540276169838847, "lon_linestring": 67.660646529044016, "c": "TUR", "c2": "KGZ" }, "geometry": { "type": "LineString", "coordinates": [ [ 59.375655155379974, 39.11610918584045 ], [ 75.945637902708057, 41.964443153837244 ] ] } },
{ "type": "Feature", "properties": { "z_other": "NEPS_AFG", "z": "TUR", "country_ini_lat": 39.11610918584045, "country_ini_lon": 59.375655155379974, "lat_linestring": 36.012921044565985, "lon_linestring": 63.20333764087691, "c": "TUR", "c2": "AFG" }, "geometry": { "type": "LineString", "coordinates": [ [ 59.375655155379974, 39.11610918584045 ], [ 67.031020126373861, 32.90973290329152 ] ] } },
{ "type": "Feature", "properties": { "z_other": "PAK_N", "z": "TUR", "country_ini_lat": 39.11610918584045, "country_ini_lon": 59.375655155379974, "lat_linestring": 35.910381341551414, "lon_linestring": 65.960181590716005, "c": "TUR", "c2": "PAK" }, "geometry": { "type": "LineString", "coordinates": [ [ 59.375655155379974, 39.11610918584045 ], [ 72.544708026052035, 32.704653497262385 ] ] } },
{ "type": "Feature", "properties": { "z_other": "PAK_S", "z": "TUR", "country_ini_lat": 39.11610918584045, "country_ini_lon": 59.375655155379974, "lat_linestring": 33.400687651077497, "lon_linestring": 63.031171835214224, "c": "TUR", "c2": "PAK" }, "geometry": { "type": "LineString", "coordinates": [ [ 59.375655155379974, 39.11610918584045 ], [ 66.686688515048473, 27.685266116314544 ] ] } },
{ "type": "Feature", "properties": { "z_other": "UZB", "z": "TUR", "country_ini_lat": 39.11610918584045, "country_ini_lon": 59.375655155379974, "lat_linestring": 40.435703205438486, "lon_linestring": 61.257991344943179, "c": "TUR", "c2": "UZB" }, "geometry": { "type": "LineString", "coordinates": [ [ 59.375655155379974, 39.11610918584045 ], [ 63.14032753450639, 41.755297225036529 ] ] } },
{ "type": "Feature", "properties": { "z_other": "KAZ_S", "z": "TUR", "country_ini_lat": 39.11610918584045, "country_ini_lon": 59.375655155379974, "lat_linestring": 41.859622093858562, "lon_linestring": 65.040817175297832, "c": "TUR", "c2": "KAZ" }, "geometry": { "type": "LineString", "coordinates": [ [ 59.375655155379974, 39.11610918584045 ], [ 70.705979195215704, 44.60313500187668 ] ] } },
{ "type": "Feature", "properties": { "z_other": "KAZ_N", "z": "TUR", "country_ini_lat": 39.11610918584045, "country_ini_lon": 59.375655155379974, "lat_linestring": 44.484785252290479, "lon_linestring": 64.596128523686318, "c": "TUR", "c2": "KAZ" }, "geometry": { "type": "LineString", "coordinates": [ [ 59.375655155379974, 39.11610918584045 ], [ 69.816601891992661, 49.8534613187405 ] ] } },
{ "type": "Feature", "properties": { "z_other": "PAK_KAR", "z": "KAZ_S", "country_ini_lat": 44.60313500187668, "country_ini_lon": 70.705979195215704, "lat_linestring": 34.817600138009873, "lon_linestring": 68.955961929257342, "c": "KAZ", "c2": "PAK" }, "geometry": { "type": "LineString", "coordinates": [ [ 70.705979195215704, 44.60313500187668 ], [ 67.205944663298965, 25.032065274143068 ] ] } },
{ "type": "Feature", "properties": { "z_other": "NEPS_TAJ", "z": "KAZ_S", "country_ini_lat": 44.60313500187668, "country_ini_lon": 70.705979195215704, "lat_linestring": 40.681162574463485, "lon_linestring": 70.034156420552677, "c": "KAZ", "c2": "AFG" }, "geometry": { "type": "LineString", "coordinates": [ [ 70.705979195215704, 44.60313500187668 ], [ 69.362333645889663, 36.75919014705029 ] ] } },
{ "type": "Feature", "properties": { "z_other": "TAJ_N", "z": "KAZ_S", "country_ini_lat": 44.60313500187668, "country_ini_lon": 70.705979195215704, "lat_linestring": 42.198410806139321, "lon_linestring": 69.965004655663762, "c": "KAZ", "c2": "TAJ" }, "geometry": { "type": "LineString", "coordinates": [ [ 70.705979195215704, 44.60313500187668 ], [ 69.224030116111834, 39.79368661040197 ] ] } },
{ "type": "Feature", "properties": { "z_other": "NEPS_UZB", "z": "KAZ_S", "country_ini_lat": 44.60313500187668, "country_ini_lon": 70.705979195215704, "lat_linestring": 40.37339349867203, "lon_linestring": 68.82046908246825, "c": "KAZ", "c2": "AFG" }, "geometry": { "type": "LineString", "coordinates": [ [ 70.705979195215704, 44.60313500187668 ], [ 66.934958969720796, 36.143651995467387 ] ] } },
{ "type": "Feature", "properties": { "z_other": "NEPS_TKM", "z": "KAZ_S", "country_ini_lat": 44.60313500187668, "country_ini_lon": 70.705979195215704, "lat_linestring": 40.237503231797461, "lon_linestring": 67.672442648716654, "c": "KAZ", "c2": "AFG" }, "geometry": { "type": "LineString", "coordinates": [ [ 70.705979195215704, 44.60313500187668 ], [ 64.638906102217604, 35.871871461718243 ] ] } },
{ "type": "Feature", "properties": { "z_other": "NEPS_HERAT", "z": "KAZ_S", "country_ini_lat": 44.60313500187668, "country_ini_lon": 70.705979195215704, "lat_linestring": 39.396515270420593, "lon_linestring": 66.416620190622922, "c": "KAZ", "c2": "AFG" }, "geometry": { "type": "LineString", "coordinates": [ [ 70.705979195215704, 44.60313500187668 ], [ 62.12726118603014, 34.189895538964507 ] ] } },
{ "type": "Feature", "properties": { "z_other": "KGZ_S", "z": "KAZ_S", "country_ini_lat": 44.60313500187668, "country_ini_lon": 70.705979195215704, "lat_linestring": 42.649834653098637, "lon_linestring": 71.554982590821851, "c": "KAZ", "c2": "KGZ" }, "geometry": { "type": "LineString", "coordinates": [ [ 70.705979195215704, 44.60313500187668 ], [ 72.403985986428012, 40.696534304320586 ] ] } },
{ "type": "Feature", "properties": { "z_other": "TAJ_S", "z": "KAZ_S", "country_ini_lat": 44.60313500187668, "country_ini_lon": 70.705979195215704, "lat_linestring": 41.423071979320994, "lon_linestring": 71.064797889741499, "c": "KAZ", "c2": "TAJ" }, "geometry": { "type": "LineString", "coordinates": [ [ 70.705979195215704, 44.60313500187668 ], [ 71.423616584267307, 38.243008956765316 ] ] } },
{ "type": "Feature", "properties": { "z_other": "KGZ_N", "z": "KAZ_S", "country_ini_lat": 44.60313500187668, "country_ini_lon": 70.705979195215704, "lat_linestring": 43.283789077856966, "lon_linestring": 73.325808548961874, "c": "KAZ", "c2": "KGZ" }, "geometry": { "type": "LineString", "coordinates": [ [ 70.705979195215704, 44.60313500187668 ], [ 75.945637902708057, 41.964443153837244 ] ] } },
{ "type": "Feature", "properties": { "z_other": "NEPS_AFG", "z": "KAZ_S", "country_ini_lat": 44.60313500187668, "country_ini_lon": 70.705979195215704, "lat_linestring": 38.756433952584104, "lon_linestring": 68.868499660794782, "c": "KAZ", "c2": "AFG" }, "geometry": { "type": "LineString", "coordinates": [ [ 70.705979195215704, 44.60313500187668 ], [ 67.031020126373861, 32.90973290329152 ] ] } },
{ "type": "Feature", "properties": { "z_other": "PAK_N", "z": "KAZ_S", "country_ini_lat": 44.60313500187668, "country_ini_lon": 70.705979195215704, "lat_linestring": 38.653894249569532, "lon_linestring": 71.625343610633877, "c": "KAZ", "c2": "PAK" }, "geometry": { "type": "LineString", "coordinates": [ [ 70.705979195215704, 44.60313500187668 ], [ 72.544708026052035, 32.704653497262385 ] ] } },
{ "type": "Feature", "properties": { "z_other": "PAK_S", "z": "KAZ_S", "country_ini_lat": 44.60313500187668, "country_ini_lon": 70.705979195215704, "lat_linestring": 36.144200559095609, "lon_linestring": 68.696333855132082, "c": "KAZ", "c2": "PAK" }, "geometry": { "type": "LineString", "coordinates": [ [ 70.705979195215704, 44.60313500187668 ], [ 66.686688515048473, 27.685266116314544 ] ] } },
{ "type": "Feature", "properties": { "z_other": "UZB", "z": "KAZ_S", "country_ini_lat": 44.60313500187668, "country_ini_lon": 70.705979195215704, "lat_linestring": 43.179216113456604, "lon_linestring": 66.923153364861051, "c": "KAZ", "c2": "UZB" }, "geometry": { "type": "LineString", "coordinates": [ [ 70.705979195215704, 44.60313500187668 ], [ 63.14032753450639, 41.755297225036529 ] ] } },
{ "type": "Feature", "properties": { "z_other": "TUR", "z": "KAZ_S", "country_ini_lat": 44.60313500187668, "country_ini_lon": 70.705979195215704, "lat_linestring": 41.859622093858562, "lon_linestring": 65.040817175297832, "c": "KAZ", "c2": "TUR" }, "geometry": { "type": "LineString", "coordinates": [ [ 70.705979195215704, 44.60313500187668 ], [ 59.375655155379974, 39.11610918584045 ] ] } },
{ "type": "Feature", "properties": { "z_other": "KAZ_N", "z": "KAZ_S", "country_ini_lat": 44.60313500187668, "country_ini_lon": 70.705979195215704, "lat_linestring": 47.22829816030859, "lon_linestring": 70.26129054360419, "c": "KAZ", "c2": "KAZ" }, "geometry": { "type": "LineString", "coordinates": [ [ 70.705979195215704, 44.60313500187668 ], [ 69.816601891992661, 49.8534613187405 ] ] } },
{ "type": "Feature", "properties": { "z_other": "PAK_KAR", "z": "KAZ_N", "country_ini_lat": 49.8534613187405, "country_ini_lon": 69.816601891992661, "lat_linestring": 37.442763296441782, "lon_linestring": 68.511273277645813, "c": "KAZ", "c2": "PAK" }, "geometry": { "type": "LineString", "coordinates": [ [ 69.816601891992661, 49.8534613187405 ], [ 67.205944663298965, 25.032065274143068 ] ] } },
{ "type": "Feature", "properties": { "z_other": "NEPS_TAJ", "z": "KAZ_N", "country_ini_lat": 49.8534613187405, "country_ini_lon": 69.816601891992661, "lat_linestring": 43.306325732895395, "lon_linestring": 69.589467768941162, "c": "KAZ", "c2": "AFG" }, "geometry": { "type": "LineString", "coordinates": [ [ 69.816601891992661, 49.8534613187405 ], [ 69.362333645889663, 36.75919014705029 ] ] } },
{ "type": "Feature", "properties": { "z_other": "TAJ_N", "z": "KAZ_N", "country_ini_lat": 49.8534613187405, "country_ini_lon": 69.816601891992661, "lat_linestring": 44.823573964571239, "lon_linestring": 69.520316004052248, "c": "KAZ", "c2": "TAJ" }, "geometry": { "type": "LineString", "coordinates": [ [ 69.816601891992661, 49.8534613187405 ], [ 69.224030116111834, 39.79368661040197 ] ] } },
{ "type": "Feature", "properties": { "z_other": "NEPS_UZB", "z": "KAZ_N", "country_ini_lat": 49.8534613187405, "country_ini_lon": 69.816601891992661, "lat_linestring": 42.998556657103954, "lon_linestring": 68.375780430856736, "c": "KAZ", "c2": "AFG" }, "geometry": { "type": "LineString", "coordinates": [ [ 69.816601891992661, 49.8534613187405 ], [ 66.934958969720796, 36.143651995467387 ] ] } },
{ "type": "Feature", "properties": { "z_other": "NEPS_TKM", "z": "KAZ_N", "country_ini_lat": 49.8534613187405, "country_ini_lon": 69.816601891992661, "lat_linestring": 42.862666390229371, "lon_linestring": 67.22775399710514, "c": "KAZ", "c2": "AFG" }, "geometry": { "type": "LineString", "coordinates": [ [ 69.816601891992661, 49.8534613187405 ], [ 64.638906102217604, 35.871871461718243 ] ] } },
{ "type": "Feature", "properties": { "z_other": "NEPS_HERAT", "z": "KAZ_N", "country_ini_lat": 49.8534613187405, "country_ini_lon": 69.816601891992661, "lat_linestring": 42.021678428852503, "lon_linestring": 65.971931539011393, "c": "KAZ", "c2": "AFG" }, "geometry": { "type": "LineString", "coordinates": [ [ 69.816601891992661, 49.8534613187405 ], [ 62.12726118603014, 34.189895538964507 ] ] } },
{ "type": "Feature", "properties": { "z_other": "KGZ_S", "z": "KAZ_N", "country_ini_lat": 49.8534613187405, "country_ini_lon": 69.816601891992661, "lat_linestring": 45.27499781153054, "lon_linestring": 71.110293939210337, "c": "KAZ", "c2": "KGZ" }, "geometry": { "type": "LineString", "coordinates": [ [ 69.816601891992661, 49.8534613187405 ], [ 72.403985986428012, 40.696534304320586 ] ] } },
{ "type": "Feature", "properties": { "z_other": "TAJ_S", "z": "KAZ_N", "country_ini_lat": 49.8534613187405, "country_ini_lon": 69.816601891992661, "lat_linestring": 44.048235137752911, "lon_linestring": 70.620109238129984, "c": "KAZ", "c2": "TAJ" }, "geometry": { "type": "LineString", "coordinates": [ [ 69.816601891992661, 49.8534613187405 ], [ 71.423616584267307, 38.243008956765316 ] ] } },
{ "type": "Feature", "properties": { "z_other": "KGZ_N", "z": "KAZ_N", "country_ini_lat": 49.8534613187405, "country_ini_lon": 69.816601891992661, "lat_linestring": 45.908952236288869, "lon_linestring": 72.881119897350359, "c": "KAZ", "c2": "KGZ" }, "geometry": { "type": "LineString", "coordinates": [ [ 69.816601891992661, 49.8534613187405 ], [ 75.945637902708057, 41.964443153837244 ] ] } },
{ "type": "Feature", "properties": { "z_other": "NEPS_AFG", "z": "KAZ_N", "country_ini_lat": 49.8534613187405, "country_ini_lon": 69.816601891992661, "lat_linestring": 41.381597111016006, "lon_linestring": 68.423811009183254, "c": "KAZ", "c2": "AFG" }, "geometry": { "type": "LineString", "coordinates": [ [ 69.816601891992661, 49.8534613187405 ], [ 67.031020126373861, 32.90973290329152 ] ] } },
{ "type": "Feature", "properties": { "z_other": "PAK_N", "z": "KAZ_N", "country_ini_lat": 49.8534613187405, "country_ini_lon": 69.816601891992661, "lat_linestring": 41.279057408001442, "lon_linestring": 71.180654959022348, "c": "KAZ", "c2": "PAK" }, "geometry": { "type": "LineString", "coordinates": [ [ 69.816601891992661, 49.8534613187405 ], [ 72.544708026052035, 32.704653497262385 ] ] } },
{ "type": "Feature", "properties": { "z_other": "PAK_S", "z": "KAZ_N", "country_ini_lat": 49.8534613187405, "country_ini_lon": 69.816601891992661, "lat_linestring": 38.769363717527526, "lon_linestring": 68.251645203520567, "c": "KAZ", "c2": "PAK" }, "geometry": { "type": "LineString", "coordinates": [ [ 69.816601891992661, 49.8534613187405 ], [ 66.686688515048473, 27.685266116314544 ] ] } },
{ "type": "Feature", "properties": { "z_other": "UZB", "z": "KAZ_N", "country_ini_lat": 49.8534613187405, "country_ini_lon": 69.816601891992661, "lat_linestring": 45.804379271888514, "lon_linestring": 66.478464713249522, "c": "KAZ", "c2": "UZB" }, "geometry": { "type": "LineString", "coordinates": [ [ 69.816601891992661, 49.8534613187405 ], [ 63.14032753450639, 41.755297225036529 ] ] } },
{ "type": "Feature", "properties": { "z_other": "TUR", "z": "KAZ_N", "country_ini_lat": 49.8534613187405, "country_ini_lon": 69.816601891992661, "lat_linestring": 44.484785252290479, "lon_linestring": 64.596128523686318, "c": "KAZ", "c2": "TUR" }, "geometry": { "type": "LineString", "coordinates": [ [ 69.816601891992661, 49.8534613187405 ], [ 59.375655155379974, 39.11610918584045 ] ] } },
{ "type": "Feature", "properties": { "z_other": "KAZ_S", "z": "KAZ_N", "country_ini_lat": 49.8534613187405, "country_ini_lon": 69.816601891992661, "lat_linestring": 47.22829816030859, "lon_linestring": 70.26129054360419, "c": "KAZ", "c2": "KAZ" }, "geometry": { "type": "LineString", "coordinates": [ [ 69.816601891992661, 49.8534613187405 ], [ 70.705979195215704, 44.60313500187668 ] ] } }
]
}
